UID_EQUIP;CTO_NAME;MODELO;ARMARIO;ENDERECO;MUNICIPIO;LATITUDE;LONGITUDE;TIPO_CTO;SP;SS;NOME_OLT;NOME_PORTA_OLT
EQP0000000011990803;I01G01264;CTO - OPTAP;SCIMA_G1I01;AVENIDA ESTRELA IMBITUBA VILA NOVA 88780000 SC 520;IMBITUBA;-28.266535000;-48.688619100;G0;SCIMA-I01SP158;SCIMA-I01SP158-SS7;IMA_I01_1_GPON_VLAN_100_101_102-ALC;1/1/5/14
EQP0000000011990803;I01G01264;CTO - OPTAP;SCIMA_G1I01;AVENIDA ESTRELA IMBITUBA VILA NOVA 88780000 SC 520;IMBITUBA;-28.266535000;-48.688619100;G0;SCIMA-I01SP158;SCIMA-I01SP158-SS8;IMA_I01_1_GPON_VLAN_100_101_102-ALC;1/1/5/14
EQP0000000011990813;I01G01254;CTO - OPTAP;SCIMA_G1I01;RUA BENITO RUIZ IMBITUBA VILA NOVA 88780000 SC 119;IMBITUBA;-28.265062200;-48.689990300;G0;SCIMA-I01SP157;SCIMA-I01SP157-SS5;IMA_I01_1_GPON_VLAN_100_101_102-ALC;1/1/5/13
EQP0000000011990813;I01G01254;CTO - OPTAP;SCIMA_G1I01;RUA BENITO RUIZ IMBITUBA VILA NOVA 88780000 SC 119;IMBITUBA;-28.265062200;-48.689990300;G0;SCIMA-I01SP157;SCIMA-I01SP157-SS6;IMA_I01_1_GPON_VLAN_100_101_102-ALC;1/1/5/13
EQP0000000011991120;I01G0012;CTO - OPTAP;SCIMA_G1I01;Rua ORLANDO MANOEL IDALINO IMBITUBA VILA NOVA 88780000 SC 124;IMBITUBA;-28.211739000;-48.672589500;G0;SCIMA-I01SP2;SCIMA-I01SP2-SS3;IMA_I01_1_GPON_VLAN_100_101_102-ALC;1/1/1/2
EQP0000000011991120;I01G0012;CTO - OPTAP;SCIMA_G1I01;Rua ORLANDO MANOEL IDALINO IMBITUBA VILA NOVA 88780000 SC 124;IMBITUBA;-28.211739000;-48.672589500;G0;SCIMA-I01SP2;SCIMA-I01SP2-SS4;IMA_I01_1_GPON_VLAN_100_101_102-ALC;1/1/1/2
EQP0000000012009697;I01G01522;CTO - OPTAP;SCIMA_G1I01;RUA PEDRO ANTONIO GONCALVES IMBITUBA VILA SANTO ANTONIO 88780000 SC 246;IMBITUBA;-28.260890000;-48.695596200;G0;SCIMA-I01SP191;SCIMA-I01SP191-SS1;IMA_I01_1_GPON_VLAN_100_101_102-ALC;1/1/6/15
EQP0000000012009697;I01G01522;CTO - OPTAP;SCIMA_G1I01;RUA PEDRO ANTONIO GONCALVES IMBITUBA VILA SANTO ANTONIO 88780000 SC 246;IMBITUBA;-28.260890000;-48.695596200;G0;SCIMA-I01SP191;SCIMA-I01SP191-SS2;IMA_I01_1_GPON_VLAN_100_101_102-ALC;1/1/6/15
EQP0000000011990801;I01G01260;CTO - OPTAP;SCIMA_G1I01;RUA MANOEL SERAFIM IMBITUBA VILA NOVA 88780000 SC 530;IMBITUBA;-28.267625700;-48.690323100;G0;SCIMA-I01SP158;SCIMA-I01SP158-SS3;IMA_I01_1_GPON_VLAN_100_101_102-ALC;1/1/5/14
EQP0000000011990801;I01G01260;CTO - OPTAP;SCIMA_G1I01;RUA MANOEL SERAFIM IMBITUBA VILA NOVA 88780000 SC 530;IMBITUBA;-28.267625700;-48.690323100;G0;SCIMA-I01SP158;SCIMA-I01SP158-SS4;IMA_I01_1_GPON_VLAN_100_101_102-ALC;1/1/5/14
EQP0000000011990853;I01G01228;CTO - OPTAP;SCIMA_G1I01;RUA SIDEROPOLIS IMBITUBA VILA NOVA 88780000 SC 219;IMBITUBA;-28.268131500;-48.691987000;G0;SCIMA-I01SP154;SCIMA-I01SP154-SS3;IMA_I01_1_GPON_VLAN_100_101_102-ALC;1/1/5/10
EQP0000000011990853;I01G01228;CTO - OPTAP;SCIMA_G1I01;RUA SIDEROPOLIS IMBITUBA VILA NOVA 88780000 SC 219;IMBITUBA;-28.268131500;-48.691987000;G0;SCIMA-I01SP154;SCIMA-I01SP154-SS4;IMA_I01_1_GPON_VLAN_100_101_102-ALC;1/1/5/10
EQP0000000011991211;I01G01846;CTO - OPTAP;SCIMA_G1I01;RUA NEREU RAMOS IMBITUBA CENTRO 88780000 SC 1064;IMBITUBA;-28.242229400;-48.671163700;G0;SCIMA-I01SP231;SCIMA-I01SP231-SS6;IMA_I01_1_GPON_VLAN_100_101_102-ALC;1/1/8/8
EQP0000000011991211;I01G01846;CTO - OPTAP;SCIMA_G1I01;RUA NEREU RAMOS IMBITUBA CENTRO 88780000 SC 1064;IMBITUBA;-28.242229400;-48.671163700;G0;SCIMA-I01SP231;SCIMA-I01SP231-SS5;IMA_I01_1_GPON_VLAN_100_101_102-ALC;1/1/8/8
EQP0000000011990732;I01G01506;CTO - OPTAP;SCIMA_G1I01;RUA PEDRO BITENCOURT IMBITUBA   88780000 SC SN;IMBITUBA;-28.262021100;-48.703330300;G0;SCIMA-I01SP189;SCIMA-I01SP189-SS1;IMA_I01_1_GPON_VLAN_100_101_102-ALC;1/1/6/13
EQP0000000011990732;I01G01506;CTO - OPTAP;SCIMA_G1I01;RUA PEDRO BITENCOURT IMBITUBA   88780000 SC SN;IMBITUBA;-28.262021100;-48.703330300;G0;SCIMA-I01SP189;SCIMA-I01SP189-SS2;IMA_I01_1_GPON_VLAN_100_101_102-ALC;1/1/6/13
EQP0000000011990961;I01G0562;CTO - OPTAP;SCIMA_G1I01;AVENIDA SANTA CATARINA IMBITUBA CENTRO 88780000 SC 125;IMBITUBA;-28.236564000;-48.663533600;G0;SCIMA-I01SP71;SCIMA-I01SP71-SS2;IMA_I01_1_GPON_VLAN_100_101_102-ALC;1/1/3/12
EQP0000000011990961;I01G0562;CTO - OPTAP;SCIMA_G1I01;AVENIDA SANTA CATARINA IMBITUBA CENTRO 88780000 SC 125;IMBITUBA;-28.236564000;-48.663533600;G0;SCIMA-I01SP71;SCIMA-I01SP71-SS1;IMA_I01_1_GPON_VLAN_100_101_102-ALC;1/1/3/12
EQP0000000011990750;I01G01518;CTO - OPTAP;SCIMA_G1I01;RUA MANOEL LUCIO MACHADO IMBITUBA VILA SANTO ANTONIO 88780000 SC SN;IMBITUBA;-28.263539400;-48.699669800;G0;SCIMA-I01SP190;SCIMA-I01SP190-SS6;IMA_I01_1_GPON_VLAN_100_101_102-ALC;1/1/6/14
EQP0000000011990750;I01G01518;CTO - OPTAP;SCIMA_G1I01;RUA MANOEL LUCIO MACHADO IMBITUBA VILA SANTO ANTONIO 88780000 SC SN;IMBITUBA;-28.263539400;-48.699669800;G0;SCIMA-I01SP190;SCIMA-I01SP190-SS5;IMA_I01_1_GPON_VLAN_100_101_102-ALC;1/1/6/14
EQP0000000011990841;I01G01174;CTO - OPTAP;SCIMA_G1I01;RUA GOMERCINDO JOAO DANIEL IMBITUBA CAMPO D AVIACAO 88780000 SC SN;IMBITUBA;-28.275432700;-48.697307300;G0;SCIMA-I01SP147;SCIMA-I01SP147-SS6;IMA_I01_1_GPON_VLAN_100_101_102-ALC;1/1/5/7
EQP0000000011990841;I01G01174;CTO - OPTAP;SCIMA_G1I01;RUA GOMERCINDO JOAO DANIEL IMBITUBA CAMPO D AVIACAO 88780000 SC SN;IMBITUBA;-28.275432700;-48.697307300;G0;SCIMA-I01SP147;SCIMA-I01SP147-SS5;IMA_I01_1_GPON_VLAN_100_101_102-ALC;1/1/5/7
EQP0000000011991058;I01G0256;CTO - OPTAP;SCIMA_G1I01;AVENIDA TREZE DE SETEMBRO IMBITUBA VILA NOVA ALVORADA 88780000 SC 5;IMBITUBA;-28.220954400;-48.670394300;G0;SCIMA-I01SP32;SCIMA-I01SP32-SS7;IMA_I01_1_GPON_VLAN_100_101_102-ALC;1/1/1/16
EQP0000000011991058;I01G0256;CTO - OPTAP;SCIMA_G1I01;AVENIDA TREZE DE SETEMBRO IMBITUBA VILA NOVA ALVORADA 88780000 SC 5;IMBITUBA;-28.220954400;-48.670394300;G0;SCIMA-I01SP32;SCIMA-I01SP32-SS8;IMA_I01_1_GPON_VLAN_100_101_102-ALC;1/1/1/16
EQP0000000011990785;I01G01422;CTO - OPTAP;SCIMA_G1I01;RUA RODOLPHO ANTONIO PIRES DE OLIVEIRA IMBITUBA   88780000 SC 407;IMBITUBA;-28.260958400;-48.684515800;G0;SCIMA-I01SP178;SCIMA-I01SP178-SS6;IMA_I01_1_GPON_VLAN_100_101_102-ALC;1/1/6/8
EQP0000000011990785;I01G01422;CTO - OPTAP;SCIMA_G1I01;RUA RODOLPHO ANTONIO PIRES DE OLIVEIRA IMBITUBA   88780000 SC 407;IMBITUBA;-28.260958400;-48.684515800;G0;SCIMA-I01SP178;SCIMA-I01SP178-SS5;IMA_I01_1_GPON_VLAN_100_101_102-ALC;1/1/6/8
EQP0000000012009853;I01G01834;CTO - OPTAP;SCIMA_G1I01;RUA SANTA CATARINA IMBITUBA PAES LEME 88780000 SC 1363;IMBITUBA;-28.242880300;-48.673663200;G0;SCIMA-I01SP230;SCIMA-I01SP230-SS2;IMA_I01_1_GPON_VLAN_100_101_102-ALC;1/1/8/7
EQP0000000012009853;I01G01834;CTO - OPTAP;SCIMA_G1I01;RUA SANTA CATARINA IMBITUBA PAES LEME 88780000 SC 1363;IMBITUBA;-28.242880300;-48.673663200;G0;SCIMA-I01SP230;SCIMA-I01SP230-SS1;IMA_I01_1_GPON_VLAN_100_101_102-ALC;1/1/8/7
EQP0000000011990886;I01G0752;CTO - OPTAP;SCIMA_G1I01;RUA VISCONDE DE BARBACENA IMBITUBA CENTRO 88780000 SC 485;IMBITUBA;-28.243003300;-48.663441200;G0;SCIMA-I01SP94;SCIMA-I01SP94-SS7;IMA_I01_1_GPON_VLAN_100_101_102-ALC;1/1/4/8
EQP0000000011990886;I01G0752;CTO - OPTAP;SCIMA_G1I01;RUA VISCONDE DE BARBACENA IMBITUBA CENTRO 88780000 SC 485;IMBITUBA;-28.243003300;-48.663441200;G0;SCIMA-I01SP94;SCIMA-I01SP94-SS8;IMA_I01_1_GPON_VLAN_100_101_102-ALC;1/1/4/8
EQP0000000011991187;I01G01606;CTO - OPTAP;SCIMA_G1I01;RUA LOURIVAL RAMOS IMBITUBA SAGRADA FAMILIA 88780000 SC 223;IMBITUBA;-28.269929700;-48.698161600;G0;SCIMA-I01SP201;SCIMA-I01SP201-SS6;IMA_I01_1_GPON_VLAN_100_101_102-ALC;1/1/7/5
EQP0000000011991187;I01G01606;CTO - OPTAP;SCIMA_G1I01;RUA LOURIVAL RAMOS IMBITUBA SAGRADA FAMILIA 88780000 SC 223;IMBITUBA;-28.269929700;-48.698161600;G0;SCIMA-I01SP201;SCIMA-I01SP201-SS5;IMA_I01_1_GPON_VLAN_100_101_102-ALC;1/1/7/5
EQP0000000011991179;I01G01740;CTO - OPTAP;SCIMA_G1I01;RUA ITAPUA IMBITUBA PAES LEME 88780000 SC 10;IMBITUBA;-28.250553200;-48.677275400;G0;SCIMA-I01SP218;SCIMA-I01SP218-SS3;IMA_I01_1_GPON_VLAN_100_101_102-ALC;1/1/7/16
EQP0000000011991179;I01G01740;CTO - OPTAP;SCIMA_G1I01;RUA ITAPUA IMBITUBA PAES LEME 88780000 SC 10;IMBITUBA;-28.250553200;-48.677275400;G0;SCIMA-I01SP218;SCIMA-I01SP218-SS4;IMA_I01_1_GPON_VLAN_100_101_102-ALC;1/1/7/16
EQP0000000011991178;I01G01742;CTO - OPTAP;SCIMA_G1I01;RUA PRESALINO PIRES IMBITUBA PAES LEME 88780000 SC 459;IMBITUBA;-28.250527400;-48.677894800;G0;SCIMA-I01SP218;SCIMA-I01SP218-SS6;IMA_I01_1_GPON_VLAN_100_101_102-ALC;1/1/7/16
EQP0000000011991178;I01G01742;CTO - OPTAP;SCIMA_G1I01;RUA PRESALINO PIRES IMBITUBA PAES LEME 88780000 SC 459;IMBITUBA;-28.250527400;-48.677894800;G0;SCIMA-I01SP218;SCIMA-I01SP218-SS5;IMA_I01_1_GPON_VLAN_100_101_102-ALC;1/1/7/16
EQP0000000012008278;I01GP590;TO;SCIMA_G1I01;AVENIDA MANOEL FLORENTINO MACHADO IMBITUBA CENTRO 88780000 SC 405;IMBITUBA;-28.238148400;-48.661187200;GP;SCIMA-I01SP74;SCIMA-I01SP74-SS6;IMA_I01_1_GPON_VLAN_100_101_102-ALC;1/1/3/15
EQP0000000011991052;I01G0520;CTO - OPTAP;SCIMA_G1I01;RUA TRES DE OUTUBRO IMBITUBA CENTRO 88780000 SC 669;IMBITUBA;-28.237849700;-48.669345000;G0;SCIMA-I01SP65;SCIMA-I01SP65-SS7;IMA_I01_1_GPON_VLAN_100_101_102-ALC;1/1/3/6
EQP0000000011991052;I01G0520;CTO - OPTAP;SCIMA_G1I01;RUA TRES DE OUTUBRO IMBITUBA CENTRO 88780000 SC 669;IMBITUBA;-28.237849700;-48.669345000;G0;SCIMA-I01SP65;SCIMA-I01SP65-SS8;IMA_I01_1_GPON_VLAN_100_101_102-ALC;1/1/3/6
EQP0000000011990721;I01G01844;CTO - OPTAP;SCIMA_G1I01;RUA NEREU RAMOS IMBITUBA CENTRO 88780000 SC 1033;IMBITUBA;-28.242231500;-48.670764300;G0;SCIMA-I01SP231;SCIMA-I01SP231-SS4;IMA_I01_1_GPON_VLAN_100_101_102-ALC;1/1/8/8
EQP0000000011990721;I01G01844;CTO - OPTAP;SCIMA_G1I01;RUA NEREU RAMOS IMBITUBA CENTRO 88780000 SC 1033;IMBITUBA;-28.242231500;-48.670764300;G0;SCIMA-I01SP231;SCIMA-I01SP231-SS3;IMA_I01_1_GPON_VLAN_100_101_102-ALC;1/1/8/8
EQP0000000011991109;I01G0104;CTO - OPTAP;SCIMA_G1I01;RUA ANTONIO OLEIRO IMBITUBA VILA ALVORADA 88780000 SC 209;IMBITUBA;-28.221470500;-48.666995600;G0;SCIMA-I01SP13;SCIMA-I01SP13-SS7;IMA_I01_1_GPON_VLAN_100_101_102-ALC;1/1/1/10
EQP0000000011991109;I01G0104;CTO - OPTAP;SCIMA_G1I01;RUA ANTONIO OLEIRO IMBITUBA VILA ALVORADA 88780000 SC 209;IMBITUBA;-28.221470500;-48.666995600;G0;SCIMA-I01SP13;SCIMA-I01SP13-SS8;IMA_I01_1_GPON_VLAN_100_101_102-ALC;1/1/1/10
EQP0000000011991199;I01G01560;CTO - OPTAP;SCIMA_G1I01;RUA CASTRO ALVES IMBITUBA SAGRADA FAMILIA 88780000 SC 268;IMBITUBA;-28.267115000;-48.695826900;G0;SCIMA-I01SP195;SCIMA-I01SP195-SS7;IMA_I01_1_GPON_VLAN_100_101_102-ALC;1/1/7/3
EQP0000000011991199;I01G01560;CTO - OPTAP;SCIMA_G1I01;RUA CASTRO ALVES IMBITUBA SAGRADA FAMILIA 88780000 SC 268;IMBITUBA;-28.267115000;-48.695826900;G0;SCIMA-I01SP195;SCIMA-I01SP195-SS8;IMA_I01_1_GPON_VLAN_100_101_102-ALC;1/1/7/3
EQP0000000012009834;I01G0188;CTO - OPTAP;SCIMA_G1I01;RUA BELA VISTA IMBITUBA VILA ALVORADA 88780000 SC 309;IMBITUBA;-28.224729000;-48.670073900;G0;SCIMA-I01SP24;SCIMA-I01SP24-SS4;IMA_I01_1_GPON_VLAN_100_101_102-ALC;1/1/1/15
EQP0000000012009834;I01G0188;CTO - OPTAP;SCIMA_G1I01;RUA BELA VISTA IMBITUBA VILA ALVORADA 88780000 SC 309;IMBITUBA;-28.224729000;-48.670073900;G0;SCIMA-I01SP24;SCIMA-I01SP24-SS3;IMA_I01_1_GPON_VLAN_100_101_102-ALC;1/1/1/15
EQP0000000011991184;I01G01836;CTO - OPTAP;SCIMA_G1I01;AVENIDA SANTA CATARINA IMBITUBA CENTRO 88780000 SC 1151;IMBITUBA;-28.241888500;-48.672564500;G0;SCIMA-I01SP230;SCIMA-I01SP230-SS3;IMA_I01_1_GPON_VLAN_100_101_102-ALC;1/1/8/7
EQP0000000011991184;I01G01836;CTO - OPTAP;SCIMA_G1I01;AVENIDA SANTA CATARINA IMBITUBA CENTRO 88780000 SC 1151;IMBITUBA;-28.241888500;-48.672564500;G0;SCIMA-I01SP230;SCIMA-I01SP230-SS4;IMA_I01_1_GPON_VLAN_100_101_102-ALC;1/1/8/7
EQP0000000011991183;I01G01738;CTO - OPTAP;SCIMA_G1I01;RUA ROSENDO ISIDORO FREITAS IMBITUBA PAES LEME 88780000 SC 326;IMBITUBA;-28.249640900;-48.676755200;G0;SCIMA-I01SP218;SCIMA-I01SP218-SS2;IMA_I01_1_GPON_VLAN_100_101_102-ALC;1/1/7/16
EQP0000000011991183;I01G01738;CTO - OPTAP;SCIMA_G1I01;RUA ROSENDO ISIDORO FREITAS IMBITUBA PAES LEME 88780000 SC 326;IMBITUBA;-28.249640900;-48.676755200;G0;SCIMA-I01SP218;SCIMA-I01SP218-SS1;IMA_I01_1_GPON_VLAN_100_101_102-ALC;1/1/7/16
EQP0000000012009705;I01G01230;CTO - OPTAP;SCIMA_G1I01;RUA FARRAPOS IMBITUBA VILA NOVA 88780000 SC 136;IMBITUBA;-28.268645300;-48.692057800;G0;SCIMA-I01SP154;SCIMA-I01SP154-SS5;IMA_I01_1_GPON_VLAN_100_101_102-ALC;1/1/5/10
EQP0000000012009705;I01G01230;CTO - OPTAP;SCIMA_G1I01;RUA FARRAPOS IMBITUBA VILA NOVA 88780000 SC 136;IMBITUBA;-28.268645300;-48.692057800;G0;SCIMA-I01SP154;SCIMA-I01SP154-SS6;IMA_I01_1_GPON_VLAN_100_101_102-ALC;1/1/5/10
EQP0000000011991191;I01G01548;CTO - OPTAP;SCIMA_G1I01;RUA DOS REIS IMBITUBA SAGRADA FAMILIA 88780000 SC 480;IMBITUBA;-28.271247800;-48.696432400;G0;SCIMA-I01SP194;SCIMA-I01SP194-SS3;IMA_I01_1_GPON_VLAN_100_101_102-ALC;1/1/7/2
EQP0000000011991191;I01G01548;CTO - OPTAP;SCIMA_G1I01;RUA DOS REIS IMBITUBA SAGRADA FAMILIA 88780000 SC 480;IMBITUBA;-28.271247800;-48.696432400;G0;SCIMA-I01SP194;SCIMA-I01SP194-SS4;IMA_I01_1_GPON_VLAN_100_101_102-ALC;1/1/7/2
EQP0000000012009851;I01G01840;CTO - OPTAP;SCIMA_G1I01;AVENIDA SANTA CATARINA IMBITUBA CENTRO 88780000 SC 923;IMBITUBA;-28.240773700;-48.670289000;G0;SCIMA-I01SP230;SCIMA-I01SP230-SS7;IMA_I01_1_GPON_VLAN_100_101_102-ALC;1/1/8/7
EQP0000000012009851;I01G01840;CTO - OPTAP;SCIMA_G1I01;AVENIDA SANTA CATARINA IMBITUBA CENTRO 88780000 SC 923;IMBITUBA;-28.240773700;-48.670289000;G0;SCIMA-I01SP230;SCIMA-I01SP230-SS8;IMA_I01_1_GPON_VLAN_100_101_102-ALC;1/1/8/7
EQP0000000011990791;I01G01432;CTO - OPTAP;SCIMA_G1I01;RUA SAO JOSE IMBITUBA VILA NOVA 88780000 SC 112;IMBITUBA;-28.259714900;-48.686091900;G0;SCIMA-I01SP179;SCIMA-I01SP179-SS7;IMA_I01_1_GPON_VLAN_100_101_102-ALC;1/1/6/9
EQP0000000011990791;I01G01432;CTO - OPTAP;SCIMA_G1I01;RUA SAO JOSE IMBITUBA VILA NOVA 88780000 SC 112;IMBITUBA;-28.259714900;-48.686091900;G0;SCIMA-I01SP179;SCIMA-I01SP179-SS8;IMA_I01_1_GPON_VLAN_100_101_102-ALC;1/1/6/9
EQP0000000011990821;I01G01222;CTO - OPTAP;SCIMA_G1I01;RUA JOAO EUFRAZIO FIGUEIREDO IMBITUBA VILA NOVA 88780000 SC SN;IMBITUBA;-28.272081400;-48.689606800;G0;SCIMA-I01SP153;SCIMA-I01SP153-SS6;IMA_I01_1_GPON_VLAN_100_101_102-ALC;1/1/5/9
EQP0000000011990821;I01G01222;CTO - OPTAP;SCIMA_G1I01;RUA JOAO EUFRAZIO FIGUEIREDO IMBITUBA VILA NOVA 88780000 SC SN;IMBITUBA;-28.272081400;-48.689606800;G0;SCIMA-I01SP153;SCIMA-I01SP153-SS5;IMA_I01_1_GPON_VLAN_100_101_102-ALC;1/1/5/9
EQP0000000011990825;I01G01218;CTO - OPTAP;SCIMA_G1I01;RUA RAUL LEONIDAS IMBITUBA CAMPO D AVIACAO 88780000 SC 27;IMBITUBA;-28.273412200;-48.692259200;G0;SCIMA-I01SP153;SCIMA-I01SP153-SS2;IMA_I01_1_GPON_VLAN_100_101_102-ALC;1/1/5/9
EQP0000000011990825;I01G01218;CTO - OPTAP;SCIMA_G1I01;RUA RAUL LEONIDAS IMBITUBA CAMPO D AVIACAO 88780000 SC 27;IMBITUBA;-28.273412200;-48.692259200;G0;SCIMA-I01SP153;SCIMA-I01SP153-SS1;IMA_I01_1_GPON_VLAN_100_101_102-ALC;1/1/5/9
EQP0000000011991143;I01G01806;CTO - OPTAP;SCIMA_G1I01;RUA ANTONIO PAES IMBITUBA PAES LEME 88780000 SC 160;IMBITUBA;-28.244913400;-48.675882400;G0;SCIMA-I01SP226;SCIMA-I01SP226-SS5;IMA_I01_1_GPON_VLAN_100_101_102-ALC;1/1/8/3
EQP0000000011991143;I01G01806;CTO - OPTAP;SCIMA_G1I01;RUA ANTONIO PAES IMBITUBA PAES LEME 88780000 SC 160;IMBITUBA;-28.244913400;-48.675882400;G0;SCIMA-I01SP226;SCIMA-I01SP226-SS6;IMA_I01_1_GPON_VLAN_100_101_102-ALC;1/1/8/3
EQP0000000012009699;I01G01386;CTO - OPTAP;SCIMA_G1I01;RUA OLAVO BILAC IMBITUBA VILA NOVA 88780000 SC 383;IMBITUBA;-28.264961400;-48.687409900;G0;SCIMA-I01SP174;SCIMA-I01SP174-SS2;IMA_I01_1_GPON_VLAN_100_101_102-ALC;1/1/6/4
EQP0000000012009699;I01G01386;CTO - OPTAP;SCIMA_G1I01;RUA OLAVO BILAC IMBITUBA VILA NOVA 88780000 SC 383;IMBITUBA;-28.264961400;-48.687409900;G0;SCIMA-I01SP174;SCIMA-I01SP174-SS1;IMA_I01_1_GPON_VLAN_100_101_102-ALC;1/1/6/4
EQP0000000011991192;I01G01550;CTO - OPTAP;SCIMA_G1I01;RUA DOS REIS IMBITUBA SAGRADA FAMILIA 88780000 SC 283;IMBITUBA;-28.269781400;-48.695724500;G0;SCIMA-I01SP194;SCIMA-I01SP194-SS5;IMA_I01_1_GPON_VLAN_100_101_102-ALC;1/1/7/2
EQP0000000011991192;I01G01550;CTO - OPTAP;SCIMA_G1I01;RUA DOS REIS IMBITUBA SAGRADA FAMILIA 88780000 SC 283;IMBITUBA;-28.269781400;-48.695724500;G0;SCIMA-I01SP194;SCIMA-I01SP194-SS6;IMA_I01_1_GPON_VLAN_100_101_102-ALC;1/1/7/2
EQP0000000011991171;I01G01830;CTO - OPTAP;SCIMA_G1I01;RUA OTACILIO DE CARVALHO IMBITUBA CENTRO 88780000 SC 17;IMBITUBA;-28.239513100;-48.670131000;G0;SCIMA-I01SP229;SCIMA-I01SP229-SS6;IMA_I01_1_GPON_VLAN_100_101_102-ALC;1/1/8/6
EQP0000000011991171;I01G01830;CTO - OPTAP;SCIMA_G1I01;RUA OTACILIO DE CARVALHO IMBITUBA CENTRO 88780000 SC 17;IMBITUBA;-28.239513100;-48.670131000;G0;SCIMA-I01SP229;SCIMA-I01SP229-SS5;IMA_I01_1_GPON_VLAN_100_101_102-ALC;1/1/8/6
EQP0000000011990928;I01G0572;CTO - OPTAP;SCIMA_G1I01;AVENIDA SANTA CATARINA IMBITUBA CENTRO 88780000 SC 464;IMBITUBA;-28.238185800;-48.666586100;G0;SCIMA-I01SP72;SCIMA-I01SP72-SS3;IMA_I01_1_GPON_VLAN_100_101_102-ALC;1/1/3/13
EQP0000000011990928;I01G0572;CTO - OPTAP;SCIMA_G1I01;AVENIDA SANTA CATARINA IMBITUBA CENTRO 88780000 SC 464;IMBITUBA;-28.238185800;-48.666586100;G0;SCIMA-I01SP72;SCIMA-I01SP72-SS4;IMA_I01_1_GPON_VLAN_100_101_102-ALC;1/1/3/13
EQP0000000011990506;I01G01612;CTO - OPTAP;SCIMA_G1I01;RUA MARANHAO IMBITUBA SAGRADA FAMILIA 88780000 SC 271;IMBITUBA;-28.266638800;-48.695655100;G0;SCIMA-I01SP202;SCIMA-I01SP202-SS3;IMA_I01_1_GPON_VLAN_100_101_102-ALC;1/1/7/6
EQP0000000011990506;I01G01612;CTO - OPTAP;SCIMA_G1I01;RUA MARANHAO IMBITUBA SAGRADA FAMILIA 88780000 SC 271;IMBITUBA;-28.266638800;-48.695655100;G0;SCIMA-I01SP202;SCIMA-I01SP202-SS4;IMA_I01_1_GPON_VLAN_100_101_102-ALC;1/1/7/6
EQP0000000011991082;I01G0080;CTO - OPTAP;SCIMA_G1I01;Rua ANTONIO EGIDIO MARTINS IMBITUBA VILA NOVA  ALVORADA 88780000 SC 383;IMBITUBA;-28.215708700;-48.671362000;G0;SCIMA-I01SP10;SCIMA-I01SP10-SS8;IMA_I01_1_GPON_VLAN_100_101_102-ALC;1/1/1/7
EQP0000000011991082;I01G0080;CTO - OPTAP;SCIMA_G1I01;Rua ANTONIO EGIDIO MARTINS IMBITUBA VILA NOVA  ALVORADA 88780000 SC 383;IMBITUBA;-28.215708700;-48.671362000;G0;SCIMA-I01SP10;SCIMA-I01SP10-SS7;IMA_I01_1_GPON_VLAN_100_101_102-ALC;1/1/1/7
EQP0000000011991127;I01G0028;CTO - OPTAP;SCIMA_G1I01;RUA BRAULINO TRAJANO DE MIRANDA IMBITUBA   88780000 SC 690;IMBITUBA;-28.217925200;-48.675318700;G0;SCIMA-I01SP4;SCIMA-I01SP4-SS3;IMA_I01_1_GPON_VLAN_100_101_102-ALC;1/1/1/4
EQP0000000011991127;I01G0028;CTO - OPTAP;SCIMA_G1I01;RUA BRAULINO TRAJANO DE MIRANDA IMBITUBA   88780000 SC 690;IMBITUBA;-28.217925200;-48.675318700;G0;SCIMA-I01SP4;SCIMA-I01SP4-SS4;IMA_I01_1_GPON_VLAN_100_101_102-ALC;1/1/1/4
EQP0000000011991204;I01G01568;CTO - OPTAP;SCIMA_G1I01;Rua OLIMPIO JOSE CLARINDO IMBITUBA VILA NOVA 88780000 SC 188;IMBITUBA;-28.267114700;-48.693733600;G0;SCIMA-I01SP196;SCIMA-I01SP196-SS7;IMA_I01_1_GPON_VLAN_100_101_102-ALC;1/1/7/4
EQP0000000011991204;I01G01568;CTO - OPTAP;SCIMA_G1I01;Rua OLIMPIO JOSE CLARINDO IMBITUBA VILA NOVA 88780000 SC 188;IMBITUBA;-28.267114700;-48.693733600;G0;SCIMA-I01SP196;SCIMA-I01SP196-SS8;IMA_I01_1_GPON_VLAN_100_101_102-ALC;1/1/7/4
EQP0000000011991043;I01G0250;CTO - OPTAP;SCIMA_G1I01;AVENIDA TREZE DE SETEMBRO IMBITUBA VILA NOVA ALVORADA 88780000 SC 1060;IMBITUBA;-28.217062300;-48.668940300;G0;SCIMA-I01SP32;SCIMA-I01SP32-SS1;IMA_I01_1_GPON_VLAN_100_101_102-ALC;1/1/1/16
EQP0000000011991043;I01G0250;CTO - OPTAP;SCIMA_G1I01;AVENIDA TREZE DE SETEMBRO IMBITUBA VILA NOVA ALVORADA 88780000 SC 1060;IMBITUBA;-28.217062300;-48.668940300;G0;SCIMA-I01SP32;SCIMA-I01SP32-SS2;IMA_I01_1_GPON_VLAN_100_101_102-ALC;1/1/1/16
EQP0000000011991193;I01G01552;CTO - OPTAP;SCIMA_G1I01;RUA DOS REIS IMBITUBA SAGRADA FAMILIA 88780000 SC 85;IMBITUBA;-28.268268800;-48.695184700;G0;SCIMA-I01SP194;SCIMA-I01SP194-SS8;IMA_I01_1_GPON_VLAN_100_101_102-ALC;1/1/7/2
EQP0000000011991193;I01G01552;CTO - OPTAP;SCIMA_G1I01;RUA DOS REIS IMBITUBA SAGRADA FAMILIA 88780000 SC 85;IMBITUBA;-28.268268800;-48.695184700;G0;SCIMA-I01SP194;SCIMA-I01SP194-SS7;IMA_I01_1_GPON_VLAN_100_101_102-ALC;1/1/7/2
EQP0000000012009693;I01G01520;CTO - OPTAP;SCIMA_G1I01;RUA AMAZONAS IMBITUBA VILA SANTO ANTONIO 88780000 SC SN;IMBITUBA;-28.263560900;-48.698941000;G0;SCIMA-I01SP190;SCIMA-I01SP190-SS8;IMA_I01_1_GPON_VLAN_100_101_102-ALC;1/1/6/14
EQP0000000012009693;I01G01520;CTO - OPTAP;SCIMA_G1I01;RUA AMAZONAS IMBITUBA VILA SANTO ANTONIO 88780000 SC SN;IMBITUBA;-28.263560900;-48.698941000;G0;SCIMA-I01SP190;SCIMA-I01SP190-SS7;IMA_I01_1_GPON_VLAN_100_101_102-ALC;1/1/6/14
EQP0000000011991147;I01G01816;CTO - OPTAP;SCIMA_G1I01;AVENIDA BRASIL IMBITUBA PAES LEME 88780000 SC 725;IMBITUBA;-28.244216000;-48.676331000;G0;SCIMA-I01SP227;SCIMA-I01SP227-SS8;IMA_I01_1_GPON_VLAN_100_101_102-ALC;1/1/8/4
EQP0000000011991147;I01G01816;CTO - OPTAP;SCIMA_G1I01;AVENIDA BRASIL IMBITUBA PAES LEME 88780000 SC 725;IMBITUBA;-28.244216000;-48.676331000;G0;SCIMA-I01SP227;SCIMA-I01SP227-SS7;IMA_I01_1_GPON_VLAN_100_101_102-ALC;1/1/8/4
EQP0000000011990884;I01G0748;CTO - OPTAP;SCIMA_G1I01;RUA PAULINO MARTINS IMBITUBA CENTRO 88780000 SC 44;IMBITUBA;-28.242325900;-48.661549000;G0;SCIMA-I01SP94;SCIMA-I01SP94-SS3;IMA_I01_1_GPON_VLAN_100_101_102-ALC;1/1/4/8
EQP0000000011990884;I01G0748;CTO - OPTAP;SCIMA_G1I01;RUA PAULINO MARTINS IMBITUBA CENTRO 88780000 SC 44;IMBITUBA;-28.242325900;-48.661549000;G0;SCIMA-I01SP94;SCIMA-I01SP94-SS4;IMA_I01_1_GPON_VLAN_100_101_102-ALC;1/1/4/8
EQP0000000011991076;I01G0072;CTO - OPTAP;SCIMA_G1I01;Rua ANTONIO EGIDIO MARTINS IMBITUBA VILA NOVA  ALVORADA 88780000 SC 277;IMBITUBA;-28.216661000;-48.672249600;G0;SCIMA-I01SP9;SCIMA-I01SP9-SS7;IMA_I01_1_GPON_VLAN_100_101_102-ALC;1/1/1/6
EQP0000000011991076;I01G0072;CTO - OPTAP;SCIMA_G1I01;Rua ANTONIO EGIDIO MARTINS IMBITUBA VILA NOVA  ALVORADA 88780000 SC 277;IMBITUBA;-28.216661000;-48.672249600;G0;SCIMA-I01SP9;SCIMA-I01SP9-SS8;IMA_I01_1_GPON_VLAN_100_101_102-ALC;1/1/1/6
EQP0000000011991101;I01G0106;CTO - OPTAP;SCIMA_G1I01;RUA JOSE PEDRO MARTINS IMBITUBA VILA ALVORADA 88780000 SC 92;IMBITUBA;-28.221579100;-48.669820000;G0;SCIMA-I01SP14;SCIMA-I01SP14-SS1;IMA_I01_1_GPON_VLAN_100_101_102-ALC;1/1/1/11
EQP0000000011991101;I01G0106;CTO - OPTAP;SCIMA_G1I01;RUA JOSE PEDRO MARTINS IMBITUBA VILA ALVORADA 88780000 SC 92;IMBITUBA;-28.221579100;-48.669820000;G0;SCIMA-I01SP14;SCIMA-I01SP14-SS2;IMA_I01_1_GPON_VLAN_100_101_102-ALC;1/1/1/11
EQP0000000011990823;I01G01220;CTO - OPTAP;SCIMA_G1I01;RUA CLARA MARIA LIMAS IMBITUBA   88780000 SC 403;IMBITUBA;-28.271646600;-48.692221800;G0;SCIMA-I01SP153;SCIMA-I01SP153-SS4;IMA_I01_1_GPON_VLAN_100_101_102-ALC;1/1/5/9
EQP0000000011990823;I01G01220;CTO - OPTAP;SCIMA_G1I01;RUA CLARA MARIA LIMAS IMBITUBA   88780000 SC 403;IMBITUBA;-28.271646600;-48.692221800;G0;SCIMA-I01SP153;SCIMA-I01SP153-SS3;IMA_I01_1_GPON_VLAN_100_101_102-ALC;1/1/5/9
EQP0000000011990943;I01G0834;CTO - OPTAP;SCIMA_G1I01;AVENIDA PRESIDENTE VARGAS IMBITUBA CENTRO 88780000 SC 139;IMBITUBA;-28.240244700;-48.660921500;G0;SCIMA-I01SP105;SCIMA-I01SP105-SS2;IMA_I01_1_GPON_VLAN_100_101_102-ALC;1/1/4/13
EQP0000000011990943;I01G0834;CTO - OPTAP;SCIMA_G1I01;AVENIDA PRESIDENTE VARGAS IMBITUBA CENTRO 88780000 SC 139;IMBITUBA;-28.240244700;-48.660921500;G0;SCIMA-I01SP105;SCIMA-I01SP105-SS1;IMA_I01_1_GPON_VLAN_100_101_102-ALC;1/1/4/13
EQP0000000011991072;I01G0174;CTO - OPTAP;SCIMA_G1I01;RUA ITAGIBA IMBITUBA VILA ALVORADA 88780000 SC 66;IMBITUBA;-28.227317600;-48.665096300;G0;SCIMA-I01SP22;SCIMA-I01SP22-SS5;IMA_I01_1_GPON_VLAN_100_101_102-ALC;1/1/1/13
EQP0000000011991072;I01G0174;CTO - OPTAP;SCIMA_G1I01;RUA ITAGIBA IMBITUBA VILA ALVORADA 88780000 SC 66;IMBITUBA;-28.227317600;-48.665096300;G0;SCIMA-I01SP22;SCIMA-I01SP22-SS6;IMA_I01_1_GPON_VLAN_100_101_102-ALC;1/1/1/13
EQP0000000012002180;I01G01632;CTO - OPTAP;SCIMA_G1I01;AVENIDA RENATO RAMOS DA SILVA IMBITUBA VILA NOVA 88780000 SC 3057;IMBITUBA;-28.264180300;-48.691795300;G0;SCIMA-I01SP204;SCIMA-I01SP204-SS8;IMA_I01_1_GPON_VLAN_100_101_102-ALC;1/1/7/8
EQP0000000012002180;I01G01632;CTO - OPTAP;SCIMA_G1I01;AVENIDA RENATO RAMOS DA SILVA IMBITUBA VILA NOVA 88780000 SC 3057;IMBITUBA;-28.264180300;-48.691795300;G0;SCIMA-I01SP204;SCIMA-I01SP204-SS7;IMA_I01_1_GPON_VLAN_100_101_102-ALC;1/1/7/8
EQP0000000011990794;I01G01524;CTO - OPTAP;SCIMA_G1I01;RUA PEDRO DE MELO IMBITUBA VILA SANTO ANTONIO 88780000 SC 208;IMBITUBA;-28.262447400;-48.696914700;G0;SCIMA-I01SP191;SCIMA-I01SP191-SS3;IMA_I01_1_GPON_VLAN_100_101_102-ALC;1/1/6/15
EQP0000000011990794;I01G01524;CTO - OPTAP;SCIMA_G1I01;RUA PEDRO DE MELO IMBITUBA VILA SANTO ANTONIO 88780000 SC 208;IMBITUBA;-28.262447400;-48.696914700;G0;SCIMA-I01SP191;SCIMA-I01SP191-SS4;IMA_I01_1_GPON_VLAN_100_101_102-ALC;1/1/6/15
EQP0000000011990814;I01G01256;CTO - OPTAP;SCIMA_G1I01;RUA BERNARDINO JOSE CANDIDO IMBITUBA VILA NOVA 88780000 SC SN;IMBITUBA;-28.265814100;-48.690304300;G0;SCIMA-I01SP157;SCIMA-I01SP157-SS7;IMA_I01_1_GPON_VLAN_100_101_102-ALC;1/1/5/13
EQP0000000011990814;I01G01256;CTO - OPTAP;SCIMA_G1I01;RUA BERNARDINO JOSE CANDIDO IMBITUBA VILA NOVA 88780000 SC SN;IMBITUBA;-28.265814100;-48.690304300;G0;SCIMA-I01SP157;SCIMA-I01SP157-SS8;IMA_I01_1_GPON_VLAN_100_101_102-ALC;1/1/5/13
EQP0000000011990925;I01GP639;TO;SCIMA_G1I01;AVENIDA DOUTOR JOAO RIMSA IMBITUBA CENTRO 88780000 SC 456;IMBITUBA;-28.238201400;-48.663083500;GP;SCIMA-I01SP80;SCIMA-I01SP80-SS7;IMA_I01_1_GPON_VLAN_100_101_102-ALC;1/1/3/16
EQP0000000011990836;I01G01166;CTO - OPTAP;SCIMA_G1I01;RUA DEZESSETE DE OUTUBRO IMBITUBA CAMPO D AVIACAO 88780000 SC 154;IMBITUBA;-28.274413200;-48.697351000;G0;SCIMA-I01SP146;SCIMA-I01SP146-SS6;IMA_I01_1_GPON_VLAN_100_101_102-ALC;1/1/5/6
EQP0000000011990836;I01G01166;CTO - OPTAP;SCIMA_G1I01;RUA DEZESSETE DE OUTUBRO IMBITUBA CAMPO D AVIACAO 88780000 SC 154;IMBITUBA;-28.274413200;-48.697351000;G0;SCIMA-I01SP146;SCIMA-I01SP146-SS5;IMA_I01_1_GPON_VLAN_100_101_102-ALC;1/1/5/6
EQP0000000011991077;I01G0102;CTO - OPTAP;SCIMA_G1I01;RUA OTAVIO JOAO DA SILVA IMBITUBA VILA ALVORADA 88780000 SC 139;IMBITUBA;-28.221010900;-48.667274500;G0;SCIMA-I01SP13;SCIMA-I01SP13-SS6;IMA_I01_1_GPON_VLAN_100_101_102-ALC;1/1/1/10
EQP0000000011991077;I01G0102;CTO - OPTAP;SCIMA_G1I01;RUA OTAVIO JOAO DA SILVA IMBITUBA VILA ALVORADA 88780000 SC 139;IMBITUBA;-28.221010900;-48.667274500;G0;SCIMA-I01SP13;SCIMA-I01SP13-SS5;IMA_I01_1_GPON_VLAN_100_101_102-ALC;1/1/1/10
EQP0000000012001593;I01G0088;CTO - OPTAP;SCIMA_G1I01;RUA JUCELI MARQUES IMBITUBA   88780000 SC 247;IMBITUBA;-28.217044400;-48.671702600;G0;SCIMA-I01SP11;SCIMA-I01SP11-SS8;IMA_I01_1_GPON_VLAN_100_101_102-ALC;1/1/1/8
EQP0000000012001593;I01G0088;CTO - OPTAP;SCIMA_G1I01;RUA JUCELI MARQUES IMBITUBA   88780000 SC 247;IMBITUBA;-28.217044400;-48.671702600;G0;SCIMA-I01SP11;SCIMA-I01SP11-SS7;IMA_I01_1_GPON_VLAN_100_101_102-ALC;1/1/1/8
EQP0000000012001383;I01G01430;CTO - OPTAP;SCIMA_G1I01;RUA VILA PARAISO IMBITUBA VILA NOVA 88780000 SC 174;IMBITUBA;-28.259256100;-48.683819300;G0;SCIMA-I01SP179;SCIMA-I01SP179-SS6;IMA_I01_1_GPON_VLAN_100_101_102-ALC;1/1/6/9
EQP0000000012001383;I01G01430;CTO - OPTAP;SCIMA_G1I01;RUA VILA PARAISO IMBITUBA VILA NOVA 88780000 SC 174;IMBITUBA;-28.259256100;-48.683819300;G0;SCIMA-I01SP179;SCIMA-I01SP179-SS5;IMA_I01_1_GPON_VLAN_100_101_102-ALC;1/1/6/9
EQP0000000011990786;I01G01420;CTO - OPTAP;SCIMA_G1I01;RUA DOS ACORIANOS IMBITUBA VILA NOVA 88780000 SC 375;IMBITUBA;-28.261584700;-48.684491200;G0;SCIMA-I01SP178;SCIMA-I01SP178-SS3;IMA_I01_1_GPON_VLAN_100_101_102-ALC;1/1/6/8
EQP0000000011990786;I01G01420;CTO - OPTAP;SCIMA_G1I01;RUA DOS ACORIANOS IMBITUBA VILA NOVA 88780000 SC 375;IMBITUBA;-28.261584700;-48.684491200;G0;SCIMA-I01SP178;SCIMA-I01SP178-SS4;IMA_I01_1_GPON_VLAN_100_101_102-ALC;1/1/6/8
EQP0000000011991063;I01G0180;CTO - OPTAP;SCIMA_G1I01;RUA DO AREAL (VILA ALVORADA) IMBITUBA VILA ALVORADA 88780000 SC 504;IMBITUBA;-28.225462300;-48.666639000;G0;SCIMA-I01SP23;SCIMA-I01SP23-SS4;IMA_I01_1_GPON_VLAN_100_101_102-ALC;1/1/1/14
EQP0000000011991063;I01G0180;CTO - OPTAP;SCIMA_G1I01;RUA DO AREAL (VILA ALVORADA) IMBITUBA VILA ALVORADA 88780000 SC 504;IMBITUBA;-28.225462300;-48.666639000;G0;SCIMA-I01SP23;SCIMA-I01SP23-SS3;IMA_I01_1_GPON_VLAN_100_101_102-ALC;1/1/1/14
EQP0000000011991165;I01G01832;CTO - OPTAP;SCIMA_G1I01;AVENIDA SANTA CATARINA IMBITUBA CENTRO 88780000 SC 904;IMBITUBA;-28.240430100;-48.670180400;G0;SCIMA-I01SP229;SCIMA-I01SP229-SS8;IMA_I01_1_GPON_VLAN_100_101_102-ALC;1/1/8/6
EQP0000000011991165;I01G01832;CTO - OPTAP;SCIMA_G1I01;AVENIDA SANTA CATARINA IMBITUBA CENTRO 88780000 SC 904;IMBITUBA;-28.240430100;-48.670180400;G0;SCIMA-I01SP229;SCIMA-I01SP229-SS7;IMA_I01_1_GPON_VLAN_100_101_102-ALC;1/1/8/6
EQP0000000011991070;I01G0172;CTO - OPTAP;SCIMA_G1I01;RUA ITAGIBA IMBITUBA VILA ALVORADA 88780000 SC 80;IMBITUBA;-28.228517300;-48.663681900;G0;SCIMA-I01SP22;SCIMA-I01SP22-SS3;IMA_I01_1_GPON_VLAN_100_101_102-ALC;1/1/1/13
EQP0000000011991070;I01G0172;CTO - OPTAP;SCIMA_G1I01;RUA ITAGIBA IMBITUBA VILA ALVORADA 88780000 SC 80;IMBITUBA;-28.228517300;-48.663681900;G0;SCIMA-I01SP22;SCIMA-I01SP22-SS4;IMA_I01_1_GPON_VLAN_100_101_102-ALC;1/1/1/13
EQP0000000011990887;I01G0848;CTO - OPTAP;SCIMA_G1I01;RUA NEREU RAMOS IMBITUBA CENTRO 88780000 SC 570;IMBITUBA;-28.239416500;-48.666709700;G0;SCIMA-I01SP106;SCIMA-I01SP106-SS7;IMA_I01_1_GPON_VLAN_100_101_102-ALC;1/1/4/14
EQP0000000011990887;I01G0848;CTO - OPTAP;SCIMA_G1I01;RUA NEREU RAMOS IMBITUBA CENTRO 88780000 SC 570;IMBITUBA;-28.239416500;-48.666709700;G0;SCIMA-I01SP106;SCIMA-I01SP106-SS8;IMA_I01_1_GPON_VLAN_100_101_102-ALC;1/1/4/14
EQP0000000012009707;I01G0746;CTO - OPTAP;SCIMA_G1I01;RUA VISCONDE DE BARBACENA IMBITUBA CENTRO 88780000 SC 78;IMBITUBA;-28.240657800;-48.659944200;G0;SCIMA-I01SP94;SCIMA-I01SP94-SS1;IMA_I01_1_GPON_VLAN_100_101_102-ALC;1/1/4/8
EQP0000000012009707;I01G0746;CTO - OPTAP;SCIMA_G1I01;RUA VISCONDE DE BARBACENA IMBITUBA CENTRO 88780000 SC 78;IMBITUBA;-28.240657800;-48.659944200;G0;SCIMA-I01SP94;SCIMA-I01SP94-SS2;IMA_I01_1_GPON_VLAN_100_101_102-ALC;1/1/4/8
EQP0000000011990784;I01G01424;CTO - OPTAP;SCIMA_G1I01;RUA SANTANA IMBITUBA VILA NOVA 88780000 SC 349;IMBITUBA;-28.260576300;-48.686016100;G0;SCIMA-I01SP178;SCIMA-I01SP178-SS7;IMA_I01_1_GPON_VLAN_100_101_102-ALC;1/1/6/8
EQP0000000011990784;I01G01424;CTO - OPTAP;SCIMA_G1I01;RUA SANTANA IMBITUBA VILA NOVA 88780000 SC 349;IMBITUBA;-28.260576300;-48.686016100;G0;SCIMA-I01SP178;SCIMA-I01SP178-SS8;IMA_I01_1_GPON_VLAN_100_101_102-ALC;1/1/6/8
EQP0000000011990885;I01G0750;CTO - OPTAP;SCIMA_G1I01;RUA VISCONDE DE BARBACENA IMBITUBA CENTRO 88780000 SC 349;IMBITUBA;-28.242297600;-48.662329000;G0;SCIMA-I01SP94;SCIMA-I01SP94-SS6;IMA_I01_1_GPON_VLAN_100_101_102-ALC;1/1/4/8
EQP0000000011990885;I01G0750;CTO - OPTAP;SCIMA_G1I01;RUA VISCONDE DE BARBACENA IMBITUBA CENTRO 88780000 SC 349;IMBITUBA;-28.242297600;-48.662329000;G0;SCIMA-I01SP94;SCIMA-I01SP94-SS5;IMA_I01_1_GPON_VLAN_100_101_102-ALC;1/1/4/8
EQP0000000011991177;I01G01744;CTO - OPTAP;SCIMA_G1I01;RUA PRESALINO PIRES IMBITUBA PAES LEME 88780000 SC 377;IMBITUBA;-28.249246000;-48.677041700;G0;SCIMA-I01SP218;SCIMA-I01SP218-SS8;IMA_I01_1_GPON_VLAN_100_101_102-ALC;1/1/7/16
EQP0000000011991177;I01G01744;CTO - OPTAP;SCIMA_G1I01;RUA PRESALINO PIRES IMBITUBA PAES LEME 88780000 SC 377;IMBITUBA;-28.249246000;-48.677041700;G0;SCIMA-I01SP218;SCIMA-I01SP218-SS7;IMA_I01_1_GPON_VLAN_100_101_102-ALC;1/1/7/16
EQP0000000012001382;I01G01266;CTO - OPTAP;SCIMA_G1I01;RUA ORLANDO BRESSAN MARTINS IMBITUBA VILA NOVA 88780000 SC 602;IMBITUBA;-28.263978000;-48.688738200;G0;SCIMA-I01SP159;SCIMA-I01SP159-SS2;IMA_I01_1_GPON_VLAN_100_101_102-ALC;1/1/5/15
EQP0000000012001382;I01G01266;CTO - OPTAP;SCIMA_G1I01;RUA ORLANDO BRESSAN MARTINS IMBITUBA VILA NOVA 88780000 SC 602;IMBITUBA;-28.263978000;-48.688738200;G0;SCIMA-I01SP159;SCIMA-I01SP159-SS1;IMA_I01_1_GPON_VLAN_100_101_102-ALC;1/1/5/15
EQP0000000011990787;I01G01418;CTO - OPTAP;SCIMA_G1I01;RUA DOS ACORIANOS IMBITUBA VILA NOVA 88780000 SC 346;IMBITUBA;-28.263251100;-48.683197900;G0;SCIMA-I01SP178;SCIMA-I01SP178-SS1;IMA_I01_1_GPON_VLAN_100_101_102-ALC;1/1/6/8
EQP0000000011990787;I01G01418;CTO - OPTAP;SCIMA_G1I01;RUA DOS ACORIANOS IMBITUBA VILA NOVA 88780000 SC 346;IMBITUBA;-28.263251100;-48.683197900;G0;SCIMA-I01SP178;SCIMA-I01SP178-SS2;IMA_I01_1_GPON_VLAN_100_101_102-ALC;1/1/6/8
EQP0000000011991172;I01G01828;CTO - OPTAP;SCIMA_G1I01;RUA OTACILIO DE CARVALHO IMBITUBA CENTRO 88780000 SC 345;IMBITUBA;-28.240119500;-48.671090000;G0;SCIMA-I01SP229;SCIMA-I01SP229-SS3;IMA_I01_1_GPON_VLAN_100_101_102-ALC;1/1/8/6
EQP0000000011991172;I01G01828;CTO - OPTAP;SCIMA_G1I01;RUA OTACILIO DE CARVALHO IMBITUBA CENTRO 88780000 SC 345;IMBITUBA;-28.240119500;-48.671090000;G0;SCIMA-I01SP229;SCIMA-I01SP229-SS1;IMA_I01_1_GPON_VLAN_100_101_102-ALC;1/1/8/6
EQP0000000011991172;I01G01828;CTO - OPTAP;SCIMA_G1I01;RUA OTACILIO DE CARVALHO IMBITUBA CENTRO 88780000 SC 345;IMBITUBA;-28.240119500;-48.671090000;G0;SCIMA-I01SP229;SCIMA-I01SP229-SS4;IMA_I01_1_GPON_VLAN_100_101_102-ALC;1/1/8/6
EQP0000000011991172;I01G01828;CTO - OPTAP;SCIMA_G1I01;RUA OTACILIO DE CARVALHO IMBITUBA CENTRO 88780000 SC 345;IMBITUBA;-28.240119500;-48.671090000;G0;SCIMA-I01SP229;SCIMA-I01SP229-SS2;IMA_I01_1_GPON_VLAN_100_101_102-ALC;1/1/8/6
EQP0000000012009844;I01G0066;CTO - OPTAP;SCIMA_G1I01;RUA ELZA MARIA PEREIRA PITTIGLIANI IMBITUBA   88780000 SC 67;IMBITUBA;-28.218352400;-48.674762700;G0;SCIMA-I01SP9;SCIMA-I01SP9-SS2;IMA_I01_1_GPON_VLAN_100_101_102-ALC;1/1/1/6
EQP0000000012009844;I01G0066;CTO - OPTAP;SCIMA_G1I01;RUA ELZA MARIA PEREIRA PITTIGLIANI IMBITUBA   88780000 SC 67;IMBITUBA;-28.218352400;-48.674762700;G0;SCIMA-I01SP9;SCIMA-I01SP9-SS1;IMA_I01_1_GPON_VLAN_100_101_102-ALC;1/1/1/6
EQP0000000011990781;I01G01414;CTO - OPTAP;SCIMA_G1I01;RUA HANS DIETER SCHMIDT IMBITUBA VILA NOVA 88780000 SC 665;IMBITUBA;-28.262118600;-48.688079900;G0;SCIMA-I01SP177;SCIMA-I01SP177-SS5;IMA_I01_1_GPON_VLAN_100_101_102-ALC;1/1/6/7
EQP0000000011990781;I01G01414;CTO - OPTAP;SCIMA_G1I01;RUA HANS DIETER SCHMIDT IMBITUBA VILA NOVA 88780000 SC 665;IMBITUBA;-28.262118600;-48.688079900;G0;SCIMA-I01SP177;SCIMA-I01SP177-SS6;IMA_I01_1_GPON_VLAN_100_101_102-ALC;1/1/6/7
EQP0000000011991195;I01G01752;CTO - OPTAP;SCIMA_G1I01;RUA GREGORIO DE SOUZA IMBITUBA PAES LEME 88780000 SC 210;IMBITUBA;-28.247173300;-48.673875200;G0;SCIMA-I01SP219;SCIMA-I01SP219-SS8;IMA_I01_1_GPON_VLAN_100_101_102-ALC;1/1/8/1
EQP0000000011991195;I01G01752;CTO - OPTAP;SCIMA_G1I01;RUA GREGORIO DE SOUZA IMBITUBA PAES LEME 88780000 SC 210;IMBITUBA;-28.247173300;-48.673875200;G0;SCIMA-I01SP219;SCIMA-I01SP219-SS7;IMA_I01_1_GPON_VLAN_100_101_102-ALC;1/1/8/1
EQP0000000011991121;I01G0014;CTO - OPTAP;SCIMA_G1I01;RUA RAUL SILVA IMBITUBA   88780000 SC 72;IMBITUBA;-28.211995200;-48.671980400;G0;SCIMA-I01SP2;SCIMA-I01SP2-SS6;IMA_I01_1_GPON_VLAN_100_101_102-ALC;1/1/1/2
EQP0000000011991121;I01G0014;CTO - OPTAP;SCIMA_G1I01;RUA RAUL SILVA IMBITUBA   88780000 SC 72;IMBITUBA;-28.211995200;-48.671980400;G0;SCIMA-I01SP2;SCIMA-I01SP2-SS5;IMA_I01_1_GPON_VLAN_100_101_102-ALC;1/1/1/2
EQP0000000011991051;I01G0518;CTO - OPTAP;SCIMA_G1I01;RUA OTACILIO DE CARVALHO IMBITUBA CENTRO 88780000 SC 23;IMBITUBA;-28.238606900;-48.669128900;G0;SCIMA-I01SP65;SCIMA-I01SP65-SS5;IMA_I01_1_GPON_VLAN_100_101_102-ALC;1/1/3/6
EQP0000000011991051;I01G0518;CTO - OPTAP;SCIMA_G1I01;RUA OTACILIO DE CARVALHO IMBITUBA CENTRO 88780000 SC 23;IMBITUBA;-28.238606900;-48.669128900;G0;SCIMA-I01SP65;SCIMA-I01SP65-SS6;IMA_I01_1_GPON_VLAN_100_101_102-ALC;1/1/3/6
EQP0000000011991188;I01G01540;CTO - OPTAP;SCIMA_G1I01;RUA PROFESSOR ROGERIO TAVARES IMBITUBA SAGRADA FAMILIA 88780000 SC 1080;IMBITUBA;-28.271725300;-48.695782100;G0;SCIMA-I01SP193;SCIMA-I01SP193-SS4;IMA_I01_1_GPON_VLAN_100_101_102-ALC;1/1/7/1
EQP0000000011991188;I01G01540;CTO - OPTAP;SCIMA_G1I01;RUA PROFESSOR ROGERIO TAVARES IMBITUBA SAGRADA FAMILIA 88780000 SC 1080;IMBITUBA;-28.271725300;-48.695782100;G0;SCIMA-I01SP193;SCIMA-I01SP193-SS3;IMA_I01_1_GPON_VLAN_100_101_102-ALC;1/1/7/1
EQP0000000012009698;I01G01528;CTO - OPTAP;SCIMA_G1I01;RUA OTAVIO BONIFACIO TEIXEIRA IMBITUBA   88780000 SC 75;IMBITUBA;-28.263802100;-48.697660600;G0;SCIMA-I01SP191;SCIMA-I01SP191-SS8;IMA_I01_1_GPON_VLAN_100_101_102-ALC;1/1/6/15
EQP0000000012009698;I01G01528;CTO - OPTAP;SCIMA_G1I01;RUA OTAVIO BONIFACIO TEIXEIRA IMBITUBA   88780000 SC 75;IMBITUBA;-28.263802100;-48.697660600;G0;SCIMA-I01SP191;SCIMA-I01SP191-SS7;IMA_I01_1_GPON_VLAN_100_101_102-ALC;1/1/6/15
EQP0000000012009848;I01G01814;CTO - OPTAP;SCIMA_G1I01;RUA GREGORIO DE SOUZA IMBITUBA PAES LEME 88780000 SC 572;IMBITUBA;-28.245484200;-48.676492100;G0;SCIMA-I01SP227;SCIMA-I01SP227-SS5;IMA_I01_1_GPON_VLAN_100_101_102-ALC;1/1/8/4
EQP0000000012009848;I01G01814;CTO - OPTAP;SCIMA_G1I01;RUA GREGORIO DE SOUZA IMBITUBA PAES LEME 88780000 SC 572;IMBITUBA;-28.245484200;-48.676492100;G0;SCIMA-I01SP227;SCIMA-I01SP227-SS6;IMA_I01_1_GPON_VLAN_100_101_102-ALC;1/1/8/4
EQP0000000012009839;I01G0176;CTO - OPTAP;SCIMA_G1I01;RUA UM MIL E CENTO E OITENTA IMBITUBA   88780000 SC 110;IMBITUBA;-28.226593700;-48.666248100;G0;SCIMA-I01SP22;SCIMA-I01SP22-SS8;IMA_I01_1_GPON_VLAN_100_101_102-ALC;1/1/1/13
EQP0000000012009839;I01G0176;CTO - OPTAP;SCIMA_G1I01;RUA UM MIL E CENTO E OITENTA IMBITUBA   88780000 SC 110;IMBITUBA;-28.226593700;-48.666248100;G0;SCIMA-I01SP22;SCIMA-I01SP22-SS7;IMA_I01_1_GPON_VLAN_100_101_102-ALC;1/1/1/13
EQP0000000011991180;I01G01838;CTO - OPTAP;SCIMA_G1I01;AVENIDA SANTA CATARINA IMBITUBA CENTRO 88780000 SC 1151;IMBITUBA;-28.242000600;-48.672280400;G0;SCIMA-I01SP230;SCIMA-I01SP230-SS5;IMA_I01_1_GPON_VLAN_100_101_102-ALC;1/1/8/7
EQP0000000011991180;I01G01838;CTO - OPTAP;SCIMA_G1I01;AVENIDA SANTA CATARINA IMBITUBA CENTRO 88780000 SC 1151;IMBITUBA;-28.242000600;-48.672280400;G0;SCIMA-I01SP230;SCIMA-I01SP230-SS6;IMA_I01_1_GPON_VLAN_100_101_102-ALC;1/1/8/7
EQP0000000011991150;I01G01824;CTO - OPTAP;SCIMA_G1I01;RUA SANTA CATARINA IMBITUBA PAES LEME 88780000 SC 826;IMBITUBA;-28.242753600;-48.673908300;G0;SCIMA-I01SP228;SCIMA-I01SP228-SS8;IMA_I01_1_GPON_VLAN_100_101_102-ALC;1/1/8/5
EQP0000000011991150;I01G01824;CTO - OPTAP;SCIMA_G1I01;RUA SANTA CATARINA IMBITUBA PAES LEME 88780000 SC 826;IMBITUBA;-28.242753600;-48.673908300;G0;SCIMA-I01SP228;SCIMA-I01SP228-SS7;IMA_I01_1_GPON_VLAN_100_101_102-ALC;1/1/8/5
EQP0000000011990822;I01G01272;CTO - OPTAP;SCIMA_G1I01;RUA SAO PEDRO IMBITUBA VILA NOVA 88780000 SC 616;IMBITUBA;-28.265757800;-48.688551300;G0;SCIMA-I01SP159;SCIMA-I01SP159-SS7;IMA_I01_1_GPON_VLAN_100_101_102-ALC;1/1/5/15
EQP0000000011990822;I01G01272;CTO - OPTAP;SCIMA_G1I01;RUA SAO PEDRO IMBITUBA VILA NOVA 88780000 SC 616;IMBITUBA;-28.265757800;-48.688551300;G0;SCIMA-I01SP159;SCIMA-I01SP159-SS8;IMA_I01_1_GPON_VLAN_100_101_102-ALC;1/1/5/15
EQP0000000011991148;I01G01820;CTO - OPTAP;SCIMA_G1I01;AVENIDA RENATO RAMOS DA SILVA IMBITUBA PAES LEME 88780000 SC 243;IMBITUBA;-28.242411100;-48.676910600;G0;SCIMA-I01SP228;SCIMA-I01SP228-SS4;IMA_I01_1_GPON_VLAN_100_101_102-ALC;1/1/8/5
EQP0000000011991148;I01G01820;CTO - OPTAP;SCIMA_G1I01;AVENIDA RENATO RAMOS DA SILVA IMBITUBA PAES LEME 88780000 SC 243;IMBITUBA;-28.242411100;-48.676910600;G0;SCIMA-I01SP228;SCIMA-I01SP228-SS3;IMA_I01_1_GPON_VLAN_100_101_102-ALC;1/1/8/5
EQP0000000011990818;I01G01224;CTO - OPTAP;SCIMA_G1I01;RUA JOAO EUFRAZIO FIGUEIREDO IMBITUBA VILA NOVA 88780000 SC 418;IMBITUBA;-28.270023100;-48.692620700;G0;SCIMA-I01SP153;SCIMA-I01SP153-SS8;IMA_I01_1_GPON_VLAN_100_101_102-ALC;1/1/5/9
EQP0000000011990818;I01G01224;CTO - OPTAP;SCIMA_G1I01;RUA JOAO EUFRAZIO FIGUEIREDO IMBITUBA VILA NOVA 88780000 SC 418;IMBITUBA;-28.270023100;-48.692620700;G0;SCIMA-I01SP153;SCIMA-I01SP153-SS7;IMA_I01_1_GPON_VLAN_100_101_102-ALC;1/1/5/9
EQP0000000011990834;I01G01160;CTO - OPTAP;SCIMA_G1I01;Rua DEZENOVE DE NOVEMBRO IMBITUBA CAMPO DA AVIACAO 88780000 SC 81;IMBITUBA;-28.275039900;-48.695790000;G0;SCIMA-I01SP145;SCIMA-I01SP145-SS8;IMA_I01_1_GPON_VLAN_100_101_102-ALC;1/1/5/5
EQP0000000011990834;I01G01160;CTO - OPTAP;SCIMA_G1I01;Rua DEZENOVE DE NOVEMBRO IMBITUBA CAMPO DA AVIACAO 88780000 SC 81;IMBITUBA;-28.275039900;-48.695790000;G0;SCIMA-I01SP145;SCIMA-I01SP145-SS7;IMA_I01_1_GPON_VLAN_100_101_102-ALC;1/1/5/5
EQP0000000011991123;I01G0018;CTO - OPTAP;SCIMA_G1I01;RUA PEDRO JULIO FERRERIA IMBITUBA   88780000 SC 488;IMBITUBA;-28.213245400;-48.673690800;G0;SCIMA-I01SP3;SCIMA-I01SP3-SS1;IMA_I01_1_GPON_VLAN_100_101_102-ALC;1/1/1/3
EQP0000000011991123;I01G0018;CTO - OPTAP;SCIMA_G1I01;RUA PEDRO JULIO FERRERIA IMBITUBA   88780000 SC 488;IMBITUBA;-28.213245400;-48.673690800;G0;SCIMA-I01SP3;SCIMA-I01SP3-SS2;IMA_I01_1_GPON_VLAN_100_101_102-ALC;1/1/1/3
EQP0000000011991079;I01G0074;CTO - OPTAP;SCIMA_G1I01;RUA ALECIO SANCEVERINO IMBITUBA   88780000 SC 38;IMBITUBA;-28.213325800;-48.671800600;G0;SCIMA-I01SP10;SCIMA-I01SP10-SS1;IMA_I01_1_GPON_VLAN_100_101_102-ALC;1/1/1/7
EQP0000000011991079;I01G0074;CTO - OPTAP;SCIMA_G1I01;RUA ALECIO SANCEVERINO IMBITUBA   88780000 SC 38;IMBITUBA;-28.213325800;-48.671800600;G0;SCIMA-I01SP10;SCIMA-I01SP10-SS2;IMA_I01_1_GPON_VLAN_100_101_102-ALC;1/1/1/7
EQP0000000011990948;I01G0828;CTO - OPTAP;SCIMA_G1I01;AVENIDA DOUTOR JOAO RIMSA IMBITUBA CENTRO 88780000 SC 1193;IMBITUBA;-28.242778200;-48.669647700;G0;SCIMA-I01SP104;SCIMA-I01SP104-SS3;IMA_I01_1_GPON_VLAN_100_101_102-ALC;1/1/4/12
EQP0000000011990948;I01G0828;CTO - OPTAP;SCIMA_G1I01;AVENIDA DOUTOR JOAO RIMSA IMBITUBA CENTRO 88780000 SC 1193;IMBITUBA;-28.242778200;-48.669647700;G0;SCIMA-I01SP104;SCIMA-I01SP104-SS4;IMA_I01_1_GPON_VLAN_100_101_102-ALC;1/1/4/12
EQP0000000012009689;I01G01610;CTO - OPTAP;SCIMA_G1I01;RUA MANOEL PEREIRA SOBRINHO IMBITUBA VILA NOVA 88780000 SC 91;IMBITUBA;-28.264795400;-48.698223200;G0;SCIMA-I01SP202;SCIMA-I01SP202-SS2;IMA_I01_1_GPON_VLAN_100_101_102-ALC;1/1/7/6
EQP0000000012009689;I01G01610;CTO - OPTAP;SCIMA_G1I01;RUA MANOEL PEREIRA SOBRINHO IMBITUBA VILA NOVA 88780000 SC 91;IMBITUBA;-28.264795400;-48.698223200;G0;SCIMA-I01SP202;SCIMA-I01SP202-SS1;IMA_I01_1_GPON_VLAN_100_101_102-ALC;1/1/7/6
EQP0000000011991100;I01G0108;CTO - OPTAP;SCIMA_G1I01;RUA SOL E LUA IMBITUBA VILA ALVORADA 88780000 SC 70;IMBITUBA;-28.221718200;-48.669032700;G0;SCIMA-I01SP14;SCIMA-I01SP14-SS4;IMA_I01_1_GPON_VLAN_100_101_102-ALC;1/1/1/11
EQP0000000011991100;I01G0108;CTO - OPTAP;SCIMA_G1I01;RUA SOL E LUA IMBITUBA VILA ALVORADA 88780000 SC 70;IMBITUBA;-28.221718200;-48.669032700;G0;SCIMA-I01SP14;SCIMA-I01SP14-SS3;IMA_I01_1_GPON_VLAN_100_101_102-ALC;1/1/1/11
EQP0000000011991175;I01G01754;CTO - OPTAP;SCIMA_G1I01;RUA ROSENDO ISIDORO FREITAS IMBITUBA PAES LEME 88780000 SC 174;IMBITUBA;-28.249080300;-48.675453100;G0;SCIMA-I01SP220;SCIMA-I01SP220-SS1;IMA_I01_1_GPON_VLAN_100_101_102-ALC;1/1/8/2
EQP0000000011991175;I01G01754;CTO - OPTAP;SCIMA_G1I01;RUA ROSENDO ISIDORO FREITAS IMBITUBA PAES LEME 88780000 SC 174;IMBITUBA;-28.249080300;-48.675453100;G0;SCIMA-I01SP220;SCIMA-I01SP220-SS2;IMA_I01_1_GPON_VLAN_100_101_102-ALC;1/1/8/2
EQP0000000011990783;I01G01410;CTO - OPTAP;SCIMA_G1I01;RUA PIRES SILVEIRA IMBITUBA VILA NOVA 88780000 SC 109;IMBITUBA;-28.264097100;-48.683686000;G0;SCIMA-I01SP177;SCIMA-I01SP177-SS2;IMA_I01_1_GPON_VLAN_100_101_102-ALC;1/1/6/7
EQP0000000011990783;I01G01410;CTO - OPTAP;SCIMA_G1I01;RUA PIRES SILVEIRA IMBITUBA VILA NOVA 88780000 SC 109;IMBITUBA;-28.264097100;-48.683686000;G0;SCIMA-I01SP177;SCIMA-I01SP177-SS1;IMA_I01_1_GPON_VLAN_100_101_102-ALC;1/1/6/7
EQP0000000011990725;I01G01854;CTO - OPTAP;SCIMA_G1I01;RUA ALCINO FONSECA IMBITUBA PAES LEME 88780000 SC 759;IMBITUBA;-28.242361000;-48.674305500;G0;SCIMA-I01SP232;SCIMA-I01SP232-SS5;IMA_I01_1_GPON_VLAN_100_101_102-ALC;1/1/8/9
EQP0000000011990725;I01G01854;CTO - OPTAP;SCIMA_G1I01;RUA ALCINO FONSECA IMBITUBA PAES LEME 88780000 SC 759;IMBITUBA;-28.242361000;-48.674305500;G0;SCIMA-I01SP232;SCIMA-I01SP232-SS6;IMA_I01_1_GPON_VLAN_100_101_102-ALC;1/1/8/9
EQP0000000011990838;I01G01162;CTO - OPTAP;SCIMA_G1I01;RODOVIA GOVERNADOR MARIO COVAS IMBITUBA PORTO DA VILA 88780000 SC 60;IMBITUBA;-28.276643100;-48.699830700;G0;SCIMA-I01SP146;SCIMA-I01SP146-SS2;IMA_I01_1_GPON_VLAN_100_101_102-ALC;1/1/5/6
EQP0000000011990838;I01G01162;CTO - OPTAP;SCIMA_G1I01;RODOVIA GOVERNADOR MARIO COVAS IMBITUBA PORTO DA VILA 88780000 SC 60;IMBITUBA;-28.276643100;-48.699830700;G0;SCIMA-I01SP146;SCIMA-I01SP146-SS1;IMA_I01_1_GPON_VLAN_100_101_102-ALC;1/1/5/6
EQP0000000011990942;I01G0568;CTO - OPTAP;SCIMA_G1I01;RUA DUQUE DE CAXIAS IMBITUBA CENTRO 88780000 SC 233;IMBITUBA;-28.236371600;-48.665202800;G0;SCIMA-I01SP71;SCIMA-I01SP71-SS8;IMA_I01_1_GPON_VLAN_100_101_102-ALC;1/1/3/12
EQP0000000011990942;I01G0568;CTO - OPTAP;SCIMA_G1I01;RUA DUQUE DE CAXIAS IMBITUBA CENTRO 88780000 SC 233;IMBITUBA;-28.236371600;-48.665202800;G0;SCIMA-I01SP71;SCIMA-I01SP71-SS7;IMA_I01_1_GPON_VLAN_100_101_102-ALC;1/1/3/12
EQP0000000011991044;I01G0516;CTO - OPTAP;SCIMA_G1I01;RUA OTACILIO DE CARVALHO IMBITUBA CENTRO 88780000 SC 78;IMBITUBA;-28.237177600;-48.666864400;G0;SCIMA-I01SP65;SCIMA-I01SP65-SS4;IMA_I01_1_GPON_VLAN_100_101_102-ALC;1/1/3/6
EQP0000000011991044;I01G0516;CTO - OPTAP;SCIMA_G1I01;RUA OTACILIO DE CARVALHO IMBITUBA CENTRO 88780000 SC 78;IMBITUBA;-28.237177600;-48.666864400;G0;SCIMA-I01SP65;SCIMA-I01SP65-SS3;IMA_I01_1_GPON_VLAN_100_101_102-ALC;1/1/3/6
EQP0000000012009700;I01G01252;CTO - OPTAP;SCIMA_G1I01;RUA SANTANA IMBITUBA VILA NOVA 88780000 SC 1064;IMBITUBA;-28.265528100;-48.691632600;G0;SCIMA-I01SP157;SCIMA-I01SP157-SS4;IMA_I01_1_GPON_VLAN_100_101_102-ALC;1/1/5/13
EQP0000000012009700;I01G01252;CTO - OPTAP;SCIMA_G1I01;RUA SANTANA IMBITUBA VILA NOVA 88780000 SC 1064;IMBITUBA;-28.265528100;-48.691632600;G0;SCIMA-I01SP157;SCIMA-I01SP157-SS3;IMA_I01_1_GPON_VLAN_100_101_102-ALC;1/1/5/13
EQP0000000011990856;I01G01226;CTO - OPTAP;SCIMA_G1I01;RUA SAO SEBASTIAO IMBITUBA VILA NOVA 88780000 SC 129;IMBITUBA;-28.267539100;-48.691467000;G0;SCIMA-I01SP154;SCIMA-I01SP154-SS1;IMA_I01_1_GPON_VLAN_100_101_102-ALC;1/1/5/10
EQP0000000011990856;I01G01226;CTO - OPTAP;SCIMA_G1I01;RUA SAO SEBASTIAO IMBITUBA VILA NOVA 88780000 SC 129;IMBITUBA;-28.267539100;-48.691467000;G0;SCIMA-I01SP154;SCIMA-I01SP154-SS2;IMA_I01_1_GPON_VLAN_100_101_102-ALC;1/1/5/10
EQP0000000011991057;I01G0254;CTO - OPTAP;SCIMA_G1I01;RUA JOAQUIM MANOEL SILVANO IMBITUBA VILA  NOVA ALVORADA 88780000 SC 23;IMBITUBA;-28.219946000;-48.669104700;G0;SCIMA-I01SP32;SCIMA-I01SP32-SS5;IMA_I01_1_GPON_VLAN_100_101_102-ALC;1/1/1/16
EQP0000000011991057;I01G0254;CTO - OPTAP;SCIMA_G1I01;RUA JOAQUIM MANOEL SILVANO IMBITUBA VILA  NOVA ALVORADA 88780000 SC 23;IMBITUBA;-28.219946000;-48.669104700;G0;SCIMA-I01SP32;SCIMA-I01SP32-SS6;IMA_I01_1_GPON_VLAN_100_101_102-ALC;1/1/1/16
EQP0000000011991117;I01G0005;CTO - OPTAP;SCIMA_G1I01;RUA ELPIDIO ANTONIO DEMETRIO IMBITUBA   88780000 SC SN;IMBITUBA;-28.211029900;-48.673616200;G0;SCIMA-I01SP1;SCIMA-I01SP1-SS5;IMA_I01_1_GPON_VLAN_100_101_102-ALC;1/1/1/1
EQP0000000011991039;I01G0276;CTO - OPTAP;SCIMA_G1I01;AVENIDA MANOEL FLORENTINO MACHADO IMBITUBA CENTRO 88780000 SC 543;IMBITUBA;-28.235010000;-48.663471300;G0;SCIMA-I01SP35;SCIMA-I01SP35-SS4;IMA_I01_1_GPON_VLAN_100_101_102-ALC;1/1/2/3
EQP0000000011990776;I01G01442;CTO - OPTAP;SCIMA_G1I01;RUA ANTONIO MANOEL FELICIANO IMBITUBA PORTO DA VILA 88780000 SC 175;IMBITUBA;-28.267043600;-48.703299500;G0;SCIMA-I01SP181;SCIMA-I01SP181-SS2;IMA_I01_1_GPON_VLAN_100_101_102-ALC;1/1/6/11
EQP0000000011990738;I01G01512;CTO - OPTAP;SCIMA_G1I01;RUA PEDRO BITTENCOURT IMBITUBA VILA SANTO ANTONIO 88780000 SC 889;IMBITUBA;-28.264209400;-48.700152400;G0;SCIMA-I01SP189;SCIMA-I01SP189-SS8;IMA_I01_1_GPON_VLAN_100_101_102-ALC;1/1/6/13
EQP0000000011991149;I01G01822;CTO - OPTAP;SCIMA_G1I01;AVENIDA BRASIL IMBITUBA PAES LEME 88780000 SC 459;IMBITUBA;-28.242505900;-48.675690500;G0;SCIMA-I01SP228;SCIMA-I01SP228-SS5;IMA_I01_1_GPON_VLAN_100_101_102-ALC;1/1/8/5
EQP0000000011991149;I01G01822;CTO - OPTAP;SCIMA_G1I01;AVENIDA BRASIL IMBITUBA PAES LEME 88780000 SC 459;IMBITUBA;-28.242505900;-48.675690500;G0;SCIMA-I01SP228;SCIMA-I01SP228-SS6;IMA_I01_1_GPON_VLAN_100_101_102-ALC;1/1/8/5
EQP0000000011990892;I01G0856;CTO - OPTAP;SCIMA_G1I01;AVENIDA SANTA CATARINA IMBITUBA CENTRO 88780000 SC 249;IMBITUBA;-28.239346700;-48.668049100;G0;SCIMA-I01SP107;SCIMA-I01SP107-SS7;IMA_I01_1_GPON_VLAN_100_101_102-ALC;1/1/4/15
EQP0000000011990892;I01G0856;CTO - OPTAP;SCIMA_G1I01;AVENIDA SANTA CATARINA IMBITUBA CENTRO 88780000 SC 249;IMBITUBA;-28.239346700;-48.668049100;G0;SCIMA-I01SP107;SCIMA-I01SP107-SS8;IMA_I01_1_GPON_VLAN_100_101_102-ALC;1/1/4/15
EQP0000000011990761;I01G01685;CTO - OPTAP;SCIMA_G1I01;RUA JOAO GREGORIO PEREIRA IMBITUBA VILA SANTO ANTONIO 88780000 SC 125;IMBITUBA;-28.258777800;-48.693147200;G0;SCIMA-I01SP211;SCIMA-I01SP211-SS5;IMA_I01_1_GPON_VLAN_100_101_102-ALC;1/1/7/9
EQP0000000011990744;I01G01693;CTO - OPTAP;SCIMA_G1I01;AVENIDA RENATO RAMOS DA SILVA IMBITUBA VILA NOVA 88780000 SC 2132;IMBITUBA;-28.257935800;-48.686341500;G0;SCIMA-I01SP212;SCIMA-I01SP212-SS5;IMA_I01_1_GPON_VLAN_100_101_102-ALC;1/1/7/10
EQP0000000011990753;I01G01451;CTO - OPTAP;SCIMA_G1I01;RUA JOSE ANTONIO LATRONICO IMBITUBA PORTO DA VILA 88780000 SC SN;IMBITUBA;-28.268805500;-48.702108300;G0;SCIMA-I01SP182;SCIMA-I01SP182-SS3;IMA_I01_1_GPON_VLAN_100_101_102-ALC;1/1/6/12
EQP0000000011990763;I01G01684;CTO - OPTAP;SCIMA_G1I01;Rua PEDRO INACIO PACHECO IMBITUBA VILA SANTO ANTONIO 88780000 SC 451;IMBITUBA;-28.259720600;-48.694013400;G0;SCIMA-I01SP211;SCIMA-I01SP211-SS4;IMA_I01_1_GPON_VLAN_100_101_102-ALC;1/1/7/9
EQP0000000011990779;I01G01700;CTO - OPTAP;SCIMA_G1I01;Rua PEDRO INACIO PACHECO IMBITUBA VILA SANTO ANTONIO 88780000 SC 250;IMBITUBA;-28.260641400;-48.692051000;G0;SCIMA-I01SP213;SCIMA-I01SP213-SS4;IMA_I01_1_GPON_VLAN_100_101_102-ALC;1/1/7/11
EQP0000000011991004;I01G0493;CTO - OPTAP;SCIMA_G1I01;RUA ADELFO PAMATO IMBITUBA CENTRO 88780000 SC 740;IMBITUBA;-28.236626900;-48.673965100;G0;SCIMA-I01SP62;SCIMA-I01SP62-SS5;IMA_I01_1_GPON_VLAN_100_101_102-ALC;1/1/3/3
EQP0000000011990740;I01GP1402;TO;SCIMA_G1I01;RUA MANOEL ARAUJO IMBITUBA VILA NOVA 88780000 SC 50;IMBITUBA;-28.258033600;-48.683478100;GP;SCIMA-I01SP176;SCIMA-I01SP176-SS2;IMA_I01_1_GPON_VLAN_100_101_102-ALC;1/1/6/6
EQP0000000011990870;I01G01212;CTO - OPTAP;SCIMA_G1I01;RUA SANTANA IMBITUBA CAMPO D AVIACAO 88780000 SC 2016;IMBITUBA;-28.271800200;-48.694301700;G0;SCIMA-I01SP152;SCIMA-I01SP152-SS4;IMA_I01_1_GPON_VLAN_100_101_102-ALC;1/1/5/8
EQP0000000011990870;I01G01212;CTO - OPTAP;SCIMA_G1I01;RUA SANTANA IMBITUBA CAMPO D AVIACAO 88780000 SC 2016;IMBITUBA;-28.271800200;-48.694301700;G0;SCIMA-I01SP152;SCIMA-I01SP152-SS3;IMA_I01_1_GPON_VLAN_100_101_102-ALC;1/1/5/8
EQP0000000011991040;I01G0266;CTO - OPTAP;SCIMA_G1I01;RUA NOSSA SENHORA APARECIDA IMBITUBA VILA ALVORADA 88780000 SC 220;IMBITUBA;-28.226082000;-48.668076900;G0;SCIMA-I01SP34;SCIMA-I01SP34-SS2;IMA_I01_1_GPON_VLAN_100_101_102-ALC;1/1/2/2
EQP0000000011990778;I01G01701;CTO - OPTAP;SCIMA_G1I01;RUA JOVINO DANIEL IMBITUBA VILA SANTO ANTONIO 88780000 SC 94;IMBITUBA;-28.259681300;-48.691680900;G0;SCIMA-I01SP213;SCIMA-I01SP213-SS5;IMA_I01_1_GPON_VLAN_100_101_102-ALC;1/1/7/11
EQP0000000011990992;I01G0524;CTO - OPTAP;SCIMA_G1I01;RUA AYRTON SENNA IMBITUBA CENTRO 88780000 SC 535;IMBITUBA;-28.236772600;-48.671310000;G0;SCIMA-I01SP66;SCIMA-I01SP66-SS4;IMA_I01_1_GPON_VLAN_100_101_102-ALC;1/1/3/7
EQP0000000011990773;I01G01446;CTO - OPTAP;SCIMA_G1I01;RUA ELOY FIGUEIREDO IMBITUBA PORTO DA VILA 88780000 SC 1287;IMBITUBA;-28.265422500;-48.704559800;G0;SCIMA-I01SP181;SCIMA-I01SP181-SS6;IMA_I01_1_GPON_VLAN_100_101_102-ALC;1/1/6/11
EQP0000000011990815;I01G01535;CTO - OPTAP;SCIMA_G1I01;RUA PEDRO BITTENCOURT IMBITUBA VILA SANTO ANTONIO 88780000 SC 391;IMBITUBA;-28.263981500;-48.695719400;G0;SCIMA-I01SP192;SCIMA-I01SP192-SS7;IMA_I01_1_GPON_VLAN_100_101_102-ALC;1/1/6/16
EQP0000000011990882;I01GP762;TO;SCIMA_G1I01;RUA IRINEU BORNHAUSEN IMBITUBA CENTRO 88780000 SC 555;IMBITUBA;-28.241609800;-48.665252700;GP;SCIMA-I01SP96;SCIMA-I01SP96-SS2;IMA_I01_1_GPON_VLAN_100_101_102-ALC;1/1/4/10
EQP0000000011990758;I01G01688;CTO - OPTAP;SCIMA_G1I01;RUA ANTONIO AMERICO TAVARES IMBITUBA VILA SANTO ANTONIO 88780000 SC 85;IMBITUBA;-28.259070800;-48.692882300;G0;SCIMA-I01SP211;SCIMA-I01SP211-SS8;IMA_I01_1_GPON_VLAN_100_101_102-ALC;1/1/7/9
EQP0000000011990780;I01G01699;CTO - OPTAP;SCIMA_G1I01;RUA ANTONIO TORQUATO IMBITUBA VILA SANTO ANTONIO 88780000 SC 146;IMBITUBA;-28.259650000;-48.692781600;G0;SCIMA-I01SP213;SCIMA-I01SP213-SS3;IMA_I01_1_GPON_VLAN_100_101_102-ALC;1/1/7/11
EQP0000000012009852;I01G01538;CTO - OPTAP;SCIMA_G1I01;RUA DOMICIO SEVERINO DE SOUZA IMBITUBA SAGRADA FAMILIA 88780000 SC 170;IMBITUBA;-28.271598900;-48.697659100;G0;SCIMA-I01SP193;SCIMA-I01SP193-SS2;IMA_I01_1_GPON_VLAN_100_101_102-ALC;1/1/7/1
EQP0000000012009852;I01G01538;CTO - OPTAP;SCIMA_G1I01;RUA DOMICIO SEVERINO DE SOUZA IMBITUBA SAGRADA FAMILIA 88780000 SC 170;IMBITUBA;-28.271598900;-48.697659100;G0;SCIMA-I01SP193;SCIMA-I01SP193-SS1;IMA_I01_1_GPON_VLAN_100_101_102-ALC;1/1/7/1
EQP0000000012009696;I01G01698;CTO - OPTAP;SCIMA_G1I01;RUA PEDRO ANTONIO GONCALVES IMBITUBA VILA SANTO ANTONIO 88780000 SC 65;IMBITUBA;-28.260254200;-48.693774300;G0;SCIMA-I01SP213;SCIMA-I01SP213-SS2;IMA_I01_1_GPON_VLAN_100_101_102-ALC;1/1/7/11
EQP0000000012009692;I01G01454;CTO - OPTAP;SCIMA_G1I01;RUA ALZEMIRO AVELINO IMBITUBA PORTO DA VILA 88780000 SC 244;IMBITUBA;-28.267315400;-48.703597500;G0;SCIMA-I01SP182;SCIMA-I01SP182-SS6;IMA_I01_1_GPON_VLAN_100_101_102-ALC;1/1/6/12
EQP0000000011990866;I01G01285;CTO - OPTAP;SCIMA_G1I01;RUA MANOEL INACIO IMBITUBA VILA NOVA 88780000 SC 217;IMBITUBA;-28.268556500;-48.688077100;G0;SCIMA-I01SP161;SCIMA-I01SP161-SS5;IMA_I01_1_GPON_VLAN_100_101_102-ALC;1/1/6/1
EQP0000000011991155;I01G01734;CTO - OPTAP;SCIMA_G1I01;RUA VILMAR GOULART PEREIRA IMBITUBA PAES LEME 88780000 SC 157;IMBITUBA;-28.244646600;-48.678231600;G0;SCIMA-I01SP217;SCIMA-I01SP217-SS6;IMA_I01_1_GPON_VLAN_100_101_102-ALC;1/1/7/15
EQP0000000011991154;I01G01735;CTO - OPTAP;SCIMA_G1I01;RUA JOAO MOTTA DE SOUZA IMBITUBA PAES LEME 88780000 SC 161;IMBITUBA;-28.245359200;-48.677567700;G0;SCIMA-I01SP217;SCIMA-I01SP217-SS7;IMA_I01_1_GPON_VLAN_100_101_102-ALC;1/1/7/15
EQP0000000107036247;I01GP1601;MINI CDOE 1:2 + 1:8 PRECON SELADA 60/40;SCIMA_G1I01;RUA LOURIVAL RAMOS IMBITUBA   88780000 SC 144;IMBITUBA;-28.270436000;-48.696456100;GP;SCIMA-I01SP201;SCIMA-I01SP201-SS1;IMA_I01_1_GPON_VLAN_100_101_102-ALC;1/1/7/5
EQP0000000163606650;I01GP589;MINI CDOE 1:2 + 1:8 PRECON SELADA 60/40;SCIMA_G1I01;AVENIDA MANOEL FLORENTINO MACHADO IMBITUBA CENTRO 88780000 SC 405;IMBITUBA;-28.238148400;-48.661187200;GP;SCIMA-I01SP74;SCIMA-I01SP74-SS5;IMA_I01_1_GPON_VLAN_100_101_102-ALC;1/1/3/15
EQP0000000011990843;I01G01280;CTO - OPTAP;SCIMA_G1I01;RUA ORLANDO BRESSAN MARTINS IMBITUBA VILA NOVA 88780000 SC 420;IMBITUBA;-28.265498800;-48.687839700;G0;SCIMA-I01SP160;SCIMA-I01SP160-SS8;IMA_I01_1_GPON_VLAN_100_101_102-ALC;1/1/5/16
EQP0000000011991103;I01G0368;CTO - OPTAP;SCIMA_G1I01;RUA VANDERLEI DE CARVALHO IMBITUBA VILLAGE 88780000 SC 307;IMBITUBA;-28.227988700;-48.673173700;G0;SCIMA-I01SP46;SCIMA-I01SP46-SS8;IMA_I01_1_GPON_VLAN_100_101_102-ALC;1/1/2/6
EQP0000000012009706;I01G01288;CTO - OPTAP;SCIMA_G1I01;RUA SAO PEDRO IMBITUBA VILA NOVA 88780000 SC 263;IMBITUBA;-28.267046800;-48.687078900;G0;SCIMA-I01SP161;SCIMA-I01SP161-SS8;IMA_I01_1_GPON_VLAN_100_101_102-ALC;1/1/6/1
EQP0000000011991030;I01G0441;CTO - OPTAP;SCIMA_G1I01;RUA ALDO PITIGLIANI IMBITUBA VILLAGE 88780000 SC 305;IMBITUBA;-28.228446000;-48.673463900;G0;SCIMA-I01SP56;SCIMA-I01SP56-SS1;IMA_I01_1_GPON_VLAN_100_101_102-ALC;1/1/2/14
EQP0000000011990739;I01GP1401;TO;SCIMA_G1I01;RUA MANOEL ARAUJO IMBITUBA VILA NOVA 88780000 SC 50;IMBITUBA;-28.258009600;-48.683529600;GP;SCIMA-I01SP176;SCIMA-I01SP176-SS1;IMA_I01_1_GPON_VLAN_100_101_102-ALC;1/1/6/6
EQP0000000011991045;I01G0267;CTO - OPTAP;SCIMA_G1I01;RUA NOSSA SENHORA APARECIDA IMBITUBA VILA ALVORADA 88780000 SC 88;IMBITUBA;-28.226964200;-48.668485200;G0;SCIMA-I01SP34;SCIMA-I01SP34-SS3;IMA_I01_1_GPON_VLAN_100_101_102-ALC;1/1/2/2
EQP0000000011990842;I01G01279;CTO - OPTAP;SCIMA_G1I01;RUA ORLANDO BRESSAN MARTINS IMBITUBA VILA NOVA 88780000 SC 304;IMBITUBA;-28.266180000;-48.687059200;G0;SCIMA-I01SP160;SCIMA-I01SP160-SS7;IMA_I01_1_GPON_VLAN_100_101_102-ALC;1/1/5/16
EQP0000000011990807;I01GP1242;TO;SCIMA_G1I01;AVENIDA ESTRELA IMBITUBA VILA NOVA 88780000 SC 1038;IMBITUBA;-28.269532800;-48.692201600;GP;SCIMA-I01SP156;SCIMA-I01SP156-SS2;IMA_I01_1_GPON_VLAN_100_101_102-ALC;1/1/5/12
EQP0000000012001381;I01G01691;CTO - OPTAP;SCIMA_G1I01;AVENIDA RENATO RAMOS DA SILVA IMBITUBA PAES LEME 88780000 SC 217;IMBITUBA;-28.254249200;-48.682952000;G0;SCIMA-I01SP212;SCIMA-I01SP212-SS3;IMA_I01_1_GPON_VLAN_100_101_102-ALC;1/1/7/10
EQP0000000011990953;I01G0826;CTO - OPTAP;SCIMA_G1I01;RUA NEREU RAMOS IMBITUBA CENTRO 88780000 SC 1133;IMBITUBA;-28.243199900;-48.670850400;G0;SCIMA-I01SP104;SCIMA-I01SP104-SS2;IMA_I01_1_GPON_VLAN_100_101_102-ALC;1/1/4/12
EQP0000000011990953;I01G0826;CTO - OPTAP;SCIMA_G1I01;RUA NEREU RAMOS IMBITUBA CENTRO 88780000 SC 1133;IMBITUBA;-28.243199900;-48.670850400;G0;SCIMA-I01SP104;SCIMA-I01SP104-SS1;IMA_I01_1_GPON_VLAN_100_101_102-ALC;1/1/4/12
EQP0000000011991105;I01G0366;CTO - OPTAP;SCIMA_G1I01;RUA VANDERLEI DE CARVALHO IMBITUBA VILLAGE 88780000 SC 34;IMBITUBA;-28.229121800;-48.670119400;G0;SCIMA-I01SP46;SCIMA-I01SP46-SS6;IMA_I01_1_GPON_VLAN_100_101_102-ALC;1/1/2/6
EQP0000000011991124;I01G0022;CTO - OPTAP;SCIMA_G1I01;RUA ALECIO SANCEVERINO IMBITUBA   88780000 SC 167;IMBITUBA;-28.216749100;-48.674948800;G0;SCIMA-I01SP3;SCIMA-I01SP3-SS6;IMA_I01_1_GPON_VLAN_100_101_102-ALC;1/1/1/3
EQP0000000011991124;I01G0022;CTO - OPTAP;SCIMA_G1I01;RUA ALECIO SANCEVERINO IMBITUBA   88780000 SC 167;IMBITUBA;-28.216749100;-48.674948800;G0;SCIMA-I01SP3;SCIMA-I01SP3-SS5;IMA_I01_1_GPON_VLAN_100_101_102-ALC;1/1/1/3
EQP0000000011990775;I01G01443;CTO - OPTAP;SCIMA_G1I01;RUA ALFREDO ANTONIO FELICIANO IMBITUBA PORTO DA VILA 88780000 SC 77;IMBITUBA;-28.266677800;-48.702673100;G0;SCIMA-I01SP181;SCIMA-I01SP181-SS3;IMA_I01_1_GPON_VLAN_100_101_102-ALC;1/1/6/11
EQP0000000011991042;I01G0192;CTO - OPTAP;SCIMA_G1I01;RUA ITAGIBA IMBITUBA VILA ALVORADA 88780000 SC 802;IMBITUBA;-28.223148000;-48.669063100;G0;SCIMA-I01SP24;SCIMA-I01SP24-SS7;IMA_I01_1_GPON_VLAN_100_101_102-ALC;1/1/1/15
EQP0000000011991042;I01G0192;CTO - OPTAP;SCIMA_G1I01;RUA ITAGIBA IMBITUBA VILA ALVORADA 88780000 SC 802;IMBITUBA;-28.223148000;-48.669063100;G0;SCIMA-I01SP24;SCIMA-I01SP24-SS8;IMA_I01_1_GPON_VLAN_100_101_102-ALC;1/1/1/15
EQP0000000011991006;I01G0526;CTO - OPTAP;SCIMA_G1I01;AVENIDA NICOLAU BARTOLOMEU DA ROSA MATOS IMBITUBA CENTRO 88780000 SC 912;IMBITUBA;-28.237087500;-48.673391000;G0;SCIMA-I01SP66;SCIMA-I01SP66-SS6;IMA_I01_1_GPON_VLAN_100_101_102-ALC;1/1/3/7
EQP0000000011990795;I01G01526;CTO - OPTAP;SCIMA_G1I01;RUA TOME DANIEL FLAUSINO IMBITUBA VILA SANTO ANTONIO 88780000 SC 135;IMBITUBA;-28.262975800;-48.697643600;G0;SCIMA-I01SP191;SCIMA-I01SP191-SS6;IMA_I01_1_GPON_VLAN_100_101_102-ALC;1/1/6/15
EQP0000000011990795;I01G01526;CTO - OPTAP;SCIMA_G1I01;RUA TOME DANIEL FLAUSINO IMBITUBA VILA SANTO ANTONIO 88780000 SC 135;IMBITUBA;-28.262975800;-48.697643600;G0;SCIMA-I01SP191;SCIMA-I01SP191-SS5;IMA_I01_1_GPON_VLAN_100_101_102-ALC;1/1/6/15
EQP0000000011990944;I01G0836;CTO - OPTAP;SCIMA_G1I01;AVENIDA PRESIDENTE VARGAS IMBITUBA CENTRO 88780000 SC 437;IMBITUBA;-28.241869000;-48.663499600;G0;SCIMA-I01SP105;SCIMA-I01SP105-SS4;IMA_I01_1_GPON_VLAN_100_101_102-ALC;1/1/4/13
EQP0000000011990944;I01G0836;CTO - OPTAP;SCIMA_G1I01;AVENIDA PRESIDENTE VARGAS IMBITUBA CENTRO 88780000 SC 437;IMBITUBA;-28.241869000;-48.663499600;G0;SCIMA-I01SP105;SCIMA-I01SP105-SS3;IMA_I01_1_GPON_VLAN_100_101_102-ALC;1/1/4/13
EQP0000000012009838;I01G0182;CTO - OPTAP;SCIMA_G1I01;RUA ITAGIBA IMBITUBA VILA ALVORADA 88780000 SC 240;IMBITUBA;-28.224289800;-48.667178200;G0;SCIMA-I01SP23;SCIMA-I01SP23-SS6;IMA_I01_1_GPON_VLAN_100_101_102-ALC;1/1/1/14
EQP0000000012009838;I01G0182;CTO - OPTAP;SCIMA_G1I01;RUA ITAGIBA IMBITUBA VILA ALVORADA 88780000 SC 240;IMBITUBA;-28.224289800;-48.667178200;G0;SCIMA-I01SP23;SCIMA-I01SP23-SS5;IMA_I01_1_GPON_VLAN_100_101_102-ALC;1/1/1/14
EQP0000000011990854;I01GP946;TO;SCIMA_G1I01;RUA NEREU RAMOS IMBITUBA CENTRO 88780000 SC 719;IMBITUBA;-28.240736400;-48.668066900;GP;SCIMA-I01SP119;SCIMA-I01SP119-SS2;IMA_I01_1_GPON_VLAN_100_101_102-ALC;1/1/5/3
EQP0000000011990765;I01G01682;CTO - OPTAP;SCIMA_G1I01;RUA IZIDORO JOAO DA SILVA IMBITUBA VILA SANTO ANTONIO 88780000 SC SN;IMBITUBA;-28.258384700;-48.694010400;G0;SCIMA-I01SP211;SCIMA-I01SP211-SS2;IMA_I01_1_GPON_VLAN_100_101_102-ALC;1/1/7/9
EQP0000000011990913;I01GP658;TO;SCIMA_G1I01;AVENIDA DOUTOR JOAO RIMSA IMBITUBA CENTRO 88780000 SC 921;IMBITUBA;-28.240534200;-48.666993000;GP;SCIMA-I01SP83;SCIMA-I01SP83-SS2;IMA_I01_1_GPON_VLAN_100_101_102-ALC;1/1/4/3
EQP0000000011990782;I01G01412;CTO - OPTAP;SCIMA_G1I01;RUA PIRES SILVEIRA IMBITUBA VILA NOVA 88780000 SC 299;IMBITUBA;-28.262124200;-48.685186200;G0;SCIMA-I01SP177;SCIMA-I01SP177-SS3;IMA_I01_1_GPON_VLAN_100_101_102-ALC;1/1/6/7
EQP0000000011990782;I01G01412;CTO - OPTAP;SCIMA_G1I01;RUA PIRES SILVEIRA IMBITUBA VILA NOVA 88780000 SC 299;IMBITUBA;-28.262124200;-48.685186200;G0;SCIMA-I01SP177;SCIMA-I01SP177-SS4;IMA_I01_1_GPON_VLAN_100_101_102-ALC;1/1/6/7
EQP0000000011990874;I01GP939;TO;SCIMA_G1I01;RUA NEREU RAMOS IMBITUBA CENTRO 88780000 SC 404;IMBITUBA;-28.238668800;-48.665915500;GP;SCIMA-I01SP118;SCIMA-I01SP118-SS3;IMA_I01_1_GPON_VLAN_100_101_102-ALC;1/1/5/2
EQP0000000011991054;I01G0279;CTO - OPTAP;SCIMA_G1I01;RUA TRES DE OUTUBRO IMBITUBA CENTRO 88780000 SC 18;IMBITUBA;-28.236853100;-48.668383900;G0;SCIMA-I01SP35;SCIMA-I01SP35-SS7;IMA_I01_1_GPON_VLAN_100_101_102-ALC;1/1/2/3
EQP0000000011990829;I01G01278;CTO - OPTAP;SCIMA_G1I01;RUA OLAVO BILAC IMBITUBA VILA NOVA 88780000 SC 322;IMBITUBA;-28.265451400;-48.686685700;G0;SCIMA-I01SP160;SCIMA-I01SP160-SS6;IMA_I01_1_GPON_VLAN_100_101_102-ALC;1/1/5/16
EQP0000000011990867;I01G01284;CTO - OPTAP;SCIMA_G1I01;RUA MANOEL SERAFIM IMBITUBA VILA NOVA 88780000 SC 268;IMBITUBA;-28.269061400;-48.688471500;G0;SCIMA-I01SP161;SCIMA-I01SP161-SS4;IMA_I01_1_GPON_VLAN_100_101_102-ALC;1/1/6/1
EQP0000000011991053;I01G0280;CTO - OPTAP;SCIMA_G1I01;RUA TRES DE OUTUBRO IMBITUBA CENTRO 88780000 SC 467;IMBITUBA;-28.236734200;-48.667618100;G0;SCIMA-I01SP35;SCIMA-I01SP35-SS8;IMA_I01_1_GPON_VLAN_100_101_102-ALC;1/1/2/3
EQP0000000011990947;I01G0830;CTO - OPTAP;SCIMA_G1I01;AVENIDA DOUTOR JOAO RIMSA IMBITUBA CENTRO 88780000 SC 1002;IMBITUBA;-28.241632300;-48.668403400;G0;SCIMA-I01SP104;SCIMA-I01SP104-SS5;IMA_I01_1_GPON_VLAN_100_101_102-ALC;1/1/4/12
EQP0000000011990947;I01G0830;CTO - OPTAP;SCIMA_G1I01;AVENIDA DOUTOR JOAO RIMSA IMBITUBA CENTRO 88780000 SC 1002;IMBITUBA;-28.241632300;-48.668403400;G0;SCIMA-I01SP104;SCIMA-I01SP104-SS6;IMA_I01_1_GPON_VLAN_100_101_102-ALC;1/1/4/12
EQP0000000011990846;I01G01232;CTO - OPTAP;SCIMA_G1I01;RUA TAUBATE IMBITUBA VILA NOVA 88780000 SC 142;IMBITUBA;-28.269183400;-48.692350900;G0;SCIMA-I01SP154;SCIMA-I01SP154-SS7;IMA_I01_1_GPON_VLAN_100_101_102-ALC;1/1/5/10
EQP0000000011990846;I01G01232;CTO - OPTAP;SCIMA_G1I01;RUA TAUBATE IMBITUBA VILA NOVA 88780000 SC 142;IMBITUBA;-28.269183400;-48.692350900;G0;SCIMA-I01SP154;SCIMA-I01SP154-SS8;IMA_I01_1_GPON_VLAN_100_101_102-ALC;1/1/5/10
EQP0000000011991119;I01G0007;CTO - OPTAP;SCIMA_G1I01;RUA ARITIANO GONCALVES IMBITUBA   88780000 SC 649;IMBITUBA;-28.213616500;-48.674912900;G0;SCIMA-I01SP1;SCIMA-I01SP1-SS7;IMA_I01_1_GPON_VLAN_100_101_102-ALC;1/1/1/1
EQP0000000011990861;I01G01281;CTO - OPTAP;SCIMA_G1I01;RUA OTILIA DE SOUZA OLIVEIRA IMBITUBA VILA NOVA 88780000 SC 361;IMBITUBA;-28.270738300;-48.690824100;G0;SCIMA-I01SP161;SCIMA-I01SP161-SS1;IMA_I01_1_GPON_VLAN_100_101_102-ALC;1/1/6/1
EQP0000000011990743;I01G01694;CTO - OPTAP;SCIMA_G1I01;AVENIDA RENATO RAMOS DA SILVA IMBITUBA VILA NOVA 88780000 SC 512;IMBITUBA;-28.259671400;-48.687896400;G0;SCIMA-I01SP212;SCIMA-I01SP212-SS6;IMA_I01_1_GPON_VLAN_100_101_102-ALC;1/1/7/10
EQP0000000011991038;I01G0274;CTO - OPTAP;SCIMA_G1I01;RUA ADEMAR FERREIRA IMBITUBA CENTRO 88780000 SC 105;IMBITUBA;-28.235546800;-48.663956400;G0;SCIMA-I01SP35;SCIMA-I01SP35-SS2;IMA_I01_1_GPON_VLAN_100_101_102-ALC;1/1/2/3
EQP0000000011990771;I01G01448;CTO - OPTAP;SCIMA_G1I01;RUA MANOEL CARLOS LOPES IMBITUBA PORTO DA VILA 88780000 SC 70;IMBITUBA;-28.263408300;-48.703819400;G0;SCIMA-I01SP181;SCIMA-I01SP181-SS8;IMA_I01_1_GPON_VLAN_100_101_102-ALC;1/1/6/11
EQP0000000011990860;I01G01282;CTO - OPTAP;SCIMA_G1I01;RUA FARRAPOS IMBITUBA VILA NOVA 88780000 SC SN;IMBITUBA;-28.270357800;-48.689988600;G0;SCIMA-I01SP161;SCIMA-I01SP161-SS2;IMA_I01_1_GPON_VLAN_100_101_102-ALC;1/1/6/1
EQP0000000011990847;I01GPT1292;TO;SCIMA_G1I01;AVENIDA ESTRELA IMBITUBA VILA NOVA 88780000 SC 366;IMBITUBA;-28.266236800;-48.688359000;GPT;SCIMA-I01SP162;SCIMA-I01SP162-SS4;IMA_I01_1_GPON_VLAN_100_101_102-ALC;1/1/6/2
EQP0000000011990828;I01G01275;CTO - OPTAP;SCIMA_G1I01;RUA HANS DIETER SCHMIDT IMBITUBA VILA NOVA 88780000 SC 233;IMBITUBA;-28.264991400;-48.685165300;G0;SCIMA-I01SP160;SCIMA-I01SP160-SS3;IMA_I01_1_GPON_VLAN_100_101_102-ALC;1/1/5/16
EQP0000000011991118;I01G0006;CTO - OPTAP;SCIMA_G1I01;RUA ELPIDIO ANTONIO DEMETRIO IMBITUBA   88780000 SC SN;IMBITUBA;-28.212070200;-48.674527700;G0;SCIMA-I01SP1;SCIMA-I01SP1-SS6;IMA_I01_1_GPON_VLAN_100_101_102-ALC;1/1/1/1
EQP0000000011990995;I01G0447;CTO - OPTAP;SCIMA_G1I01;RUA ASTROGILDO DUARTE FERREIRA IMBITUBA VILLAGE 88780000 SC 338;IMBITUBA;-28.230248700;-48.673379300;G0;SCIMA-I01SP56;SCIMA-I01SP56-SS7;IMA_I01_1_GPON_VLAN_100_101_102-ALC;1/1/2/14
EQP0000000011991071;I01G0112;CTO - OPTAP;SCIMA_G1I01;RUA 1163 IMBITUBA   88780000 SC 98;IMBITUBA;-28.222455600;-48.668091800;G0;SCIMA-I01SP14;SCIMA-I01SP14-SS7;IMA_I01_1_GPON_VLAN_100_101_102-ALC;1/1/1/11
EQP0000000011991071;I01G0112;CTO - OPTAP;SCIMA_G1I01;RUA 1163 IMBITUBA   88780000 SC 98;IMBITUBA;-28.222455600;-48.668091800;G0;SCIMA-I01SP14;SCIMA-I01SP14-SS8;IMA_I01_1_GPON_VLAN_100_101_102-ALC;1/1/1/11
EQP0000000011990733;I01G01508;CTO - OPTAP;SCIMA_G1I01;RUA LUIS PAULO DAMAZIO IMBITUBA VILA SANTO ANTONIO 88780000 SC SN;IMBITUBA;-28.263681100;-48.702491800;G0;SCIMA-I01SP189;SCIMA-I01SP189-SS4;IMA_I01_1_GPON_VLAN_100_101_102-ALC;1/1/6/13
EQP0000000011991036;I01G0186;CTO - OPTAP;SCIMA_G1I01;RUA MANOEL SILVEIRA IMBITUBA VILA ALVORADA 88780000 SC 2082;IMBITUBA;-28.225245200;-48.670501500;G0;SCIMA-I01SP24;SCIMA-I01SP24-SS1;IMA_I01_1_GPON_VLAN_100_101_102-ALC;1/1/1/15
EQP0000000011991036;I01G0186;CTO - OPTAP;SCIMA_G1I01;RUA MANOEL SILVEIRA IMBITUBA VILA ALVORADA 88780000 SC 2082;IMBITUBA;-28.225245200;-48.670501500;G0;SCIMA-I01SP24;SCIMA-I01SP24-SS2;IMA_I01_1_GPON_VLAN_100_101_102-ALC;1/1/1/15
EQP0000000012009690;I01G01507;CTO - OPTAP;SCIMA_G1I01;RUA PEDRO BITTENCOURT IMBITUBA VILA SANTO ANTONIO 88780000 SC 1220;IMBITUBA;-28.262827900;-48.702403500;G0;SCIMA-I01SP189;SCIMA-I01SP189-SS3;IMA_I01_1_GPON_VLAN_100_101_102-ALC;1/1/6/13
EQP0000000012009842;I01G0375;CTO - OPTAP;SCIMA_G1I01;RUA PAULO FERREIRA DA SILVA IMBITUBA VILLAGE 88780000 SC 277;IMBITUBA;-28.227136200;-48.672235600;G0;SCIMA-I01SP47;SCIMA-I01SP47-SS7;IMA_I01_1_GPON_VLAN_100_101_102-ALC;1/1/2/7
EQP0000000011990909;I01G0760;CTO - OPTAP;SCIMA_G1I01;RUA PAULINO MARTINS IMBITUBA CENTRO 88780000 SC 256;IMBITUBA;-28.243452100;-48.663314100;G0;SCIMA-I01SP95;SCIMA-I01SP95-SS8;IMA_I01_1_GPON_VLAN_100_101_102-ALC;1/1/4/9
EQP0000000011990990;I01GP430;TO;SCIMA_G1I01;RUA MANOEL FORTUNATO IMBITUBA VILLAGE 88780000 SC 349;IMBITUBA;-28.229523200;-48.674383400;GP;SCIMA-I01SP54;SCIMA-I01SP54-SS6;IMA_I01_1_GPON_VLAN_100_101_102-ALC;1/1/2/12
EQP0000000011991096;I01G0373;CTO - OPTAP;SCIMA_G1I01;RUA ROSA MARTINS DA ROSA IMBITUBA RIBANCEIRA 88780000 SC 22;IMBITUBA;-28.224602800;-48.673641700;G0;SCIMA-I01SP47;SCIMA-I01SP47-SS5;IMA_I01_1_GPON_VLAN_100_101_102-ALC;1/1/2/7
EQP0000000011991128;I01G0030;CTO - OPTAP;SCIMA_G1I01;RUA BRAULINO TRAJANO DE MIRANDA IMBITUBA   88780000 SC 160;IMBITUBA;-28.216587000;-48.674051200;G0;SCIMA-I01SP4;SCIMA-I01SP4-SS6;IMA_I01_1_GPON_VLAN_100_101_102-ALC;1/1/1/4
EQP0000000011991128;I01G0030;CTO - OPTAP;SCIMA_G1I01;RUA BRAULINO TRAJANO DE MIRANDA IMBITUBA   88780000 SC 160;IMBITUBA;-28.216587000;-48.674051200;G0;SCIMA-I01SP4;SCIMA-I01SP4-SS5;IMA_I01_1_GPON_VLAN_100_101_102-ALC;1/1/1/4
EQP0000000011991162;I01G01730;CTO - OPTAP;SCIMA_G1I01;RUA NIVEA SIMAO DE SOUZA IMBITUBA PAES LEME 88780000 SC 50;IMBITUBA;-28.246097600;-48.679657200;G0;SCIMA-I01SP217;SCIMA-I01SP217-SS2;IMA_I01_1_GPON_VLAN_100_101_102-ALC;1/1/7/15
EQP0000000012009840;I01G0100;CTO - OPTAP;SCIMA_G1I01;RUA CANTO VERDE IMBITUBA VILA ALVORADA 88780000 SC 191;IMBITUBA;-28.220031100;-48.667095500;G0;SCIMA-I01SP13;SCIMA-I01SP13-SS3;IMA_I01_1_GPON_VLAN_100_101_102-ALC;1/1/1/10
EQP0000000012009840;I01G0100;CTO - OPTAP;SCIMA_G1I01;RUA CANTO VERDE IMBITUBA VILA ALVORADA 88780000 SC 191;IMBITUBA;-28.220031100;-48.667095500;G0;SCIMA-I01SP13;SCIMA-I01SP13-SS4;IMA_I01_1_GPON_VLAN_100_101_102-ALC;1/1/1/10
EQP0000000011991067;I01G0116;CTO - OPTAP;SCIMA_G1I01;RUA ANTONIO OLEIRO IMBITUBA VILA ALVORADA 88780000 SC 530;IMBITUBA;-28.224462100;-48.667789200;G0;SCIMA-I01SP15;SCIMA-I01SP15-SS4;IMA_I01_1_GPON_VLAN_100_101_102-ALC;1/1/1/12
EQP0000000011991067;I01G0116;CTO - OPTAP;SCIMA_G1I01;RUA ANTONIO OLEIRO IMBITUBA VILA ALVORADA 88780000 SC 530;IMBITUBA;-28.224462100;-48.667789200;G0;SCIMA-I01SP15;SCIMA-I01SP15-SS3;IMA_I01_1_GPON_VLAN_100_101_102-ALC;1/1/1/12
EQP0000000011990729;I01G01852;CTO - OPTAP;SCIMA_G1I01;Rua GENERAL OSORIO IMBITUBA PAES LEME 88780000 SC 9;IMBITUBA;-28.241113200;-48.673810000;G0;SCIMA-I01SP232;SCIMA-I01SP232-SS4;IMA_I01_1_GPON_VLAN_100_101_102-ALC;1/1/8/9
EQP0000000011990729;I01G01852;CTO - OPTAP;SCIMA_G1I01;Rua GENERAL OSORIO IMBITUBA PAES LEME 88780000 SC 9;IMBITUBA;-28.241113200;-48.673810000;G0;SCIMA-I01SP232;SCIMA-I01SP232-SS3;IMA_I01_1_GPON_VLAN_100_101_102-ALC;1/1/8/9
EQP0000000011991029;I01G0501;CTO - OPTAP;SCIMA_G1I01;RUA VEREADOR HENRIQUE BITTENCOURT DE BONNA IMBITUBA   88780000 SC SN;IMBITUBA;-28.231821100;-48.674311700;G0;SCIMA-I01SP63;SCIMA-I01SP63-SS5;IMA_I01_1_GPON_VLAN_100_101_102-ALC;1/1/3/4
EQP0000000011990764;I01G01683;CTO - OPTAP;SCIMA_G1I01;Rua PEDRO INACIO PACHECO IMBITUBA VILA SANTO ANTONIO 88780000 SC 602;IMBITUBA;-28.258866200;-48.694808200;G0;SCIMA-I01SP211;SCIMA-I01SP211-SS3;IMA_I01_1_GPON_VLAN_100_101_102-ALC;1/1/7/9
EQP0000000193372995;I01G01302;CTO SPLITTER 1 8;SCIMA_G1I01;RUA SANTANA IMBITUBA VILA NOVA 88780000 SC 1660;IMBITUBA;-28.268724700;-48.692948200;G0;SCIMA-I01SP163;SCIMA-I01SP163-SS6;IMA_I01_1_GPON_VLAN_100_101_102-ALC;1/1/8/15
EQP0000000012009835;I01G0269;CTO - OPTAP;SCIMA_G1I01;AVENIDA MANOEL FLORENTINO MACHADO IMBITUBA CENTRO 88780000 SC 1449;IMBITUBA;-28.230246200;-48.667164900;G0;SCIMA-I01SP34;SCIMA-I01SP34-SS5;IMA_I01_1_GPON_VLAN_100_101_102-ALC;1/1/2/2
EQP0000000011990760;I01G01686;CTO - OPTAP;SCIMA_G1I01;RUA JULIO VERGILIO DA SILVA IMBITUBA VILA SANTO ANTONIO 88780000 SC SN;IMBITUBA;-28.257747000;-48.692249100;G0;SCIMA-I01SP211;SCIMA-I01SP211-SS6;IMA_I01_1_GPON_VLAN_100_101_102-ALC;1/1/7/9
EQP0000000011991129;I01G0002;CTO - OPTAP;SCIMA_G1I01;AVENIDA TREZE DE SETEMBRO IMBITUBA VILA NOVA ALVORADA 88780000 SC 264;IMBITUBA;-28.210393000;-48.671180800;G0;SCIMA-I01SP1;SCIMA-I01SP1-SS2;IMA_I01_1_GPON_VLAN_100_101_102-ALC;1/1/1/1
EQP0000000012001594;I01G0445;CTO - OPTAP;SCIMA_G1I01;RUA MANOEL FORTUNATO IMBITUBA VILLAGE 88780000 SC 89;IMBITUBA;-28.230505600;-48.671859400;G0;SCIMA-I01SP56;SCIMA-I01SP56-SS5;IMA_I01_1_GPON_VLAN_100_101_102-ALC;1/1/2/14
EQP0000000011991116;I01G0004;CTO - OPTAP;SCIMA_G1I01;RUA ATALIBA MANOEL DA SILVA IMBITUBA VILA NOVA ALVORADA 88780000 SC 401;IMBITUBA;-28.209451900;-48.671913700;G0;SCIMA-I01SP1;SCIMA-I01SP1-SS4;IMA_I01_1_GPON_VLAN_100_101_102-ALC;1/1/1/1
EQP0000000012003622;I01GP1404;TO;SCIMA_G1I01;RUA MANOEL ARAUJO IMBITUBA VILA NOVA 88780000 SC 50;IMBITUBA;-28.258310200;-48.683314700;GP;SCIMA-I01SP176;SCIMA-I01SP176-SS4;IMA_I01_1_GPON_VLAN_100_101_102-ALC;1/1/6/6
EQP0000000012009695;I01G01444;CTO - OPTAP;SCIMA_G1I01;RUA ALFREDO ANTONIO FELICIANO IMBITUBA PORTO DA VILA 88780000 SC 222;IMBITUBA;-28.266304000;-48.704084100;G0;SCIMA-I01SP181;SCIMA-I01SP181-SS4;IMA_I01_1_GPON_VLAN_100_101_102-ALC;1/1/6/11
EQP0000000012009847;I01G0010;CTO - OPTAP;SCIMA_G1I01;Rua ORLANDO MANOEL IDALINO IMBITUBA VILA NOVA 88780000 SC 87;IMBITUBA;-28.211851300;-48.673265000;G0;SCIMA-I01SP2;SCIMA-I01SP2-SS2;IMA_I01_1_GPON_VLAN_100_101_102-ALC;1/1/1/2
EQP0000000012009847;I01G0010;CTO - OPTAP;SCIMA_G1I01;Rua ORLANDO MANOEL IDALINO IMBITUBA VILA NOVA 88780000 SC 87;IMBITUBA;-28.211851300;-48.673265000;G0;SCIMA-I01SP2;SCIMA-I01SP2-SS1;IMA_I01_1_GPON_VLAN_100_101_102-ALC;1/1/1/2
EQP0000000011990754;I01G01452;CTO - OPTAP;SCIMA_G1I01;RUA ALZEMIRO AVELINO IMBITUBA PORTO DA VILA 88780000 SC 364;IMBITUBA;-28.266719800;-48.704748000;G0;SCIMA-I01SP182;SCIMA-I01SP182-SS4;IMA_I01_1_GPON_VLAN_100_101_102-ALC;1/1/6/12
EQP0000000011991002;I01G0496;CTO - OPTAP;SCIMA_G1I01;RUA CELITO CORREA IMBITUBA CENTRO 88780000 SC SN;IMBITUBA;-28.234463500;-48.671594200;G0;SCIMA-I01SP62;SCIMA-I01SP62-SS8;IMA_I01_1_GPON_VLAN_100_101_102-ALC;1/1/3/3
EQP0000000011990862;I01G01214;CTO - OPTAP;SCIMA_G1I01;RUA SANTA LUZIA IMBITUBA CAMPO D AVIACAO 88780000 SC 170;IMBITUBA;-28.271205500;-48.694001200;G0;SCIMA-I01SP152;SCIMA-I01SP152-SS6;IMA_I01_1_GPON_VLAN_100_101_102-ALC;1/1/5/8
EQP0000000011990862;I01G01214;CTO - OPTAP;SCIMA_G1I01;RUA SANTA LUZIA IMBITUBA CAMPO D AVIACAO 88780000 SC 170;IMBITUBA;-28.271205500;-48.694001200;G0;SCIMA-I01SP152;SCIMA-I01SP152-SS5;IMA_I01_1_GPON_VLAN_100_101_102-ALC;1/1/5/8
EQP0000000012009715;I01G0443;CTO - OPTAP;SCIMA_G1I01;RUA JOSE CORREA IMBITUBA VILLAGE 88780000 SC 295;IMBITUBA;-28.229087600;-48.673481500;G0;SCIMA-I01SP56;SCIMA-I01SP56-SS3;IMA_I01_1_GPON_VLAN_100_101_102-ALC;1/1/2/14
EQP0000000193337279;I01G0809;CTO SPLITTER 1 8;SCIMA_G1I01;AVENIDA RENATO RAMOS DA SILVA IMBITUBA PAES LEME 88780000 SC 826;IMBITUBA;-28.247235600;-48.678957000;G0;SCIMA-I01SP102;SCIMA-I01SP102-SS1;IMA_I01_1_GPON_VLAN_100_101_102-ALC;1/1/8/13
EQP0000000012009691;I01G01695;CTO - OPTAP;SCIMA_G1I01;AVENIDA RENATO RAMOS DA SILVA IMBITUBA VILA NOVA 88780000 SC 2521;IMBITUBA;-28.260263400;-48.688416800;G0;SCIMA-I01SP212;SCIMA-I01SP212-SS7;IMA_I01_1_GPON_VLAN_100_101_102-ALC;1/1/7/10
EQP0000000011991089;I01G0094;CTO - OPTAP;SCIMA_G1I01;RUA ROMEU PIRES IMBITUBA   88780000 SC 1118;IMBITUBA;-28.217628300;-48.670367900;G0;SCIMA-I01SP12;SCIMA-I01SP12-SS5;IMA_I01_1_GPON_VLAN_100_101_102-ALC;1/1/1/9
EQP0000000011991089;I01G0094;CTO - OPTAP;SCIMA_G1I01;RUA ROMEU PIRES IMBITUBA   88780000 SC 1118;IMBITUBA;-28.217628300;-48.670367900;G0;SCIMA-I01SP12;SCIMA-I01SP12-SS6;IMA_I01_1_GPON_VLAN_100_101_102-ALC;1/1/1/9
EQP0000000011991014;I01G0528;CTO - OPTAP;SCIMA_G1I01;RUA TRES DE OUTUBRO IMBITUBA CENTRO 88780000 SC 762;IMBITUBA;-28.238410900;-48.670650500;G0;SCIMA-I01SP66;SCIMA-I01SP66-SS8;IMA_I01_1_GPON_VLAN_100_101_102-ALC;1/1/3/7
EQP0000000011991122;I01G0016;CTO - OPTAP;SCIMA_G1I01;RUA RAUL SILVA IMBITUBA   88780000 SC SN;IMBITUBA;-28.213403200;-48.672885300;G0;SCIMA-I01SP2;SCIMA-I01SP2-SS8;IMA_I01_1_GPON_VLAN_100_101_102-ALC;1/1/1/2
EQP0000000011991122;I01G0016;CTO - OPTAP;SCIMA_G1I01;RUA RAUL SILVA IMBITUBA   88780000 SC SN;IMBITUBA;-28.213403200;-48.672885300;G0;SCIMA-I01SP2;SCIMA-I01SP2-SS7;IMA_I01_1_GPON_VLAN_100_101_102-ALC;1/1/1/2
EQP0000000011991189;I01G01542;CTO - OPTAP;SCIMA_G1I01;RUA PROFESSOR ROGERIO TAVARES IMBITUBA SAGRADA FAMILIA 88780000 SC 638;IMBITUBA;-28.269758700;-48.694635800;G0;SCIMA-I01SP193;SCIMA-I01SP193-SS5;IMA_I01_1_GPON_VLAN_100_101_102-ALC;1/1/7/1
EQP0000000011991189;I01G01542;CTO - OPTAP;SCIMA_G1I01;RUA PROFESSOR ROGERIO TAVARES IMBITUBA SAGRADA FAMILIA 88780000 SC 638;IMBITUBA;-28.269758700;-48.694635800;G0;SCIMA-I01SP193;SCIMA-I01SP193-SS6;IMA_I01_1_GPON_VLAN_100_101_102-ALC;1/1/7/1
EQP0000000011991075;I01G0070;CTO - OPTAP;SCIMA_G1I01;RUA ELZA MARIA PEREIRA PITTIGLIANI IMBITUBA   88780000 SC 231;IMBITUBA;-28.215838000;-48.672398400;G0;SCIMA-I01SP9;SCIMA-I01SP9-SS5;IMA_I01_1_GPON_VLAN_100_101_102-ALC;1/1/1/6
EQP0000000011991075;I01G0070;CTO - OPTAP;SCIMA_G1I01;RUA ELZA MARIA PEREIRA PITTIGLIANI IMBITUBA   88780000 SC 231;IMBITUBA;-28.215838000;-48.672398400;G0;SCIMA-I01SP9;SCIMA-I01SP9-SS6;IMA_I01_1_GPON_VLAN_100_101_102-ALC;1/1/1/6
EQP0000000011990772;I01G01447;CTO - OPTAP;SCIMA_G1I01;RUA MANOEL CARLOS LOPES IMBITUBA PORTO DA VILA 88780000 SC 71;IMBITUBA;-28.263806700;-48.704729300;G0;SCIMA-I01SP181;SCIMA-I01SP181-SS7;IMA_I01_1_GPON_VLAN_100_101_102-ALC;1/1/6/11
EQP0000000011991090;I01G0096;CTO - OPTAP;SCIMA_G1I01;RUA HERCILIO NUNES IMBITUBA   88780000 SC 185;IMBITUBA;-28.217826900;-48.671335600;G0;SCIMA-I01SP12;SCIMA-I01SP12-SS8;IMA_I01_1_GPON_VLAN_100_101_102-ALC;1/1/1/9
EQP0000000011991090;I01G0096;CTO - OPTAP;SCIMA_G1I01;RUA HERCILIO NUNES IMBITUBA   88780000 SC 185;IMBITUBA;-28.217826900;-48.671335600;G0;SCIMA-I01SP12;SCIMA-I01SP12-SS7;IMA_I01_1_GPON_VLAN_100_101_102-ALC;1/1/1/9
EQP0000000011990774;I01G01445;CTO - OPTAP;SCIMA_G1I01;RUA ELOY FIGUEIREDO IMBITUBA PORTO DA VILA 88780000 SC 328;IMBITUBA;-28.266043600;-48.705852100;G0;SCIMA-I01SP181;SCIMA-I01SP181-SS5;IMA_I01_1_GPON_VLAN_100_101_102-ALC;1/1/6/11
EQP0000000011991010;I01GP409;TO;SCIMA_G1I01;RUA ALDO PITIGLIANI IMBITUBA VILLAGE 88780000 SC 85;IMBITUBA;-28.229525000;-48.671279500;GP;SCIMA-I01SP52;SCIMA-I01SP52-SS1;IMA_I01_1_GPON_VLAN_100_101_102-ALC;1/1/2/10
EQP0000000011991084;I01G0084;CTO - OPTAP;SCIMA_G1I01;Rua ANTONIO EGIDIO MARTINS IMBITUBA VILA NOVA  ALVORADA 88780000 SC 223;IMBITUBA;-28.217845400;-48.673406500;G0;SCIMA-I01SP11;SCIMA-I01SP11-SS3;IMA_I01_1_GPON_VLAN_100_101_102-ALC;1/1/1/8
EQP0000000011991084;I01G0084;CTO - OPTAP;SCIMA_G1I01;Rua ANTONIO EGIDIO MARTINS IMBITUBA VILA NOVA  ALVORADA 88780000 SC 223;IMBITUBA;-28.217845400;-48.673406500;G0;SCIMA-I01SP11;SCIMA-I01SP11-SS4;IMA_I01_1_GPON_VLAN_100_101_102-ALC;1/1/1/8
EQP0000000011991210;I01G01616;CTO - OPTAP;SCIMA_G1I01;RUA ASCENDINO HERMINO JOAQUIM IMBITUBA VILA NOVA 88780000 SC 277;IMBITUBA;-28.265647000;-48.700271900;G0;SCIMA-I01SP202;SCIMA-I01SP202-SS8;IMA_I01_1_GPON_VLAN_100_101_102-ALC;1/1/7/6
EQP0000000011991210;I01G01616;CTO - OPTAP;SCIMA_G1I01;RUA ASCENDINO HERMINO JOAQUIM IMBITUBA VILA NOVA 88780000 SC 277;IMBITUBA;-28.265647000;-48.700271900;G0;SCIMA-I01SP202;SCIMA-I01SP202-SS7;IMA_I01_1_GPON_VLAN_100_101_102-ALC;1/1/7/6
EQP0000000012009712;I01G0838;CTO - OPTAP;SCIMA_G1I01;RUA NOSSA SENHORA IMACULADA CONCEICAO IMBITUBA CENTRO 88780000 SC SN;IMBITUBA;-28.241588600;-48.664722800;G0;SCIMA-I01SP105;SCIMA-I01SP105-SS6;IMA_I01_1_GPON_VLAN_100_101_102-ALC;1/1/4/13
EQP0000000012009712;I01G0838;CTO - OPTAP;SCIMA_G1I01;RUA NOSSA SENHORA IMACULADA CONCEICAO IMBITUBA CENTRO 88780000 SC SN;IMBITUBA;-28.241588600;-48.664722800;G0;SCIMA-I01SP105;SCIMA-I01SP105-SS5;IMA_I01_1_GPON_VLAN_100_101_102-ALC;1/1/4/13
EQP0000000011991060;I01G0262;CTO - OPTAP;SCIMA_G1I01;RUA VALDEMAR NUNES IMBITUBA   88780000 SC 329;IMBITUBA;-28.219948800;-48.671647600;G0;SCIMA-I01SP33;SCIMA-I01SP33-SS6;IMA_I01_1_GPON_VLAN_100_101_102-ALC;1/1/2/1
EQP0000000011991060;I01G0262;CTO - OPTAP;SCIMA_G1I01;RUA VALDEMAR NUNES IMBITUBA   88780000 SC 329;IMBITUBA;-28.219948800;-48.671647600;G0;SCIMA-I01SP33;SCIMA-I01SP33-SS5;IMA_I01_1_GPON_VLAN_100_101_102-ALC;1/1/2/1
EQP0000000011990806;I01G01532;CTO - OPTAP;SCIMA_G1I01;AVENIDA RENATO RAMOS DA SILVA IMBITUBA VILA NOVA 88780000 SC 3445;IMBITUBA;-28.265378400;-48.695246200;G0;SCIMA-I01SP192;SCIMA-I01SP192-SS4;IMA_I01_1_GPON_VLAN_100_101_102-ALC;1/1/6/16
EQP0000000011991125;I01G0024;CTO - OPTAP;SCIMA_G1I01;RUA ARITIANO GONCALVES IMBITUBA   88780000 SC 324;IMBITUBA;-28.215115100;-48.673365400;G0;SCIMA-I01SP3;SCIMA-I01SP3-SS7;IMA_I01_1_GPON_VLAN_100_101_102-ALC;1/1/1/3
EQP0000000011991125;I01G0024;CTO - OPTAP;SCIMA_G1I01;RUA ARITIANO GONCALVES IMBITUBA   88780000 SC 324;IMBITUBA;-28.215115100;-48.673365400;G0;SCIMA-I01SP3;SCIMA-I01SP3-SS8;IMA_I01_1_GPON_VLAN_100_101_102-ALC;1/1/1/3
EQP0000000011991107;I01G0364;CTO - OPTAP;SCIMA_G1I01;RUA PAULO FERREIRA DA SILVA IMBITUBA VILLAGE 88780000 SC 71;IMBITUBA;-28.227885900;-48.670379400;G0;SCIMA-I01SP46;SCIMA-I01SP46-SS4;IMA_I01_1_GPON_VLAN_100_101_102-ALC;1/1/2/6
EQP0000000011991142;I01G01804;CTO - OPTAP;SCIMA_G1I01;RUA SANTA CATARINA IMBITUBA PAES LEME 88780000 SC 1894;IMBITUBA;-28.247348600;-48.676451300;G0;SCIMA-I01SP226;SCIMA-I01SP226-SS3;IMA_I01_1_GPON_VLAN_100_101_102-ALC;1/1/8/3
EQP0000000011991142;I01G01804;CTO - OPTAP;SCIMA_G1I01;RUA SANTA CATARINA IMBITUBA PAES LEME 88780000 SC 1894;IMBITUBA;-28.247348600;-48.676451300;G0;SCIMA-I01SP226;SCIMA-I01SP226-SS4;IMA_I01_1_GPON_VLAN_100_101_102-ALC;1/1/8/3
EQP0000000011990767;I01G01704;CTO - OPTAP;SCIMA_G1I01;RUA PEDRO PAULO PIRES IMBITUBA VILA SANTO ANTONIO 88780000 SC 144;IMBITUBA;-28.262626600;-48.690793800;G0;SCIMA-I01SP213;SCIMA-I01SP213-SS8;IMA_I01_1_GPON_VLAN_100_101_102-ALC;1/1/7/11
EQP0000000012009837;I01G0258;CTO - OPTAP;SCIMA_G1I01;RUA ADELINO FRANCISCO PEREIRA IMBITUBA   88780000 SC 60;IMBITUBA;-28.218965100;-48.672417000;G0;SCIMA-I01SP33;SCIMA-I01SP33-SS2;IMA_I01_1_GPON_VLAN_100_101_102-ALC;1/1/2/1
EQP0000000012009837;I01G0258;CTO - OPTAP;SCIMA_G1I01;RUA ADELINO FRANCISCO PEREIRA IMBITUBA   88780000 SC 60;IMBITUBA;-28.218965100;-48.672417000;G0;SCIMA-I01SP33;SCIMA-I01SP33-SS1;IMA_I01_1_GPON_VLAN_100_101_102-ALC;1/1/2/1
EQP0000000011991106;I01G0365;CTO - OPTAP;SCIMA_G1I01;RUA HARLEY AMADEI SILVA IMBITUBA VILLAGE 88780000 SC 147;IMBITUBA;-28.228131100;-48.671210500;G0;SCIMA-I01SP46;SCIMA-I01SP46-SS5;IMA_I01_1_GPON_VLAN_100_101_102-ALC;1/1/2/6
EQP0000000011991049;I01G0272;CTO - OPTAP;SCIMA_G1I01;RUA DUQUE DE CAXIAS IMBITUBA CENTRO 88780000 SC 395;IMBITUBA;-28.234903400;-48.664830800;G0;SCIMA-I01SP34;SCIMA-I01SP34-SS8;IMA_I01_1_GPON_VLAN_100_101_102-ALC;1/1/2/2
EQP0000000011990863;I01G01287;CTO - OPTAP;SCIMA_G1I01;RUA BENITO RUIZ IMBITUBA VILA NOVA 88780000 SC 278;IMBITUBA;-28.267479700;-48.687611500;G0;SCIMA-I01SP161;SCIMA-I01SP161-SS7;IMA_I01_1_GPON_VLAN_100_101_102-ALC;1/1/6/1
EQP0000000011991028;I01G0502;CTO - OPTAP;SCIMA_G1I01;RUA MARIO LUIZ FERNANDES IMBITUBA VILLAGE 88780000 SC 235;IMBITUBA;-28.232324900;-48.674062600;G0;SCIMA-I01SP63;SCIMA-I01SP63-SS6;IMA_I01_1_GPON_VLAN_100_101_102-ALC;1/1/3/4
EQP0000000012009836;I01G0277;CTO - OPTAP;SCIMA_G1I01;RUA TRES DE OUTUBRO IMBITUBA CENTRO 88780000 SC 307;IMBITUBA;-28.235820100;-48.666211800;G0;SCIMA-I01SP35;SCIMA-I01SP35-SS5;IMA_I01_1_GPON_VLAN_100_101_102-ALC;1/1/2/3
EQP0000000011990722;I01G01842;CTO - OPTAP;SCIMA_G1I01;RUA NEREU RAMOS IMBITUBA CENTRO 88780000 SC 857;IMBITUBA;-28.241339500;-48.669370700;G0;SCIMA-I01SP231;SCIMA-I01SP231-SS2;IMA_I01_1_GPON_VLAN_100_101_102-ALC;1/1/8/8
EQP0000000011990722;I01G01842;CTO - OPTAP;SCIMA_G1I01;RUA NEREU RAMOS IMBITUBA CENTRO 88780000 SC 857;IMBITUBA;-28.241339500;-48.669370700;G0;SCIMA-I01SP231;SCIMA-I01SP231-SS1;IMA_I01_1_GPON_VLAN_100_101_102-ALC;1/1/8/8
EQP0000000012009702;I01G01276;CTO - OPTAP;SCIMA_G1I01;RUA OLAVO BILAC IMBITUBA VILA NOVA 88780000 SC 264;IMBITUBA;-28.265924000;-48.686190600;G0;SCIMA-I01SP160;SCIMA-I01SP160-SS4;IMA_I01_1_GPON_VLAN_100_101_102-ALC;1/1/5/16
EQP0000000011991074;I01G0361;CTO - OPTAP;SCIMA_G1I01;RUA SADY HERCULANO DA ROSA IMBITUBA VILLAGE 88780000 SC 150;IMBITUBA;-28.225901200;-48.671679400;G0;SCIMA-I01SP46;SCIMA-I01SP46-SS1;IMA_I01_1_GPON_VLAN_100_101_102-ALC;1/1/2/6
EQP0000000011990745;I01G01692;CTO - OPTAP;SCIMA_G1I01;AVENIDA RENATO RAMOS DA SILVA IMBITUBA VILA NOVA 88780000 SC 1942;IMBITUBA;-28.255746200;-48.684256200;G0;SCIMA-I01SP212;SCIMA-I01SP212-SS4;IMA_I01_1_GPON_VLAN_100_101_102-ALC;1/1/7/10
EQP0000000011990931;I01G0822;CTO - OPTAP;SCIMA_G1I01;AVENIDA DOUTOR JOAO RIMSA IMBITUBA CENTRO 88780000 SC 170;IMBITUBA;-28.238079700;-48.662795300;G0;SCIMA-I01SP103;SCIMA-I01SP103-SS6;IMA_I01_1_GPON_VLAN_100_101_102-ALC;1/1/4/11
EQP0000000012001385;I01G01416;CTO - OPTAP;SCIMA_G1I01;RUA SANTANA IMBITUBA VILA NOVA 88780000 SC 528;IMBITUBA;-28.261491300;-48.687300800;G0;SCIMA-I01SP177;SCIMA-I01SP177-SS8;IMA_I01_1_GPON_VLAN_100_101_102-ALC;1/1/6/7
EQP0000000012001385;I01G01416;CTO - OPTAP;SCIMA_G1I01;RUA SANTANA IMBITUBA VILA NOVA 88780000 SC 528;IMBITUBA;-28.261491300;-48.687300800;G0;SCIMA-I01SP177;SCIMA-I01SP177-SS7;IMA_I01_1_GPON_VLAN_100_101_102-ALC;1/1/6/7
EQP0000000011990755;I01G01453;CTO - OPTAP;SCIMA_G1I01;RUA ALZEMIRO AVELINO IMBITUBA PORTO DA VILA 88780000 SC 449;IMBITUBA;-28.266710700;-48.705558200;G0;SCIMA-I01SP182;SCIMA-I01SP182-SS5;IMA_I01_1_GPON_VLAN_100_101_102-ALC;1/1/6/12
EQP0000000193337025;I01G0813;CTO SPLITTER 1 8;SCIMA_G1I01;RUA GENERAL OSORIO IMBITUBA PAES LEME 88780000 SC 177;IMBITUBA;-28.241768300;-48.673263300;G0;SCIMA-I01SP102;SCIMA-I01SP102-SS5;IMA_I01_1_GPON_VLAN_100_101_102-ALC;1/1/8/13
EQP0000000011990959;I01G0564;CTO - OPTAP;SCIMA_G1I01;AVENIDA SANTA CATARINA IMBITUBA CENTRO 88780000 SC 287;IMBITUBA;-28.237483100;-48.664993700;G0;SCIMA-I01SP71;SCIMA-I01SP71-SS3;IMA_I01_1_GPON_VLAN_100_101_102-ALC;1/1/3/12
EQP0000000011990959;I01G0564;CTO - OPTAP;SCIMA_G1I01;AVENIDA SANTA CATARINA IMBITUBA CENTRO 88780000 SC 287;IMBITUBA;-28.237483100;-48.664993700;G0;SCIMA-I01SP71;SCIMA-I01SP71-SS4;IMA_I01_1_GPON_VLAN_100_101_102-ALC;1/1/3/12
EQP0000000011991032;I01G0536;CTO - OPTAP;SCIMA_G1I01;RUA TRES DE OUTUBRO IMBITUBA CENTRO 88780000 SC 1053;IMBITUBA;-28.240032900;-48.673072200;G0;SCIMA-I01SP67;SCIMA-I01SP67-SS8;IMA_I01_1_GPON_VLAN_100_101_102-ALC;1/1/3/8
EQP0000000011990864;I01G01286;CTO - OPTAP;SCIMA_G1I01;RUA MARIA CECILIA DA ROSA IMBITUBA VILA NOVA 88780000 SC 285;IMBITUBA;-28.268194200;-48.687924300;G0;SCIMA-I01SP161;SCIMA-I01SP161-SS6;IMA_I01_1_GPON_VLAN_100_101_102-ALC;1/1/6/1
EQP0000000011990839;I01G01170;CTO - OPTAP;SCIMA_G1I01;RUA JOVINO THOME SOARES IMBITUBA   88780000 SC 222;IMBITUBA;-28.276789400;-48.697146700;G0;SCIMA-I01SP147;SCIMA-I01SP147-SS2;IMA_I01_1_GPON_VLAN_100_101_102-ALC;1/1/5/7
EQP0000000011990839;I01G01170;CTO - OPTAP;SCIMA_G1I01;RUA JOVINO THOME SOARES IMBITUBA   88780000 SC 222;IMBITUBA;-28.276789400;-48.697146700;G0;SCIMA-I01SP147;SCIMA-I01SP147-SS1;IMA_I01_1_GPON_VLAN_100_101_102-ALC;1/1/5/7
EQP0000000012009371;I01GP420;TO;SCIMA_G1I01;RUA MANOEL FORTUNATO IMBITUBA VILLAGE 88780000 SC 92;IMBITUBA;-28.230306700;-48.671562000;GP;SCIMA-I01SP53;SCIMA-I01SP53-SS4;IMA_I01_1_GPON_VLAN_100_101_102-ALC;1/1/2/11
EQP0000000011990809;I01G01533;CTO - OPTAP;SCIMA_G1I01;RUA PALHOCA IMBITUBA VILA NOVA 88780000 SC 87;IMBITUBA;-28.264540600;-48.694389900;G0;SCIMA-I01SP192;SCIMA-I01SP192-SS5;IMA_I01_1_GPON_VLAN_100_101_102-ALC;1/1/6/16
EQP0000000011990902;I01G0753;CTO - OPTAP;SCIMA_G1I01;AVENIDA PRESIDENTE VARGAS IMBITUBA CENTRO 88780000 SC 691;IMBITUBA;-28.244909500;-48.666929100;G0;SCIMA-I01SP95;SCIMA-I01SP95-SS1;IMA_I01_1_GPON_VLAN_100_101_102-ALC;1/1/4/9
EQP0000000011990950;I01GP539;TO;SCIMA_G1I01;RUA ERNANI COTRIN IMBITUBA CENTRO 88780000 SC 377;IMBITUBA;-28.239314600;-48.670458600;GP;SCIMA-I01SP68;SCIMA-I01SP68-SS3;IMA_I01_1_GPON_VLAN_100_101_102-ALC;1/1/3/9
EQP0000000011990737;I01G01511;CTO - OPTAP;SCIMA_G1I01;RUA LAERCIO RAMOS MEDEIROS IMBITUBA VILA NOVA 88780000 SC SN;IMBITUBA;-28.266224400;-48.701181800;G0;SCIMA-I01SP189;SCIMA-I01SP189-SS7;IMA_I01_1_GPON_VLAN_100_101_102-ALC;1/1/6/13
EQP0000000011991073;I01G0362;CTO - OPTAP;SCIMA_G1I01;RUA GINA CYRELLI E SILVA IMBITUBA VILLAGE 88780000 SC 234;IMBITUBA;-28.226639600;-48.671510300;G0;SCIMA-I01SP46;SCIMA-I01SP46-SS2;IMA_I01_1_GPON_VLAN_100_101_102-ALC;1/1/2/6
EQP0000000011991061;I01G0264;CTO - OPTAP;SCIMA_G1I01;RUA JOAO DE OLIVEIRA IMBITUBA   88780000 SC 813;IMBITUBA;-28.220146500;-48.670916400;G0;SCIMA-I01SP33;SCIMA-I01SP33-SS8;IMA_I01_1_GPON_VLAN_100_101_102-ALC;1/1/2/1
EQP0000000011991061;I01G0264;CTO - OPTAP;SCIMA_G1I01;RUA JOAO DE OLIVEIRA IMBITUBA   88780000 SC 813;IMBITUBA;-28.220146500;-48.670916400;G0;SCIMA-I01SP33;SCIMA-I01SP33-SS7;IMA_I01_1_GPON_VLAN_100_101_102-ALC;1/1/2/1
EQP0000000011990827;I01G01274;CTO - OPTAP;SCIMA_G1I01;RUA HANS DIETER SCHMIDT IMBITUBA VILA NOVA 88780000 SC 65;IMBITUBA;-28.265423200;-48.684430200;G0;SCIMA-I01SP160;SCIMA-I01SP160-SS2;IMA_I01_1_GPON_VLAN_100_101_102-ALC;1/1/5/16
EQP0000000193401852;I01G0967;CTO SPLITTER 1 8;SCIMA_G1I01;RUA TRES DE OUTUBRO IMBITUBA CENTRO 88780000 SC 497;IMBITUBA;-28.236910300;-48.667890600;G0;SCIMA-I01SP121;SCIMA-I01SP121-SS7;IMA_I01_1_GPON_VLAN_100_101_102-ALC;1/1/8/14
EQP0000000012009704;I01G01176;CTO - OPTAP;SCIMA_G1I01;RUA OTAVIO FRANCISCO PIRES IMBITUBA CAMPO D AVIACAO 88780000 SC 60;IMBITUBA;-28.275593300;-48.695862800;G0;SCIMA-I01SP147;SCIMA-I01SP147-SS8;IMA_I01_1_GPON_VLAN_100_101_102-ALC;1/1/5/7
EQP0000000012009704;I01G01176;CTO - OPTAP;SCIMA_G1I01;RUA OTAVIO FRANCISCO PIRES IMBITUBA CAMPO D AVIACAO 88780000 SC 60;IMBITUBA;-28.275593300;-48.695862800;G0;SCIMA-I01SP147;SCIMA-I01SP147-SS7;IMA_I01_1_GPON_VLAN_100_101_102-ALC;1/1/5/7
EQP0000000011990816;I01G01536;CTO - OPTAP;SCIMA_G1I01;RUA EXPEDICIONARIO IMBITUBA VILA NOVA 88780000 SC 377;IMBITUBA;-28.264678800;-48.695330800;G0;SCIMA-I01SP192;SCIMA-I01SP192-SS8;IMA_I01_1_GPON_VLAN_100_101_102-ALC;1/1/6/16
EQP0000000012003623;I01GP1396;TO;SCIMA_G1I01;RUA PIRES SILVEIRA IMBITUBA VILA NOVA 88780000 SC 292;IMBITUBA;-28.262782800;-48.684448900;GP;SCIMA-I01SP175;SCIMA-I01SP175-SS4;IMA_I01_1_GPON_VLAN_100_101_102-ALC;1/1/6/5
EQP0000000193337955;I01G01680;CTO SPLITTER 1 8;SCIMA_G1I01;RUA PEDRO INACIO PACHECO IMBITUBA VILA SANTO ANTONIO 88780000 SC 679;IMBITUBA;-28.259171800;-48.694531600;G0;SCIMA-I01SP210;SCIMA-I01SP210-SS8;IMA_I01_1_GPON_VLAN_100_101_102-ALC;1/1/3/10
EQP0000000011990932;I01G0823;CTO - OPTAP;SCIMA_G1I01;AVENIDA DOUTOR JOAO RIMSA IMBITUBA CENTRO 88780000 SC 490;IMBITUBA;-28.239724300;-48.665383200;G0;SCIMA-I01SP103;SCIMA-I01SP103-SS7;IMA_I01_1_GPON_VLAN_100_101_102-ALC;1/1/4/11
EQP0000000011991094;I01G0376;CTO - OPTAP;SCIMA_G1I01;RUA HARLEY AMADEI SILVA IMBITUBA VILLAGE 88780000 SC 327;IMBITUBA;-28.227437100;-48.672944800;G0;SCIMA-I01SP47;SCIMA-I01SP47-SS8;IMA_I01_1_GPON_VLAN_100_101_102-ALC;1/1/2/7
EQP0000000011990895;I01GP857;TO;SCIMA_G1I01;AVENIDA SANTA CATARINA IMBITUBA CENTRO 88780000 SC 649;IMBITUBA;-28.239298100;-48.667909700;GP;SCIMA-I01SP108;SCIMA-I01SP108-SS1;IMA_I01_1_GPON_VLAN_100_101_102-ALC;1/1/4/16
EQP0000000011990844;I01GP958;TO;SCIMA_G1I01;RUA ERNANI COTRIN IMBITUBA CENTRO 88780000 SC 209;IMBITUBA;-28.240260900;-48.669221000;GP;SCIMA-I01SP120;SCIMA-I01SP120-SS6;IMA_I01_1_GPON_VLAN_100_101_102-ALC;1/1/5/4
EQP0000000011990899;I01GP738;TO;SCIMA_G1I01;RUA VISCONDE DE BARBACENA IMBITUBA CENTRO 88780000 SC 303;IMBITUBA;-28.242209600;-48.661818000;GP;SCIMA-I01SP93;SCIMA-I01SP93-SS2;IMA_I01_1_GPON_VLAN_100_101_102-ALC;1/1/4/7
EQP0000000011991048;I01G0271;CTO - OPTAP;SCIMA_G1I01;RUA TRES DE OUTUBRO IMBITUBA CENTRO 88780000 SC 96;IMBITUBA;-28.234331800;-48.664551000;G0;SCIMA-I01SP34;SCIMA-I01SP34-SS7;IMA_I01_1_GPON_VLAN_100_101_102-ALC;1/1/2/2
EQP0000000011990891;I01G0844;CTO - OPTAP;SCIMA_G1I01;RUA NEREU RAMOS IMBITUBA CENTRO 88780000 SC 154;IMBITUBA;-28.237478500;-48.663758900;G0;SCIMA-I01SP106;SCIMA-I01SP106-SS4;IMA_I01_1_GPON_VLAN_100_101_102-ALC;1/1/4/14
EQP0000000011990891;I01G0844;CTO - OPTAP;SCIMA_G1I01;RUA NEREU RAMOS IMBITUBA CENTRO 88780000 SC 154;IMBITUBA;-28.237478500;-48.663758900;G0;SCIMA-I01SP106;SCIMA-I01SP106-SS3;IMA_I01_1_GPON_VLAN_100_101_102-ALC;1/1/4/14
EQP0000000011991022;I01G0444;CTO - OPTAP;SCIMA_G1I01;RUA JOSE CORREA IMBITUBA VILLAGE 88780000 SC 131;IMBITUBA;-28.229850400;-48.671849400;G0;SCIMA-I01SP56;SCIMA-I01SP56-SS4;IMA_I01_1_GPON_VLAN_100_101_102-ALC;1/1/2/14
EQP0000000011990957;I01GP538;TO;SCIMA_G1I01;RUA OTACILIO DE CARVALHO IMBITUBA CENTRO 88780000 SC 816;IMBITUBA;-28.239352900;-48.670387700;GP;SCIMA-I01SP68;SCIMA-I01SP68-SS2;IMA_I01_1_GPON_VLAN_100_101_102-ALC;1/1/3/9
EQP0000000011990749;I01G01516;CTO - OPTAP;SCIMA_G1I01;RUA AMAZONAS IMBITUBA VILA SANTO ANTONIO 88780000 SC 372;IMBITUBA;-28.262224400;-48.700576500;G0;SCIMA-I01SP190;SCIMA-I01SP190-SS3;IMA_I01_1_GPON_VLAN_100_101_102-ALC;1/1/6/14
EQP0000000011990749;I01G01516;CTO - OPTAP;SCIMA_G1I01;RUA AMAZONAS IMBITUBA VILA SANTO ANTONIO 88780000 SC 372;IMBITUBA;-28.262224400;-48.700576500;G0;SCIMA-I01SP190;SCIMA-I01SP190-SS4;IMA_I01_1_GPON_VLAN_100_101_102-ALC;1/1/6/14
EQP0000000012009855;I01G01614;CTO - OPTAP;SCIMA_G1I01;AVENIDA RENATO RAMOS DA SILVA IMBITUBA VILA NOVA 88780000 SC 4000;IMBITUBA;-28.266856200;-48.697770800;G0;SCIMA-I01SP202;SCIMA-I01SP202-SS5;IMA_I01_1_GPON_VLAN_100_101_102-ALC;1/1/7/6
EQP0000000012009855;I01G01614;CTO - OPTAP;SCIMA_G1I01;AVENIDA RENATO RAMOS DA SILVA IMBITUBA VILA NOVA 88780000 SC 4000;IMBITUBA;-28.266856200;-48.697770800;G0;SCIMA-I01SP202;SCIMA-I01SP202-SS6;IMA_I01_1_GPON_VLAN_100_101_102-ALC;1/1/7/6
EQP0000000012001379;I01GP467;TO;SCIMA_G1I01;RUA MARIO LUIZ FERNANDES IMBITUBA VILLAGE 88780000 SC SN;IMBITUBA;-28.232183600;-48.675319600;GP;SCIMA-I01SP59;SCIMA-I01SP59-SS3;IMA_I01_1_GPON_VLAN_100_101_102-ALC;1/1/3/1
EQP0000000011990831;I01G01154;CTO - OPTAP;SCIMA_G1I01;RUA SANTANA IMBITUBA CAMPO D AVIACAO 88780000 SC 2122;IMBITUBA;-28.272666600;-48.694673900;G0;SCIMA-I01SP145;SCIMA-I01SP145-SS1;IMA_I01_1_GPON_VLAN_100_101_102-ALC;1/1/5/5
EQP0000000011990831;I01G01154;CTO - OPTAP;SCIMA_G1I01;RUA SANTANA IMBITUBA CAMPO D AVIACAO 88780000 SC 2122;IMBITUBA;-28.272666600;-48.694673900;G0;SCIMA-I01SP145;SCIMA-I01SP145-SS2;IMA_I01_1_GPON_VLAN_100_101_102-ALC;1/1/5/5
EQP0000000011991003;I01G0494;CTO - OPTAP;SCIMA_G1I01;RUA ADELFO PAMATO IMBITUBA CENTRO 88780000 SC 660;IMBITUBA;-28.235692300;-48.672561200;G0;SCIMA-I01SP62;SCIMA-I01SP62-SS6;IMA_I01_1_GPON_VLAN_100_101_102-ALC;1/1/3/3
EQP0000000012009711;I01G0824;CTO - OPTAP;SCIMA_G1I01;AVENIDA DOUTOR JOAO RIMSA IMBITUBA CENTRO 88780000 SC 444;IMBITUBA;-28.239694000;-48.664880500;G0;SCIMA-I01SP103;SCIMA-I01SP103-SS8;IMA_I01_1_GPON_VLAN_100_101_102-ALC;1/1/4/11
EQP0000000011991059;I01G0260;CTO - OPTAP;SCIMA_G1I01;RUA ROMEU PIRES IMBITUBA   88780000 SC 19;IMBITUBA;-28.219073400;-48.671774100;G0;SCIMA-I01SP33;SCIMA-I01SP33-SS3;IMA_I01_1_GPON_VLAN_100_101_102-ALC;1/1/2/1
EQP0000000011991059;I01G0260;CTO - OPTAP;SCIMA_G1I01;RUA ROMEU PIRES IMBITUBA   88780000 SC 19;IMBITUBA;-28.219073400;-48.671774100;G0;SCIMA-I01SP33;SCIMA-I01SP33-SS4;IMA_I01_1_GPON_VLAN_100_101_102-ALC;1/1/2/1
EQP0000000011990742;I01G01696;CTO - OPTAP;SCIMA_G1I01;AVENIDA RENATO RAMOS DA SILVA IMBITUBA VILA NOVA 88780000 SC 2745;IMBITUBA;-28.261232700;-48.689198500;G0;SCIMA-I01SP212;SCIMA-I01SP212-SS8;IMA_I01_1_GPON_VLAN_100_101_102-ALC;1/1/7/10
EQP0000000011990999;I01GP401;TO;SCIMA_G1I01;RUA ALDO PITIGLIANI IMBITUBA VILLAGE 88780000 SC 28;IMBITUBA;-28.229459100;-48.670607300;GP;SCIMA-I01SP51;SCIMA-I01SP51-SS1;IMA_I01_1_GPON_VLAN_100_101_102-ALC;1/1/2/9
EQP0000000011991047;I01G0270;CTO - OPTAP;SCIMA_G1I01;RUA TRES DE OUTUBRO IMBITUBA CENTRO 88780000 SC 96;IMBITUBA;-28.233443400;-48.664702100;G0;SCIMA-I01SP34;SCIMA-I01SP34-SS6;IMA_I01_1_GPON_VLAN_100_101_102-ALC;1/1/2/2
EQP0000000011990796;I01G01392;CTO - OPTAP;SCIMA_G1I01;RUA ELOI GARCIA IMBITUBA VILA NOVA 88780000 SC SN;IMBITUBA;-28.262932500;-48.686251400;G0;SCIMA-I01SP174;SCIMA-I01SP174-SS7;IMA_I01_1_GPON_VLAN_100_101_102-ALC;1/1/6/4
EQP0000000011990796;I01G01392;CTO - OPTAP;SCIMA_G1I01;RUA ELOI GARCIA IMBITUBA VILA NOVA 88780000 SC SN;IMBITUBA;-28.262932500;-48.686251400;G0;SCIMA-I01SP174;SCIMA-I01SP174-SS8;IMA_I01_1_GPON_VLAN_100_101_102-ALC;1/1/6/4
EQP0000000011991167;I01GP1706;TO;SCIMA_G1I01;RUA VILMAR GOULART PEREIRA IMBITUBA PAES LEME 88780000 SC 112;IMBITUBA;-28.244677900;-48.677627600;GP;SCIMA-I01SP214;SCIMA-I01SP214-SS2;IMA_I01_1_GPON_VLAN_100_101_102-ALC;1/1/7/12
EQP0000000011990974;I01GP460;TO;SCIMA_G1I01;RUA MARIO LUIZ FERNANDES IMBITUBA VILLAGE 88780000 SC 127;IMBITUBA;-28.232705000;-48.673487900;GP;SCIMA-I01SP58;SCIMA-I01SP58-SS4;IMA_I01_1_GPON_VLAN_100_101_102-ALC;1/1/2/16
EQP0000000011990930;I01G0821;CTO - OPTAP;SCIMA_G1I01;RUA QUINTINO BOCAIUVA IMBITUBA CENTRO 88780000 SC 370;IMBITUBA;-28.238445100;-48.662935600;G0;SCIMA-I01SP103;SCIMA-I01SP103-SS5;IMA_I01_1_GPON_VLAN_100_101_102-ALC;1/1/4/11
EQP0000000193377271;I01G0060;CTO SPLITTER 1 8;SCIMA_G1I01;RUA HERCILIO NUNES IMBITUBA   88780000 SC 175;IMBITUBA;-28.216092200;-48.674063000;G0;SCIMA-I01SP8;SCIMA-I01SP8-SS4;IMA_I01_1_GPON_VLAN_100_101_102-ALC;1/1/1/5
EQP0000000011991041;I01G0190;CTO - OPTAP;SCIMA_G1I01;RUA ITAGIBA IMBITUBA VILA ALVORADA 88780000 SC 986;IMBITUBA;-28.222361800;-48.670735800;G0;SCIMA-I01SP24;SCIMA-I01SP24-SS6;IMA_I01_1_GPON_VLAN_100_101_102-ALC;1/1/1/15
EQP0000000011991041;I01G0190;CTO - OPTAP;SCIMA_G1I01;RUA ITAGIBA IMBITUBA VILA ALVORADA 88780000 SC 986;IMBITUBA;-28.222361800;-48.670735800;G0;SCIMA-I01SP24;SCIMA-I01SP24-SS5;IMA_I01_1_GPON_VLAN_100_101_102-ALC;1/1/1/15
EQP0000000011991206;I01G01848;CTO - OPTAP;SCIMA_G1I01;RUA NEREU RAMOS IMBITUBA CENTRO 88780000 SC 886;IMBITUBA;-28.241340400;-48.669742900;G0;SCIMA-I01SP231;SCIMA-I01SP231-SS8;IMA_I01_1_GPON_VLAN_100_101_102-ALC;1/1/8/8
EQP0000000011991206;I01G01848;CTO - OPTAP;SCIMA_G1I01;RUA NEREU RAMOS IMBITUBA CENTRO 88780000 SC 886;IMBITUBA;-28.241340400;-48.669742900;G0;SCIMA-I01SP231;SCIMA-I01SP231-SS7;IMA_I01_1_GPON_VLAN_100_101_102-ALC;1/1/8/8
EQP0000000011990994;I01G0525;CTO - OPTAP;SCIMA_G1I01;RUA AYRTON SENNA IMBITUBA CENTRO 88780000 SC 476;IMBITUBA;-28.235633200;-48.671106400;G0;SCIMA-I01SP66;SCIMA-I01SP66-SS5;IMA_I01_1_GPON_VLAN_100_101_102-ALC;1/1/3/7
EQP0000000012009709;I01G0756;CTO - OPTAP;SCIMA_G1I01;RUA ORDOMIRO FERREIRA IMBITUBA CENTRO 88780000 SC 110;IMBITUBA;-28.245532200;-48.666778300;G0;SCIMA-I01SP95;SCIMA-I01SP95-SS4;IMA_I01_1_GPON_VLAN_100_101_102-ALC;1/1/4/9
EQP0000000012009854;I01G01566;CTO - OPTAP;SCIMA_G1I01;RUA EXPEDICIONARIO IMBITUBA SAGRADA FAMILIA 88780000 SC 415;IMBITUBA;-28.266324200;-48.692821600;G0;SCIMA-I01SP196;SCIMA-I01SP196-SS6;IMA_I01_1_GPON_VLAN_100_101_102-ALC;1/1/7/4
EQP0000000012009854;I01G01566;CTO - OPTAP;SCIMA_G1I01;RUA EXPEDICIONARIO IMBITUBA SAGRADA FAMILIA 88780000 SC 415;IMBITUBA;-28.266324200;-48.692821600;G0;SCIMA-I01SP196;SCIMA-I01SP196-SS5;IMA_I01_1_GPON_VLAN_100_101_102-ALC;1/1/7/4
EQP0000000012009843;I01G0370;CTO - OPTAP;SCIMA_G1I01;RUA VEREADOR MAURINO MENDONCA IMBITUBA RIBANCEIRA 88780000 SC SN;IMBITUBA;-28.223213800;-48.674933900;G0;SCIMA-I01SP47;SCIMA-I01SP47-SS2;IMA_I01_1_GPON_VLAN_100_101_102-ALC;1/1/2/7
EQP0000000011991000;I01G0446;CTO - OPTAP;SCIMA_G1I01;RUA ERNANI COTRIN IMBITUBA VILLAGE 88780000 SC 33;IMBITUBA;-28.229866600;-48.673173300;G0;SCIMA-I01SP56;SCIMA-I01SP56-SS6;IMA_I01_1_GPON_VLAN_100_101_102-ALC;1/1/2/14
EQP0000000011991037;I01G0275;CTO - OPTAP;SCIMA_G1I01;AVENIDA SANTA CATARINA IMBITUBA CENTRO 88780000 SC 164;IMBITUBA;-28.236573600;-48.663980800;G0;SCIMA-I01SP35;SCIMA-I01SP35-SS3;IMA_I01_1_GPON_VLAN_100_101_102-ALC;1/1/2/3
EQP0000000011991081;I01G0078;CTO - OPTAP;SCIMA_G1I01;RUA ELZA MARIA PEREIRA PITTIGLIANI IMBITUBA   88780000 SC 92;IMBITUBA;-28.214550300;-48.671216700;G0;SCIMA-I01SP10;SCIMA-I01SP10-SS6;IMA_I01_1_GPON_VLAN_100_101_102-ALC;1/1/1/7
EQP0000000011991081;I01G0078;CTO - OPTAP;SCIMA_G1I01;RUA ELZA MARIA PEREIRA PITTIGLIANI IMBITUBA   88780000 SC 92;IMBITUBA;-28.214550300;-48.671216700;G0;SCIMA-I01SP10;SCIMA-I01SP10-SS5;IMA_I01_1_GPON_VLAN_100_101_102-ALC;1/1/1/7
EQP0000000012008151;I01GP1394;TO;SCIMA_G1I01;RUA PIRES SILVEIRA IMBITUBA VILA NOVA 88780000 SC 292;IMBITUBA;-28.262953900;-48.684342600;GP;SCIMA-I01SP175;SCIMA-I01SP175-SS2;IMA_I01_1_GPON_VLAN_100_101_102-ALC;1/1/6/5
EQP0000000011990735;I01G01509;CTO - OPTAP;SCIMA_G1I01;RUA PAULO MEDEIROS IMBITUBA VILA SANTO ANTONIO 88780000 SC 70;IMBITUBA;-28.263361800;-48.701033700;G0;SCIMA-I01SP189;SCIMA-I01SP189-SS5;IMA_I01_1_GPON_VLAN_100_101_102-ALC;1/1/6/13
EQP0000000011990837;I01G01164;CTO - OPTAP;SCIMA_G1I01;RUA PROFESSOR ROGERIO TAVARES IMBITUBA SAGRADA FAMILIA 88780000 SC 372;IMBITUBA;-28.276447300;-48.698595400;G0;SCIMA-I01SP146;SCIMA-I01SP146-SS4;IMA_I01_1_GPON_VLAN_100_101_102-ALC;1/1/5/6
EQP0000000011990837;I01G01164;CTO - OPTAP;SCIMA_G1I01;RUA PROFESSOR ROGERIO TAVARES IMBITUBA SAGRADA FAMILIA 88780000 SC 372;IMBITUBA;-28.276447300;-48.698595400;G0;SCIMA-I01SP146;SCIMA-I01SP146-SS3;IMA_I01_1_GPON_VLAN_100_101_102-ALC;1/1/5/6
EQP0000000011990893;I01G0854;CTO - OPTAP;SCIMA_G1I01;RUA NEREU RAMOS IMBITUBA CENTRO 88780000 SC 730;IMBITUBA;-28.240306600;-48.668113800;G0;SCIMA-I01SP107;SCIMA-I01SP107-SS6;IMA_I01_1_GPON_VLAN_100_101_102-ALC;1/1/4/15
EQP0000000011990893;I01G0854;CTO - OPTAP;SCIMA_G1I01;RUA NEREU RAMOS IMBITUBA CENTRO 88780000 SC 730;IMBITUBA;-28.240306600;-48.668113800;G0;SCIMA-I01SP107;SCIMA-I01SP107-SS5;IMA_I01_1_GPON_VLAN_100_101_102-ALC;1/1/4/15
EQP0000000011990756;I01G01690;CTO - OPTAP;SCIMA_G1I01;AVENIDA RENATO RAMOS DA SILVA IMBITUBA PAES LEME 88780000 SC 120;IMBITUBA;-28.252558900;-48.681304900;G0;SCIMA-I01SP212;SCIMA-I01SP212-SS2;IMA_I01_1_GPON_VLAN_100_101_102-ALC;1/1/7/10
EQP0000000011990769;I01G01455;CTO - OPTAP;SCIMA_G1I01;RUA ANTONIO MANOEL FELICIANO IMBITUBA PORTO DA VILA 88780000 SC 33;IMBITUBA;-28.267870900;-48.701723900;G0;SCIMA-I01SP182;SCIMA-I01SP182-SS7;IMA_I01_1_GPON_VLAN_100_101_102-ALC;1/1/6/12
EQP0000000011991196;I01G01554;CTO - OPTAP;SCIMA_G1I01;RUA LUIZ GONZAGA DE AMORIM IMBITUBA SAGRADA FAMILIA 88780000 SC 293;IMBITUBA;-28.268935600;-48.698422800;G0;SCIMA-I01SP195;SCIMA-I01SP195-SS2;IMA_I01_1_GPON_VLAN_100_101_102-ALC;1/1/7/3
EQP0000000011991196;I01G01554;CTO - OPTAP;SCIMA_G1I01;RUA LUIZ GONZAGA DE AMORIM IMBITUBA SAGRADA FAMILIA 88780000 SC 293;IMBITUBA;-28.268935600;-48.698422800;G0;SCIMA-I01SP195;SCIMA-I01SP195-SS1;IMA_I01_1_GPON_VLAN_100_101_102-ALC;1/1/7/3
EQP0000000011990973;I01GP457;TO;SCIMA_G1I01;RUA MARIO LUIZ FERNANDES IMBITUBA VILLAGE 88780000 SC 102;IMBITUBA;-28.232603800;-48.673188000;GP;SCIMA-I01SP58;SCIMA-I01SP58-SS1;IMA_I01_1_GPON_VLAN_100_101_102-ALC;1/1/2/16
EQP0000000012008160;I01GP659;TO;SCIMA_G1I01;RUA IRINEU BORNHAUSEN IMBITUBA CENTRO 88780000 SC 555;IMBITUBA;-28.240601600;-48.666899500;GP;SCIMA-I01SP83;SCIMA-I01SP83-SS3;IMA_I01_1_GPON_VLAN_100_101_102-ALC;1/1/4/3
EQP0000000011990762;I01GP1338;TO;SCIMA_G1I01;AVENIDA ESTRELA IMBITUBA VILA NOVA 88780000 SC 133;IMBITUBA;-28.264625600;-48.686484600;GP;SCIMA-I01SP168;SCIMA-I01SP168-SS2;IMA_I01_1_GPON_VLAN_100_101_102-ALC;1/1/6/3
EQP0000000011990724;I01G01856;CTO - OPTAP;SCIMA_G1I01;RUA ALCINO FONSECA IMBITUBA PAES LEME 88780000 SC 1171;IMBITUBA;-28.241272600;-48.672851700;G0;SCIMA-I01SP232;SCIMA-I01SP232-SS8;IMA_I01_1_GPON_VLAN_100_101_102-ALC;1/1/8/9
EQP0000000011990724;I01G01856;CTO - OPTAP;SCIMA_G1I01;RUA ALCINO FONSECA IMBITUBA PAES LEME 88780000 SC 1171;IMBITUBA;-28.241272600;-48.672851700;G0;SCIMA-I01SP232;SCIMA-I01SP232-SS7;IMA_I01_1_GPON_VLAN_100_101_102-ALC;1/1/8/9
EQP0000000011990736;I01G01510;CTO - OPTAP;SCIMA_G1I01;RUA MANOEL ELEODORIO LUIZ IMBITUBA VILA SANTO ANTONIO 88780000 SC 879;IMBITUBA;-28.264402000;-48.701504100;G0;SCIMA-I01SP189;SCIMA-I01SP189-SS6;IMA_I01_1_GPON_VLAN_100_101_102-ALC;1/1/6/13
EQP0000000011990752;I01G01450;CTO - OPTAP;SCIMA_G1I01;RUA PRESIDENTE GROFF IMBITUBA PORTO DA VILA 88780000 SC 400;IMBITUBA;-28.271108200;-48.701003700;G0;SCIMA-I01SP182;SCIMA-I01SP182-SS2;IMA_I01_1_GPON_VLAN_100_101_102-ALC;1/1/6/12
EQP0000000011990741;I01GP1403;TO;SCIMA_G1I01;RUA MANOEL ARAUJO IMBITUBA VILA NOVA 88780000 SC 50;IMBITUBA;-28.258139600;-48.683349800;GP;SCIMA-I01SP176;SCIMA-I01SP176-SS3;IMA_I01_1_GPON_VLAN_100_101_102-ALC;1/1/6/6
EQP0000000011991104;I01G0367;CTO - OPTAP;SCIMA_G1I01;RUA VANDERLEI DE CARVALHO IMBITUBA VILLAGE 88780000 SC 181;IMBITUBA;-28.228458500;-48.671801800;G0;SCIMA-I01SP46;SCIMA-I01SP46-SS7;IMA_I01_1_GPON_VLAN_100_101_102-ALC;1/1/2/6
EQP0000000011991085;I01GP378;TO;SCIMA_G1I01;RUA PAULO FERREIRA DA SILVA IMBITUBA VILLAGE 88780000 SC 221;IMBITUBA;-28.227443100;-48.671697700;GP;SCIMA-I01SP48;SCIMA-I01SP48-SS2;IMA_I01_1_GPON_VLAN_100_101_102-ALC;1/1/2/8
EQP0000000011991153;I01G01736;CTO - OPTAP;SCIMA_G1I01;RUA SAO CAMILO IMBITUBA PAES LEME 88780000 SC 166;IMBITUBA;-28.246226900;-48.678116100;G0;SCIMA-I01SP217;SCIMA-I01SP217-SS8;IMA_I01_1_GPON_VLAN_100_101_102-ALC;1/1/7/15
EQP0000000012009849;I01G01733;CTO - OPTAP;SCIMA_G1I01;RUA JOAO JOSE DE SOUZA IMBITUBA PAES LEME 88780000 SC SN;IMBITUBA;-28.245520600;-48.679133000;G0;SCIMA-I01SP217;SCIMA-I01SP217-SS5;IMA_I01_1_GPON_VLAN_100_101_102-ALC;1/1/7/15
EQP0000000012009833;I01G0500;CTO - OPTAP;SCIMA_G1I01;RUA PROFESSORA VERA MARIA TAVARES TEIXEIRA IMBITUBA   88780000 SC SN;IMBITUBA;-28.231207900;-48.674356700;G0;SCIMA-I01SP63;SCIMA-I01SP63-SS4;IMA_I01_1_GPON_VLAN_100_101_102-ALC;1/1/3/4
EQP0000000011990946;I01G0832;CTO - OPTAP;SCIMA_G1I01;AVENIDA DOUTOR JOAO RIMSA IMBITUBA CENTRO 88780000 SC 933;IMBITUBA;-28.240756000;-48.666998100;G0;SCIMA-I01SP104;SCIMA-I01SP104-SS8;IMA_I01_1_GPON_VLAN_100_101_102-ALC;1/1/4/12
EQP0000000011990946;I01G0832;CTO - OPTAP;SCIMA_G1I01;AVENIDA DOUTOR JOAO RIMSA IMBITUBA CENTRO 88780000 SC 933;IMBITUBA;-28.240756000;-48.666998100;G0;SCIMA-I01SP104;SCIMA-I01SP104-SS7;IMA_I01_1_GPON_VLAN_100_101_102-ALC;1/1/4/12
EQP0000000011991145;I01G01810;CTO - OPTAP;SCIMA_G1I01;AVENIDA BRASIL IMBITUBA PAES LEME 88780000 SC 99;IMBITUBA;-28.247487700;-48.677642200;G0;SCIMA-I01SP227;SCIMA-I01SP227-SS1;IMA_I01_1_GPON_VLAN_100_101_102-ALC;1/1/8/4
EQP0000000011991145;I01G01810;CTO - OPTAP;SCIMA_G1I01;AVENIDA BRASIL IMBITUBA PAES LEME 88780000 SC 99;IMBITUBA;-28.247487700;-48.677642200;G0;SCIMA-I01SP227;SCIMA-I01SP227-SS2;IMA_I01_1_GPON_VLAN_100_101_102-ALC;1/1/8/4
EQP0000000011991173;I01G01756;CTO - OPTAP;SCIMA_G1I01;RUA ROSENDO ISIDORO FREITAS IMBITUBA PAES LEME 88780000 SC SN1;IMBITUBA;-28.247668900;-48.675307100;G0;SCIMA-I01SP220;SCIMA-I01SP220-SS4;IMA_I01_1_GPON_VLAN_100_101_102-ALC;1/1/8/2
EQP0000000011991173;I01G01756;CTO - OPTAP;SCIMA_G1I01;RUA ROSENDO ISIDORO FREITAS IMBITUBA PAES LEME 88780000 SC SN1;IMBITUBA;-28.247668900;-48.675307100;G0;SCIMA-I01SP220;SCIMA-I01SP220-SS3;IMA_I01_1_GPON_VLAN_100_101_102-ALC;1/1/8/2
EQP0000000012009710;I01G0576;CTO - OPTAP;SCIMA_G1I01;RUA OTACILIO DE CARVALHO IMBITUBA CENTRO 88780000 SC 275;IMBITUBA;-28.238564400;-48.668645100;G0;SCIMA-I01SP72;SCIMA-I01SP72-SS8;IMA_I01_1_GPON_VLAN_100_101_102-ALC;1/1/3/13
EQP0000000012009710;I01G0576;CTO - OPTAP;SCIMA_G1I01;RUA OTACILIO DE CARVALHO IMBITUBA CENTRO 88780000 SC 275;IMBITUBA;-28.238564400;-48.668645100;G0;SCIMA-I01SP72;SCIMA-I01SP72-SS7;IMA_I01_1_GPON_VLAN_100_101_102-ALC;1/1/3/13
EQP0000000012009714;I01G0495;CTO - OPTAP;SCIMA_G1I01;RUA ADELFO PAMATO IMBITUBA CENTRO 88780000 SC 250;IMBITUBA;-28.233862700;-48.669703800;G0;SCIMA-I01SP62;SCIMA-I01SP62-SS7;IMA_I01_1_GPON_VLAN_100_101_102-ALC;1/1/3/3
EQP0000000193373160;I01G01299;CTO SPLITTER 1 8;SCIMA_G1I01;RUA JOVINO THOME SOARES IMBITUBA   88780000 SC SN1;IMBITUBA;-28.276427400;-48.697817300;G0;SCIMA-I01SP163;SCIMA-I01SP163-SS3;IMA_I01_1_GPON_VLAN_100_101_102-ALC;1/1/8/15
EQP0000000011990759;I01G01687;CTO - OPTAP;SCIMA_G1I01;RUA JULIO VERGILIO DA SILVA IMBITUBA VILA SANTO ANTONIO 88780000 SC 26;IMBITUBA;-28.257775100;-48.691613700;G0;SCIMA-I01SP211;SCIMA-I01SP211-SS7;IMA_I01_1_GPON_VLAN_100_101_102-ALC;1/1/7/9
EQP0000000011990840;I01G01172;CTO - OPTAP;SCIMA_G1I01;RUA OLIRIA LEONEL EDUARDO IMBITUBA CAMPO D AVIACAO 88780000 SC 110;IMBITUBA;-28.275991400;-48.696742700;G0;SCIMA-I01SP147;SCIMA-I01SP147-SS4;IMA_I01_1_GPON_VLAN_100_101_102-ALC;1/1/5/7
EQP0000000011990840;I01G01172;CTO - OPTAP;SCIMA_G1I01;RUA OLIRIA LEONEL EDUARDO IMBITUBA CAMPO D AVIACAO 88780000 SC 110;IMBITUBA;-28.275991400;-48.696742700;G0;SCIMA-I01SP147;SCIMA-I01SP147-SS3;IMA_I01_1_GPON_VLAN_100_101_102-ALC;1/1/5/7
EQP0000000011990800;I01G01258;CTO - OPTAP;SCIMA_G1I01;RUA SAO SEBASTIAO IMBITUBA VILA NOVA 88780000 SC 346;IMBITUBA;-28.268934000;-48.689646500;G0;SCIMA-I01SP158;SCIMA-I01SP158-SS2;IMA_I01_1_GPON_VLAN_100_101_102-ALC;1/1/5/14
EQP0000000011990800;I01G01258;CTO - OPTAP;SCIMA_G1I01;RUA SAO SEBASTIAO IMBITUBA VILA NOVA 88780000 SC 346;IMBITUBA;-28.268934000;-48.689646500;G0;SCIMA-I01SP158;SCIMA-I01SP158-SS1;IMA_I01_1_GPON_VLAN_100_101_102-ALC;1/1/5/14
EQP0000000193399787;I01G0391;CTO SPLITTER 1 8;SCIMA_G1I01;RUA ALDO PITIGLIANI IMBITUBA VILLAGE 88780000 SC 263;IMBITUBA;-28.228717500;-48.672670100;G0;SCIMA-I01SP49;SCIMA-I01SP49-SS7;IMA_I01_1_GPON_VLAN_100_101_102-ALC;1/1/8/12
EQP0000000011991064;I01G0178;CTO - OPTAP;SCIMA_G1I01;RUA VITORIA IMBITUBA VILA ALVORADA 88780000 SC 324;IMBITUBA;-28.224690100;-48.665467700;G0;SCIMA-I01SP23;SCIMA-I01SP23-SS2;IMA_I01_1_GPON_VLAN_100_101_102-ALC;1/1/1/14
EQP0000000011991064;I01G0178;CTO - OPTAP;SCIMA_G1I01;RUA VITORIA IMBITUBA VILA ALVORADA 88780000 SC 324;IMBITUBA;-28.224690100;-48.665467700;G0;SCIMA-I01SP23;SCIMA-I01SP23-SS1;IMA_I01_1_GPON_VLAN_100_101_102-ALC;1/1/1/14
EQP0000000011990859;I01G01283;CTO - OPTAP;SCIMA_G1I01;RUA SIDEROPOLIS IMBITUBA VILA NOVA 88780000 SC 84;IMBITUBA;-28.270073400;-48.689431000;G0;SCIMA-I01SP161;SCIMA-I01SP161-SS3;IMA_I01_1_GPON_VLAN_100_101_102-ALC;1/1/6/1
EQP0000000011990768;I01G01703;CTO - OPTAP;SCIMA_G1I01;RUA AROLDO VICHIETTI IMBITUBA VILA SANTO ANTONIO 88780000 SC 274;IMBITUBA;-28.261058000;-48.690395300;G0;SCIMA-I01SP213;SCIMA-I01SP213-SS7;IMA_I01_1_GPON_VLAN_100_101_102-ALC;1/1/7/11
EQP0000000011991097;I01G0372;CTO - OPTAP;SCIMA_G1I01;RUA VEREADOR MAURINO MENDONCA IMBITUBA RIBANCEIRA 88780000 SC SN;IMBITUBA;-28.224212900;-48.675760600;G0;SCIMA-I01SP47;SCIMA-I01SP47-SS4;IMA_I01_1_GPON_VLAN_100_101_102-ALC;1/1/2/7
EQP0000000011991208;I01GP1714;TO;SCIMA_G1I01;AVENIDA BRASIL IMBITUBA PAES LEME 88780000 SC 662;IMBITUBA;-28.243681800;-48.676431300;GP;SCIMA-I01SP215;SCIMA-I01SP215-SS2;IMA_I01_1_GPON_VLAN_100_101_102-ALC;1/1/7/13
EQP0000000012001592;I01G0032;CTO - OPTAP;SCIMA_G1I01;RUA ARITIANO GONCALVES IMBITUBA   88780000 SC 322;IMBITUBA;-28.215415000;-48.672932600;G0;SCIMA-I01SP4;SCIMA-I01SP4-SS7;IMA_I01_1_GPON_VLAN_100_101_102-ALC;1/1/1/4
EQP0000000012001592;I01G0032;CTO - OPTAP;SCIMA_G1I01;RUA ARITIANO GONCALVES IMBITUBA   88780000 SC 322;IMBITUBA;-28.215415000;-48.672932600;G0;SCIMA-I01SP4;SCIMA-I01SP4-SS8;IMA_I01_1_GPON_VLAN_100_101_102-ALC;1/1/1/4
EQP0000000193372843;I01G01304;CTO SPLITTER 1 8;SCIMA_G1I01;RUA MANOEL INACIO IMBITUBA VILA NOVA 88780000 SC 56;IMBITUBA;-28.268731400;-48.687846400;G0;SCIMA-I01SP163;SCIMA-I01SP163-SS8;IMA_I01_1_GPON_VLAN_100_101_102-ALC;1/1/8/15
EQP0000000011990805;I01G01531;CTO - OPTAP;SCIMA_G1I01;RUA MANOEL JOAO GONCALVES IMBITUBA VILA NOVA 88780000 SC 90;IMBITUBA;-28.265368400;-48.696341700;G0;SCIMA-I01SP192;SCIMA-I01SP192-SS3;IMA_I01_1_GPON_VLAN_100_101_102-ALC;1/1/6/16
EQP0000000011991056;I01G0252;CTO - OPTAP;SCIMA_G1I01;RUA HERCILIO NUNES IMBITUBA   88780000 SC 194;IMBITUBA;-28.218590500;-48.670342600;G0;SCIMA-I01SP32;SCIMA-I01SP32-SS4;IMA_I01_1_GPON_VLAN_100_101_102-ALC;1/1/1/16
EQP0000000011991056;I01G0252;CTO - OPTAP;SCIMA_G1I01;RUA HERCILIO NUNES IMBITUBA   88780000 SC 194;IMBITUBA;-28.218590500;-48.670342600;G0;SCIMA-I01SP32;SCIMA-I01SP32-SS3;IMA_I01_1_GPON_VLAN_100_101_102-ALC;1/1/1/16
EQP0000000193401922;I01G0966;CTO SPLITTER 1 8;SCIMA_G1I01;RUA TRES DE OUTUBRO IMBITUBA CENTRO 88780000 SC 298;IMBITUBA;-28.237347800;-48.668874600;G0;SCIMA-I01SP121;SCIMA-I01SP121-SS6;IMA_I01_1_GPON_VLAN_100_101_102-ALC;1/1/8/14
EQP0000000011991026;I01G0504;CTO - OPTAP;SCIMA_G1I01;RUA ARISTIDES BALSINI FRANCALACI IMBITUBA VILLAGE 88780000 SC 446;IMBITUBA;-28.234379200;-48.673270000;G0;SCIMA-I01SP63;SCIMA-I01SP63-SS8;IMA_I01_1_GPON_VLAN_100_101_102-ALC;1/1/3/4
EQP0000000012009378;I01GP1865;TO;SCIMA_G1I01;AVENIDA SANTA CATARINA IMBITUBA CENTRO 88780000 SC 1136;IMBITUBA;-28.241444200;-48.672175800;GP;SCIMA-I01SP234;SCIMA-I01SP234-SS1;IMA_I01_1_GPON_VLAN_100_101_102-ALC;1/1/8/11
EQP0000000011990993;I01G0448;CTO - OPTAP;SCIMA_G1I01;RUA PROFESSORA VERA MARIA TAVARES TEIXEIRA IMBITUBA   88780000 SC 235;IMBITUBA;-28.231052700;-48.673499500;G0;SCIMA-I01SP56;SCIMA-I01SP56-SS8;IMA_I01_1_GPON_VLAN_100_101_102-ALC;1/1/2/14
EQP0000000011990819;I01G01270;CTO - OPTAP;SCIMA_G1I01;RUA SAO PEDRO IMBITUBA VILA NOVA 88780000 SC 73;IMBITUBA;-28.264083500;-48.689845600;G0;SCIMA-I01SP159;SCIMA-I01SP159-SS5;IMA_I01_1_GPON_VLAN_100_101_102-ALC;1/1/5/15
EQP0000000011990819;I01G01270;CTO - OPTAP;SCIMA_G1I01;RUA SAO PEDRO IMBITUBA VILA NOVA 88780000 SC 73;IMBITUBA;-28.264083500;-48.689845600;G0;SCIMA-I01SP159;SCIMA-I01SP159-SS6;IMA_I01_1_GPON_VLAN_100_101_102-ALC;1/1/5/15
EQP0000000193377443;I01G0059;CTO SPLITTER 1 8;SCIMA_G1I01;RUA ARITIANO GONCALVES IMBITUBA   88780000 SC 470;IMBITUBA;-28.214184000;-48.674213400;G0;SCIMA-I01SP8;SCIMA-I01SP8-SS3;IMA_I01_1_GPON_VLAN_100_101_102-ALC;1/1/1/5
EQP0000000012001380;I01G0574;CTO - OPTAP;SCIMA_G1I01;AVENIDA SANTA CATARINA IMBITUBA CENTRO 88780000 SC 732;IMBITUBA;-28.239569100;-48.668780700;G0;SCIMA-I01SP72;SCIMA-I01SP72-SS5;IMA_I01_1_GPON_VLAN_100_101_102-ALC;1/1/3/13
EQP0000000012001380;I01G0574;CTO - OPTAP;SCIMA_G1I01;AVENIDA SANTA CATARINA IMBITUBA CENTRO 88780000 SC 732;IMBITUBA;-28.239569100;-48.668780700;G0;SCIMA-I01SP72;SCIMA-I01SP72-SS6;IMA_I01_1_GPON_VLAN_100_101_102-ALC;1/1/3/13
EQP0000000011990903;I01G0754;CTO - OPTAP;SCIMA_G1I01;AVENIDA PRESIDENTE VARGAS IMBITUBA CENTRO 88780000 SC 687;IMBITUBA;-28.244004600;-48.665665200;G0;SCIMA-I01SP95;SCIMA-I01SP95-SS2;IMA_I01_1_GPON_VLAN_100_101_102-ALC;1/1/4/9
EQP0000000011990905;I01G0758;CTO - OPTAP;SCIMA_G1I01;RUA SEM NOME 1 IMBITUBA   88780000 SC SN1;IMBITUBA;-28.244673600;-48.664143900;G0;SCIMA-I01SP95;SCIMA-I01SP95-SS6;IMA_I01_1_GPON_VLAN_100_101_102-ALC;1/1/4/9
EQP0000000011991146;I01G01812;CTO - OPTAP;SCIMA_G1I01;RUA SANTA CATARINA IMBITUBA PAES LEME 88780000 SC 1854;IMBITUBA;-28.246870800;-48.676421500;G0;SCIMA-I01SP227;SCIMA-I01SP227-SS4;IMA_I01_1_GPON_VLAN_100_101_102-ALC;1/1/8/4
EQP0000000011991146;I01G01812;CTO - OPTAP;SCIMA_G1I01;RUA SANTA CATARINA IMBITUBA PAES LEME 88780000 SC 1854;IMBITUBA;-28.246870800;-48.676421500;G0;SCIMA-I01SP227;SCIMA-I01SP227-SS3;IMA_I01_1_GPON_VLAN_100_101_102-ALC;1/1/8/4
EQP0000000011990968;I01GP471;TO;SCIMA_G1I01;RUA MARIO LUIZ FERNANDES IMBITUBA VILLAGE 88780000 SC 257;IMBITUBA;-28.232506300;-48.674840100;GP;SCIMA-I01SP59;SCIMA-I01SP59-SS7;IMA_I01_1_GPON_VLAN_100_101_102-ALC;1/1/3/1
EQP0000000011990852;I01GP955;TO;SCIMA_G1I01;RUA ERNANI COTRIN IMBITUBA CENTRO 88780000 SC 244;IMBITUBA;-28.239500500;-48.669520900;GP;SCIMA-I01SP120;SCIMA-I01SP120-SS3;IMA_I01_1_GPON_VLAN_100_101_102-ALC;1/1/5/4
EQP0000000011991025;I01G0535;CTO - OPTAP;SCIMA_G1I01;RUA JOSE CANTISANO IMBITUBA CENTRO 88780000 SC SN;IMBITUBA;-28.239118600;-48.675788700;G0;SCIMA-I01SP67;SCIMA-I01SP67-SS7;IMA_I01_1_GPON_VLAN_100_101_102-ALC;1/1/3/8
EQP0000000012001595;I01G0363;CTO - OPTAP;SCIMA_G1I01;RUA GINA CYRELLI E SILVA IMBITUBA VILLAGE 88780000 SC 251;IMBITUBA;-28.226795000;-48.671701700;G0;SCIMA-I01SP46;SCIMA-I01SP46-SS3;IMA_I01_1_GPON_VLAN_100_101_102-ALC;1/1/2/6
EQP0000000011991111;I01GP674;TO;SCIMA_G1I01;RUA JULIO FELIPE PACHECO IMBITUBA CENTRO 88780000 SC 137;IMBITUBA;-28.245695100;-48.667756800;GP;SCIMA-I01SP85;SCIMA-I01SP85-SS2;IMA_I01_1_GPON_VLAN_100_101_102-ALC;1/1/4/5
EQP0000000012008159;I01GP737;TO;SCIMA_G1I01;RUA VISCONDE DE BARBACENA IMBITUBA CENTRO 88780000 SC 275;IMBITUBA;-28.241880200;-48.661564600;GP;SCIMA-I01SP93;SCIMA-I01SP93-SS1;IMA_I01_1_GPON_VLAN_100_101_102-ALC;1/1/4/7
EQP0000000193376272;I01G01530;CTO SPLITTER 1 8;SCIMA_G1I01;AVENIDA RENATO RAMOS DA SILVA IMBITUBA VILA NOVA 88780000 SC 3374;IMBITUBA;-28.265714200;-48.695232300;G0;SCIMA-I01SP192;SCIMA-I01SP192-SS2;IMA_I01_1_GPON_VLAN_100_101_102-ALC;1/1/6/16
EQP0000000011990941;I01GP510;TO;SCIMA_G1I01;RUA ERNANI COTRIN IMBITUBA CENTRO 88780000 SC 1008;IMBITUBA;-28.234238200;-48.673847000;GP;SCIMA-I01SP64;SCIMA-I01SP64-SS6;IMA_I01_1_GPON_VLAN_100_101_102-ALC;1/1/3/5
EQP0000000011991095;I01G0374;CTO - OPTAP;SCIMA_G1I01;RUA SAO JUDAS TADEU IMBITUBA RIBANCEIRA 88780000 SC 25;IMBITUBA;-28.226135400;-48.674981600;G0;SCIMA-I01SP47;SCIMA-I01SP47-SS6;IMA_I01_1_GPON_VLAN_100_101_102-ALC;1/1/2/7
EQP0000000193336221;I01G0815;CTO SPLITTER 1 8;SCIMA_G1I01;AVENIDA DOUTOR JOAO RIMSA IMBITUBA CENTRO 88780000 SC 1232;IMBITUBA;-28.242829900;-48.670227500;G0;SCIMA-I01SP102;SCIMA-I01SP102-SS7;IMA_I01_1_GPON_VLAN_100_101_102-ALC;1/1/8/13
EQP0000000011990798;I01G01390;CTO - OPTAP;SCIMA_G1I01;RUA HANS DIETER SCHMIDT IMBITUBA VILA NOVA 88780000 SC 380;IMBITUBA;-28.263668300;-48.686223100;G0;SCIMA-I01SP174;SCIMA-I01SP174-SS5;IMA_I01_1_GPON_VLAN_100_101_102-ALC;1/1/6/4
EQP0000000011990798;I01G01390;CTO - OPTAP;SCIMA_G1I01;RUA HANS DIETER SCHMIDT IMBITUBA VILA NOVA 88780000 SC 380;IMBITUBA;-28.263668300;-48.686223100;G0;SCIMA-I01SP174;SCIMA-I01SP174-SS6;IMA_I01_1_GPON_VLAN_100_101_102-ALC;1/1/6/4
EQP0000000027209749;I01GP858;MINI CDOE 1:2 + 1:8 PRECON SELADA 60/40;SCIMA_G1I01;AVENIDA SANTA CATARINA IMBITUBA CENTRO 88780000 SC 635;IMBITUBA;-28.239257100;-48.667820100;GP;SCIMA-I01SP108;SCIMA-I01SP108-SS2;IMA_I01_1_GPON_VLAN_100_101_102-ALC;1/1/4/16
EQP0000000012009367;I01GP540;TO;SCIMA_G1I01;RUA TRES DE OUTUBRO IMBITUBA CENTRO 88780000 SC 49;IMBITUBA;-28.238039200;-48.669566800;GP;SCIMA-I01SP68;SCIMA-I01SP68-SS4;IMA_I01_1_GPON_VLAN_100_101_102-ALC;1/1/3/9
EQP0000000012009372;I01GP428;TO;SCIMA_G1I01;RUA MANOEL FORTUNATO IMBITUBA VILLAGE 88780000 SC 317;IMBITUBA;-28.229512300;-48.674071700;GP;SCIMA-I01SP54;SCIMA-I01SP54-SS4;IMA_I01_1_GPON_VLAN_100_101_102-ALC;1/1/2/12
EQP0000000011991080;I01G0076;CTO - OPTAP;SCIMA_G1I01;RUA BRAULINO TRAJANO DE MIRANDA IMBITUBA   88780000 SC QD28LT24;IMBITUBA;-28.213931600;-48.671575100;G0;SCIMA-I01SP10;SCIMA-I01SP10-SS3;IMA_I01_1_GPON_VLAN_100_101_102-ALC;1/1/1/7
EQP0000000011991080;I01G0076;CTO - OPTAP;SCIMA_G1I01;RUA BRAULINO TRAJANO DE MIRANDA IMBITUBA   88780000 SC QD28LT24;IMBITUBA;-28.213931600;-48.671575100;G0;SCIMA-I01SP10;SCIMA-I01SP10-SS4;IMA_I01_1_GPON_VLAN_100_101_102-ALC;1/1/1/7
EQP0000000193401986;I01G0965;CTO SPLITTER 1 8;SCIMA_G1I01;AVENIDA NICOLAU BARTOLOMEU DA ROSA MATOS IMBITUBA CENTRO 88780000 SC 866;IMBITUBA;-28.236688200;-48.672748500;G0;SCIMA-I01SP121;SCIMA-I01SP121-SS5;IMA_I01_1_GPON_VLAN_100_101_102-ALC;1/1/8/14
EQP0000000011990830;I01G01277;CTO - OPTAP;SCIMA_G1I01;RUA PARANA IMBITUBA VILA NOVA 88780000 SC SN;IMBITUBA;-28.264322400;-48.685423500;G0;SCIMA-I01SP160;SCIMA-I01SP160-SS5;IMA_I01_1_GPON_VLAN_100_101_102-ALC;1/1/5/16
EQP0000000012009369;I01GP433;TO;SCIMA_G1I01;RUA PROFESSORA VERA MARIA TAVARES TEIXEIRA IMBITUBA   88780000 SC 235;IMBITUBA;-28.231550100;-48.673904300;GP;SCIMA-I01SP55;SCIMA-I01SP55-SS1;IMA_I01_1_GPON_VLAN_100_101_102-ALC;1/1/2/13
EQP0000000011991024;I01G0442;CTO - OPTAP;SCIMA_G1I01;RUA ALDO PITIGLIANI IMBITUBA VILLAGE 88780000 SC 144;IMBITUBA;-28.229245800;-48.671741400;G0;SCIMA-I01SP56;SCIMA-I01SP56-SS2;IMA_I01_1_GPON_VLAN_100_101_102-ALC;1/1/2/14
EQP0000000011991200;I01G01564;CTO - OPTAP;SCIMA_G1I01;RUA PROFESSOR ROGERIO TAVARES IMBITUBA SAGRADA FAMILIA 88780000 SC 286;IMBITUBA;-28.265487100;-48.692132800;G0;SCIMA-I01SP196;SCIMA-I01SP196-SS3;IMA_I01_1_GPON_VLAN_100_101_102-ALC;1/1/7/4
EQP0000000011991200;I01G01564;CTO - OPTAP;SCIMA_G1I01;RUA PROFESSOR ROGERIO TAVARES IMBITUBA SAGRADA FAMILIA 88780000 SC 286;IMBITUBA;-28.265487100;-48.692132800;G0;SCIMA-I01SP196;SCIMA-I01SP196-SS4;IMA_I01_1_GPON_VLAN_100_101_102-ALC;1/1/7/4
EQP0000000011990971;I01GP459;TO;SCIMA_G1I01;RUA MARIO LUIZ FERNANDES IMBITUBA VILLAGE 88780000 SC 235;IMBITUBA;-28.232275200;-48.674349500;GP;SCIMA-I01SP58;SCIMA-I01SP58-SS3;IMA_I01_1_GPON_VLAN_100_101_102-ALC;1/1/2/16
EQP0000000011991012;I01GP410;TO;SCIMA_G1I01;RUA ALDO PITIGLIANI IMBITUBA VILLAGE 88780000 SC 141;IMBITUBA;-28.229381800;-48.671890200;GP;SCIMA-I01SP52;SCIMA-I01SP52-SS2;IMA_I01_1_GPON_VLAN_100_101_102-ALC;1/1/2/10
EQP0000000011990929;I01G0820;CTO - OPTAP;SCIMA_G1I01;AVENIDA DOUTOR JOAO RIMSA IMBITUBA CENTRO 88780000 SC 320;IMBITUBA;-28.236952900;-48.661938200;G0;SCIMA-I01SP103;SCIMA-I01SP103-SS4;IMA_I01_1_GPON_VLAN_100_101_102-ALC;1/1/4/11
EQP0000000011990963;I01GP541;TO;SCIMA_G1I01;RUA TRES DE OUTUBRO IMBITUBA CENTRO 88780000 SC 61;IMBITUBA;-28.238376800;-48.670085300;GP;SCIMA-I01SP68;SCIMA-I01SP68-SS5;IMA_I01_1_GPON_VLAN_100_101_102-ALC;1/1/3/9
EQP0000000011991088;I01G0092;CTO - OPTAP;SCIMA_G1I01;RUA JOSE NEMEZIO DOS SANTOS IMBITUBA VILA NOVA ALVORADA 88780000 SC 391;IMBITUBA;-28.215423200;-48.669291100;G0;SCIMA-I01SP12;SCIMA-I01SP12-SS4;IMA_I01_1_GPON_VLAN_100_101_102-ALC;1/1/1/9
EQP0000000011991088;I01G0092;CTO - OPTAP;SCIMA_G1I01;RUA JOSE NEMEZIO DOS SANTOS IMBITUBA VILA NOVA ALVORADA 88780000 SC 391;IMBITUBA;-28.215423200;-48.669291100;G0;SCIMA-I01SP12;SCIMA-I01SP12-SS3;IMA_I01_1_GPON_VLAN_100_101_102-ALC;1/1/1/9
EQP0000000012001377;I01GP474;TO;SCIMA_G1I01;RUA VEREADOR NILSON INACIO ALVES IMBITUBA VILLAGE 88780000 SC 244;IMBITUBA;-28.232722800;-48.674816000;GP;SCIMA-I01SP60;SCIMA-I01SP60-SS2;IMA_I01_1_GPON_VLAN_100_101_102-ALC;1/1/3/2
EQP0000000193338010;I01G01678;CTO SPLITTER 1 8;SCIMA_G1I01;RUA PEDRO ANTONIO GONCALVES IMBITUBA VILA SANTO ANTONIO 88780000 SC 149;IMBITUBA;-28.260422400;-48.694963300;G0;SCIMA-I01SP210;SCIMA-I01SP210-SS6;IMA_I01_1_GPON_VLAN_100_101_102-ALC;1/1/3/10
EQP0000000193401783;I01G0968;CTO SPLITTER 1 8;SCIMA_G1I01;AVENIDA SANTA CATARINA IMBITUBA CENTRO 88780000 SC 319;IMBITUBA;-28.239704200;-48.668603300;G0;SCIMA-I01SP121;SCIMA-I01SP121-SS8;IMA_I01_1_GPON_VLAN_100_101_102-ALC;1/1/8/14
EQP0000000011990900;I01GP860;TO;SCIMA_G1I01;AVENIDA SANTA CATARINA IMBITUBA CENTRO 88780000 SC 519;IMBITUBA;-28.238642100;-48.666847600;GP;SCIMA-I01SP108;SCIMA-I01SP108-SS4;IMA_I01_1_GPON_VLAN_100_101_102-ALC;1/1/4/16
EQP0000000012009380;I01GP1604;TO;SCIMA_G1I01;RUA LOURIVAL RAMOS IMBITUBA   88780000 SC 162;IMBITUBA;-28.270312300;-48.696680000;GP;SCIMA-I01SP201;SCIMA-I01SP201-SS4;IMA_I01_1_GPON_VLAN_100_101_102-ALC;1/1/7/5
EQP0000000011990832;I01G01156;CTO - OPTAP;SCIMA_G1I01;RUA BENTO SOARES IMBITUBA CAMPO D AVIACAO 88780000 SC 85;IMBITUBA;-28.273448000;-48.694633200;G0;SCIMA-I01SP145;SCIMA-I01SP145-SS3;IMA_I01_1_GPON_VLAN_100_101_102-ALC;1/1/5/5
EQP0000000011990832;I01G01156;CTO - OPTAP;SCIMA_G1I01;RUA BENTO SOARES IMBITUBA CAMPO D AVIACAO 88780000 SC 85;IMBITUBA;-28.273448000;-48.694633200;G0;SCIMA-I01SP145;SCIMA-I01SP145-SS4;IMA_I01_1_GPON_VLAN_100_101_102-ALC;1/1/5/5
EQP0000000011991046;I01G0268;CTO - OPTAP;SCIMA_G1I01;RUA NOSSA SENHORA APARECIDA IMBITUBA VILA ALVORADA 88780000 SC 460;IMBITUBA;-28.228162600;-48.668758600;G0;SCIMA-I01SP34;SCIMA-I01SP34-SS4;IMA_I01_1_GPON_VLAN_100_101_102-ALC;1/1/2/2
EQP0000000012009850;I01G01760;CTO - OPTAP;SCIMA_G1I01;RUA PRESALINO PIRES IMBITUBA PAES LEME 88780000 SC 249;IMBITUBA;-28.247662200;-48.675952900;G0;SCIMA-I01SP220;SCIMA-I01SP220-SS8;IMA_I01_1_GPON_VLAN_100_101_102-ALC;1/1/8/2
EQP0000000012009850;I01G01760;CTO - OPTAP;SCIMA_G1I01;RUA PRESALINO PIRES IMBITUBA PAES LEME 88780000 SC 249;IMBITUBA;-28.247662200;-48.675952900;G0;SCIMA-I01SP220;SCIMA-I01SP220-SS7;IMA_I01_1_GPON_VLAN_100_101_102-ALC;1/1/8/2
EQP0000000011991115;I01G0003;CTO - OPTAP;SCIMA_G1I01;AVENIDA TREZE DE SETEMBRO IMBITUBA VILA NOVA ALVORADA 88780000 SC 106;IMBITUBA;-28.209082300;-48.671219400;G0;SCIMA-I01SP1;SCIMA-I01SP1-SS3;IMA_I01_1_GPON_VLAN_100_101_102-ALC;1/1/1/1
EQP0000000011990726;I01GP1433;TO;SCIMA_G1I01;AVENIDA RENATO RAMOS DA SILVA IMBITUBA VILA NOVA 88780000 SC 2223;IMBITUBA;-28.258126400;-48.686258400;GP;SCIMA-I01SP180;SCIMA-I01SP180-SS1;IMA_I01_1_GPON_VLAN_100_101_102-ALC;1/1/6/10
EQP0000000193373127;I01G01300;CTO SPLITTER 1 8;SCIMA_G1I01;RUA JOVINO THOME SOARES IMBITUBA   88780000 SC 210;IMBITUBA;-28.277127700;-48.696519800;G0;SCIMA-I01SP163;SCIMA-I01SP163-SS4;IMA_I01_1_GPON_VLAN_100_101_102-ALC;1/1/8/15
EQP0000000011991161;I01G01731;CTO - OPTAP;SCIMA_G1I01;AVENIDA RENATO RAMOS DA SILVA IMBITUBA PAES LEME 88780000 SC 777;IMBITUBA;-28.246538300;-48.679672500;G0;SCIMA-I01SP217;SCIMA-I01SP217-SS3;IMA_I01_1_GPON_VLAN_100_101_102-ALC;1/1/7/15
EQP0000000011991027;I01G0503;CTO - OPTAP;SCIMA_G1I01;RUA VEREADOR NILSON INACIO ALVES IMBITUBA VILLAGE 88780000 SC 73;IMBITUBA;-28.233444700;-48.672394100;G0;SCIMA-I01SP63;SCIMA-I01SP63-SS7;IMA_I01_1_GPON_VLAN_100_101_102-ALC;1/1/3/4
EQP0000000193399842;I01G0390;CTO SPLITTER 1 8;SCIMA_G1I01;RUA HARLEY AMADEI SILVA IMBITUBA VILLAGE 88780000 SC 31;IMBITUBA;-28.228700900;-48.669967300;G0;SCIMA-I01SP49;SCIMA-I01SP49-SS6;IMA_I01_1_GPON_VLAN_100_101_102-ALC;1/1/8/12
EQP0000000011991062;I01G0118;CTO - OPTAP;SCIMA_G1I01;RUA VITORIA IMBITUBA VILA ALVORADA 88780000 SC SN;IMBITUBA;-28.223234000;-48.667092400;G0;SCIMA-I01SP15;SCIMA-I01SP15-SS6;IMA_I01_1_GPON_VLAN_100_101_102-ALC;1/1/1/12
EQP0000000011991062;I01G0118;CTO - OPTAP;SCIMA_G1I01;RUA VITORIA IMBITUBA VILA ALVORADA 88780000 SC SN;IMBITUBA;-28.223234000;-48.667092400;G0;SCIMA-I01SP15;SCIMA-I01SP15-SS5;IMA_I01_1_GPON_VLAN_100_101_102-ALC;1/1/1/12
EQP0000000011990910;I01G0759;CTO - OPTAP;SCIMA_G1I01;RUA FRANCISCO MOREIRA ALVES IMBITUBA CENTRO 88780000 SC SN;IMBITUBA;-28.243121900;-48.661658600;G0;SCIMA-I01SP95;SCIMA-I01SP95-SS7;IMA_I01_1_GPON_VLAN_100_101_102-ALC;1/1/4/9
EQP0000000011990504;I01G01628;CTO - OPTAP;SCIMA_G1I01;RUA DO SINDICATO IMBITUBA VILA NOVA 88780000 SC SN;IMBITUBA;-28.263765000;-48.694130400;G0;SCIMA-I01SP204;SCIMA-I01SP204-SS3;IMA_I01_1_GPON_VLAN_100_101_102-ALC;1/1/7/8
EQP0000000011990504;I01G01628;CTO - OPTAP;SCIMA_G1I01;RUA DO SINDICATO IMBITUBA VILA NOVA 88780000 SC SN;IMBITUBA;-28.263765000;-48.694130400;G0;SCIMA-I01SP204;SCIMA-I01SP204-SS4;IMA_I01_1_GPON_VLAN_100_101_102-ALC;1/1/7/8
EQP0000000011990810;I01G01534;CTO - OPTAP;SCIMA_G1I01;AVENIDA RENATO RAMOS DA SILVA IMBITUBA VILA NOVA 88780000 SC 3209;IMBITUBA;-28.264776400;-48.692984200;G0;SCIMA-I01SP192;SCIMA-I01SP192-SS6;IMA_I01_1_GPON_VLAN_100_101_102-ALC;1/1/6/16
EQP0000000012009713;I01G0818;CTO - OPTAP;SCIMA_G1I01;AVENIDA ALVARO CATAO IMBITUBA CENTRO 88780000 SC 370;IMBITUBA;-28.240497000;-48.663000400;G0;SCIMA-I01SP103;SCIMA-I01SP103-SS2;IMA_I01_1_GPON_VLAN_100_101_102-ALC;1/1/4/11
EQP0000000011991108;I01G0068;CTO - OPTAP;SCIMA_G1I01;RUA ELZA MARIA PEREIRA PITTIGLIANI IMBITUBA   88780000 SC 113;IMBITUBA;-28.217182500;-48.673683000;G0;SCIMA-I01SP9;SCIMA-I01SP9-SS3;IMA_I01_1_GPON_VLAN_100_101_102-ALC;1/1/1/6
EQP0000000011991108;I01G0068;CTO - OPTAP;SCIMA_G1I01;RUA ELZA MARIA PEREIRA PITTIGLIANI IMBITUBA   88780000 SC 113;IMBITUBA;-28.217182500;-48.673683000;G0;SCIMA-I01SP9;SCIMA-I01SP9-SS4;IMA_I01_1_GPON_VLAN_100_101_102-ALC;1/1/1/6
EQP0000000011991197;I01G01556;CTO - OPTAP;SCIMA_G1I01;RUA MINERVINA DE SOUZA MARTINS IMBITUBA SAGRADA FAMILIA 88780000 SC SN;IMBITUBA;-28.269310000;-48.696811100;G0;SCIMA-I01SP195;SCIMA-I01SP195-SS3;IMA_I01_1_GPON_VLAN_100_101_102-ALC;1/1/7/3
EQP0000000011991197;I01G01556;CTO - OPTAP;SCIMA_G1I01;RUA MINERVINA DE SOUZA MARTINS IMBITUBA SAGRADA FAMILIA 88780000 SC SN;IMBITUBA;-28.269310000;-48.696811100;G0;SCIMA-I01SP195;SCIMA-I01SP195-SS4;IMA_I01_1_GPON_VLAN_100_101_102-ALC;1/1/7/3
EQP0000000011990812;I01G01250;CTO - OPTAP;SCIMA_G1I01;RUA MARIA CECILIA DA ROSA IMBITUBA VILA NOVA 88780000 SC 610;IMBITUBA;-28.266645800;-48.689697200;G0;SCIMA-I01SP157;SCIMA-I01SP157-SS2;IMA_I01_1_GPON_VLAN_100_101_102-ALC;1/1/5/13
EQP0000000011990812;I01G01250;CTO - OPTAP;SCIMA_G1I01;RUA MARIA CECILIA DA ROSA IMBITUBA VILA NOVA 88780000 SC 610;IMBITUBA;-28.266645800;-48.689697200;G0;SCIMA-I01SP157;SCIMA-I01SP157-SS1;IMA_I01_1_GPON_VLAN_100_101_102-ALC;1/1/5/13
EQP0000000193337153;I01G0811;CTO SPLITTER 1 8;SCIMA_G1I01;RUA JOAO MOTTA DE SOUZA IMBITUBA PAES LEME 88780000 SC SN;IMBITUBA;-28.245253100;-48.677147100;G0;SCIMA-I01SP102;SCIMA-I01SP102-SS3;IMA_I01_1_GPON_VLAN_100_101_102-ALC;1/1/8/13
EQP0000000193337179;I01G0810;CTO SPLITTER 1 8;SCIMA_G1I01;RUA VILMAR GOULART PEREIRA IMBITUBA PAES LEME 88780000 SC 127;IMBITUBA;-28.244778900;-48.677864100;G0;SCIMA-I01SP102;SCIMA-I01SP102-SS2;IMA_I01_1_GPON_VLAN_100_101_102-ALC;1/1/8/13
EQP0000000011991158;I01G01732;CTO - OPTAP;SCIMA_G1I01;AVENIDA RENATO RAMOS DA SILVA IMBITUBA PAES LEME 88780000 SC 1306;IMBITUBA;-28.248045600;-48.678915600;G0;SCIMA-I01SP217;SCIMA-I01SP217-SS4;IMA_I01_1_GPON_VLAN_100_101_102-ALC;1/1/7/15
EQP0000000011991156;I01GP1866;TO;SCIMA_G1I01;RUA ALCINO FONSECA IMBITUBA PAES LEME 88780000 SC 51;IMBITUBA;-28.240880800;-48.671979500;GP;SCIMA-I01SP234;SCIMA-I01SP234-SS2;IMA_I01_1_GPON_VLAN_100_101_102-ALC;1/1/8/11
EQP0000000011991017;I01GP290;TO;SCIMA_G1I01;AVENIDA VINTE E UM DE JUNHO IMBITUBA RIBANCEIRA 88780000 SC 221;IMBITUBA;-28.226471100;-48.672797700;GP;SCIMA-I01SP37;SCIMA-I01SP37-SS2;IMA_I01_1_GPON_VLAN_100_101_102-ALC;1/1/2/5
EQP0000000011991112;I01GP675;TO;SCIMA_G1I01;RUA ORDOMIRO FERREIRA IMBITUBA CENTRO 88780000 SC 94;IMBITUBA;-28.244370800;-48.665473600;GP;SCIMA-I01SP85;SCIMA-I01SP85-SS3;IMA_I01_1_GPON_VLAN_100_101_102-ALC;1/1/4/5
EQP0000000011990954;I01GP473;TO;SCIMA_G1I01;RUA VEREADOR NILSON INACIO ALVES IMBITUBA VILLAGE 88780000 SC 232;IMBITUBA;-28.232763900;-48.674690600;GP;SCIMA-I01SP60;SCIMA-I01SP60-SS1;IMA_I01_1_GPON_VLAN_100_101_102-ALC;1/1/3/2
EQP0000000011990824;I01GP954;TO;SCIMA_G1I01;AVENIDA SANTA CATARINA IMBITUBA CENTRO 88780000 SC 788;IMBITUBA;-28.239822700;-48.669270600;GP;SCIMA-I01SP120;SCIMA-I01SP120-SS2;IMA_I01_1_GPON_VLAN_100_101_102-ALC;1/1/5/4
EQP0000000012009377;I01GP676;TO;SCIMA_G1I01;RUA ORDOMIRO FERREIRA IMBITUBA CENTRO 88780000 SC 110;IMBITUBA;-28.244302000;-48.665369000;GP;SCIMA-I01SP85;SCIMA-I01SP85-SS4;IMA_I01_1_GPON_VLAN_100_101_102-ALC;1/1/4/5
EQP0000000193373075;I01G01301;CTO SPLITTER 1 8;SCIMA_G1I01;RUA SANTANA IMBITUBA CAMPO D AVIACAO 88780000 SC 2240;IMBITUBA;-28.273422600;-48.694833900;G0;SCIMA-I01SP163;SCIMA-I01SP163-SS5;IMA_I01_1_GPON_VLAN_100_101_102-ALC;1/1/8/15
EQP0000000012009845;I01G0008;CTO - OPTAP;SCIMA_G1I01;RUA PEDRO JULIO FERRERIA IMBITUBA   88780000 SC SN;IMBITUBA;-28.214823600;-48.675158500;G0;SCIMA-I01SP1;SCIMA-I01SP1-SS8;IMA_I01_1_GPON_VLAN_100_101_102-ALC;1/1/1/1
EQP0000000011991190;I01G01544;CTO - OPTAP;SCIMA_G1I01;RUA PROFESSOR ROGERIO TAVARES IMBITUBA SAGRADA FAMILIA 88780000 SC 456;IMBITUBA;-28.268165600;-48.693687900;G0;SCIMA-I01SP193;SCIMA-I01SP193-SS8;IMA_I01_1_GPON_VLAN_100_101_102-ALC;1/1/7/1
EQP0000000011991190;I01G01544;CTO - OPTAP;SCIMA_G1I01;RUA PROFESSOR ROGERIO TAVARES IMBITUBA SAGRADA FAMILIA 88780000 SC 456;IMBITUBA;-28.268165600;-48.693687900;G0;SCIMA-I01SP193;SCIMA-I01SP193-SS7;IMA_I01_1_GPON_VLAN_100_101_102-ALC;1/1/7/1
EQP0000000012009846;I01G0020;CTO - OPTAP;SCIMA_G1I01;RUA RAUL SILVA IMBITUBA   88780000 SC 357;IMBITUBA;-28.215013700;-48.674411100;G0;SCIMA-I01SP3;SCIMA-I01SP3-SS4;IMA_I01_1_GPON_VLAN_100_101_102-ALC;1/1/1/3
EQP0000000012009846;I01G0020;CTO - OPTAP;SCIMA_G1I01;RUA RAUL SILVA IMBITUBA   88780000 SC 357;IMBITUBA;-28.215013700;-48.674411100;G0;SCIMA-I01SP3;SCIMA-I01SP3-SS3;IMA_I01_1_GPON_VLAN_100_101_102-ALC;1/1/1/3
EQP0000000011991078;I01G0098;CTO - OPTAP;SCIMA_G1I01;RUA SEBASTIAO PAULO DE CAMPOS IMBITUBA VILA ALVORADA 88780000 SC 116;IMBITUBA;-28.220522900;-48.666430000;G0;SCIMA-I01SP13;SCIMA-I01SP13-SS1;IMA_I01_1_GPON_VLAN_100_101_102-ALC;1/1/1/10
EQP0000000011991078;I01G0098;CTO - OPTAP;SCIMA_G1I01;RUA SEBASTIAO PAULO DE CAMPOS IMBITUBA VILA ALVORADA 88780000 SC 116;IMBITUBA;-28.220522900;-48.666430000;G0;SCIMA-I01SP13;SCIMA-I01SP13-SS2;IMA_I01_1_GPON_VLAN_100_101_102-ALC;1/1/1/10
EQP0000000193399983;I01G0389;CTO SPLITTER 1 8;SCIMA_G1I01;RUA PAULO FERREIRA DA SILVA IMBITUBA VILLAGE 88780000 SC 99;IMBITUBA;-28.227795800;-48.670583800;G0;SCIMA-I01SP49;SCIMA-I01SP49-SS5;IMA_I01_1_GPON_VLAN_100_101_102-ALC;1/1/8/12
EQP0000000011990849;I01GP956;TO;SCIMA_G1I01;RUA ERNANI COTRIN IMBITUBA CENTRO 88780000 SC 243;IMBITUBA;-28.239836300;-48.670017400;GP;SCIMA-I01SP120;SCIMA-I01SP120-SS4;IMA_I01_1_GPON_VLAN_100_101_102-ALC;1/1/5/4
EQP0000000011990989;I01GP429;TO;SCIMA_G1I01;RUA MANOEL FORTUNATO IMBITUBA VILLAGE 88780000 SC 317;IMBITUBA;-28.229446200;-48.674215800;GP;SCIMA-I01SP54;SCIMA-I01SP54-SS5;IMA_I01_1_GPON_VLAN_100_101_102-ALC;1/1/2/12
EQP0000000011990731;I01G01850;CTO - OPTAP;SCIMA_G1I01;AVENIDA BRASIL IMBITUBA PAES LEME 88780000 SC 189;IMBITUBA;-28.241740200;-48.674769500;G0;SCIMA-I01SP232;SCIMA-I01SP232-SS1;IMA_I01_1_GPON_VLAN_100_101_102-ALC;1/1/8/9
EQP0000000011990731;I01G01850;CTO - OPTAP;SCIMA_G1I01;AVENIDA BRASIL IMBITUBA PAES LEME 88780000 SC 189;IMBITUBA;-28.241740200;-48.674769500;G0;SCIMA-I01SP232;SCIMA-I01SP232-SS2;IMA_I01_1_GPON_VLAN_100_101_102-ALC;1/1/8/9
EQP0000000107036306;I01GP1603;MINI CDOE 1:2 + 1:8 PRECON SELADA 60/40;SCIMA_G1I01;RUA LOURIVAL RAMOS IMBITUBA   88780000 SC 162;IMBITUBA;-28.270312300;-48.696680000;GP;SCIMA-I01SP201;SCIMA-I01SP201-SS3;IMA_I01_1_GPON_VLAN_100_101_102-ALC;1/1/7/5
EQP0000000193402050;I01G0964;CTO SPLITTER 1 8;SCIMA_G1I01;RUA OSVALDO FREITAS IMBITUBA CENTRO 88780000 SC 228;IMBITUBA;-28.234810600;-48.672143100;G0;SCIMA-I01SP121;SCIMA-I01SP121-SS4;IMA_I01_1_GPON_VLAN_100_101_102-ALC;1/1/8/14
EQP0000000011990934;I01G0570;CTO - OPTAP;SCIMA_G1I01;AVENIDA SANTA CATARINA IMBITUBA CENTRO 88780000 SC 471;IMBITUBA;-28.238309100;-48.666391900;G0;SCIMA-I01SP72;SCIMA-I01SP72-SS1;IMA_I01_1_GPON_VLAN_100_101_102-ALC;1/1/3/13
EQP0000000011990934;I01G0570;CTO - OPTAP;SCIMA_G1I01;AVENIDA SANTA CATARINA IMBITUBA CENTRO 88780000 SC 471;IMBITUBA;-28.238309100;-48.666391900;G0;SCIMA-I01SP72;SCIMA-I01SP72-SS2;IMA_I01_1_GPON_VLAN_100_101_102-ALC;1/1/3/13
EQP0000000011991093;I01G0110;CTO - OPTAP;SCIMA_G1I01;Rua ALVIN AGOSTINHO DE SOUZA IMBITUBA VILA ALVORADA 88780000 SC 42;IMBITUBA;-28.221959300;-48.668613500;G0;SCIMA-I01SP14;SCIMA-I01SP14-SS5;IMA_I01_1_GPON_VLAN_100_101_102-ALC;1/1/1/11
EQP0000000011991093;I01G0110;CTO - OPTAP;SCIMA_G1I01;Rua ALVIN AGOSTINHO DE SOUZA IMBITUBA VILA ALVORADA 88780000 SC 42;IMBITUBA;-28.221959300;-48.668613500;G0;SCIMA-I01SP14;SCIMA-I01SP14-SS6;IMA_I01_1_GPON_VLAN_100_101_102-ALC;1/1/1/11
EQP0000000011990979;I01GP452;TO;SCIMA_G1I01;RUA VEREADOR HENRIQUE BITTENCOURT DE BONNA IMBITUBA   88780000 SC 92;IMBITUBA;-28.232191400;-48.672736300;GP;SCIMA-I01SP57;SCIMA-I01SP57-SS4;IMA_I01_1_GPON_VLAN_100_101_102-ALC;1/1/2/15
EQP0000000011990969;I01GP470;TO;SCIMA_G1I01;RUA MARIO LUIZ FERNANDES IMBITUBA VILLAGE 88780000 SC 269;IMBITUBA;-28.232331500;-48.674877100;GP;SCIMA-I01SP59;SCIMA-I01SP59-SS6;IMA_I01_1_GPON_VLAN_100_101_102-ALC;1/1/3/1
EQP0000000011990746;I01GP1395;TO;SCIMA_G1I01;RUA PIRES SILVEIRA IMBITUBA VILA NOVA 88780000 SC 292;IMBITUBA;-28.262856800;-48.684400500;GP;SCIMA-I01SP175;SCIMA-I01SP175-SS3;IMA_I01_1_GPON_VLAN_100_101_102-ALC;1/1/6/5
EQP0000000012009708;I01G0842;CTO - OPTAP;SCIMA_G1I01;RUA NEREU RAMOS IMBITUBA CENTRO 88780000 SC 119;IMBITUBA;-28.237415800;-48.663301200;G0;SCIMA-I01SP106;SCIMA-I01SP106-SS1;IMA_I01_1_GPON_VLAN_100_101_102-ALC;1/1/4/14
EQP0000000012009708;I01G0842;CTO - OPTAP;SCIMA_G1I01;RUA NEREU RAMOS IMBITUBA CENTRO 88780000 SC 119;IMBITUBA;-28.237415800;-48.663301200;G0;SCIMA-I01SP106;SCIMA-I01SP106-SS2;IMA_I01_1_GPON_VLAN_100_101_102-ALC;1/1/4/14
EQP0000000011991141;I01G01802;CTO - OPTAP;SCIMA_G1I01;RUA PRESALINO PIRES IMBITUBA PAES LEME 88780000 SC 18;IMBITUBA;-28.249283200;-48.677728200;G0;SCIMA-I01SP226;SCIMA-I01SP226-SS2;IMA_I01_1_GPON_VLAN_100_101_102-ALC;1/1/8/3
EQP0000000011991141;I01G01802;CTO - OPTAP;SCIMA_G1I01;RUA PRESALINO PIRES IMBITUBA PAES LEME 88780000 SC 18;IMBITUBA;-28.249283200;-48.677728200;G0;SCIMA-I01SP226;SCIMA-I01SP226-SS1;IMA_I01_1_GPON_VLAN_100_101_102-ALC;1/1/8/3
EQP0000000011991209;I01G01746;CTO - OPTAP;SCIMA_G1I01;RUA SEM NOME 9 IMBITUBA   88780000 SC 16;IMBITUBA;-28.248028400;-48.670820000;G0;SCIMA-I01SP219;SCIMA-I01SP219-SS1;IMA_I01_1_GPON_VLAN_100_101_102-ALC;1/1/8/1
EQP0000000011991209;I01G01746;CTO - OPTAP;SCIMA_G1I01;RUA SEM NOME 9 IMBITUBA   88780000 SC 16;IMBITUBA;-28.248028400;-48.670820000;G0;SCIMA-I01SP219;SCIMA-I01SP219-SS2;IMA_I01_1_GPON_VLAN_100_101_102-ALC;1/1/8/1
EQP0000000012009694;I01G01702;CTO - OPTAP;SCIMA_G1I01;RUA NATUREZA IMBITUBA VILA SANTO ANTONIO 88780000 SC 27;IMBITUBA;-28.258568400;-48.690384600;G0;SCIMA-I01SP213;SCIMA-I01SP213-SS6;IMA_I01_1_GPON_VLAN_100_101_102-ALC;1/1/7/11
EQP0000000149480875;I01GP944-1A;MINI CDOE 1:2 + 1:8 PRECON SELADA 60/40;SCIMA_G1I01;RUA NEREU RAMOS IMBITUBA CENTRO 88780000 SC 668;IMBITUBA;-28.239939700;-48.667715600;GP;SCIMA-I01SP118;SCIMA-I01SP118-SS8;IMA_I01_1_GPON_VLAN_100_101_102-ALC;1/1/5/2
EQP0000000012008152;I01GP1393;TO;SCIMA_G1I01;RUA CORONEL TEIXEIRA IMBITUBA VILA NOVA 88780000 SC 123;IMBITUBA;-28.261098600;-48.685449400;GP;SCIMA-I01SP175;SCIMA-I01SP175-SS1;IMA_I01_1_GPON_VLAN_100_101_102-ALC;1/1/6/5
EQP0000000011991055;I01G0278;CTO - OPTAP;SCIMA_G1I01;RUA DORLIN NUNES IMBITUBA CENTRO 88780000 SC SN;IMBITUBA;-28.235482200;-48.668220800;G0;SCIMA-I01SP35;SCIMA-I01SP35-SS6;IMA_I01_1_GPON_VLAN_100_101_102-ALC;1/1/2/3
EQP0000000011991098;I01G0371;CTO - OPTAP;SCIMA_G1I01;RUA VEREADOR ADRIANO DALBOSCO IMBITUBA RIBANCEIRA 88780000 SC SN;IMBITUBA;-28.222960700;-48.673518500;G0;SCIMA-I01SP47;SCIMA-I01SP47-SS3;IMA_I01_1_GPON_VLAN_100_101_102-ALC;1/1/2/7
EQP0000000011990952;I01G0566;CTO - OPTAP;SCIMA_G1I01;RUA DUQUE DE CAXIAS IMBITUBA CENTRO 88780000 SC 274;IMBITUBA;-28.235986900;-48.664740200;G0;SCIMA-I01SP71;SCIMA-I01SP71-SS6;IMA_I01_1_GPON_VLAN_100_101_102-ALC;1/1/3/12
EQP0000000011990952;I01G0566;CTO - OPTAP;SCIMA_G1I01;RUA DUQUE DE CAXIAS IMBITUBA CENTRO 88780000 SC 274;IMBITUBA;-28.235986900;-48.664740200;G0;SCIMA-I01SP71;SCIMA-I01SP71-SS5;IMA_I01_1_GPON_VLAN_100_101_102-ALC;1/1/3/12
EQP0000000011991113;I01GPF677;TO;SCIMA_G1I01;AVENIDA PRESIDENTE VARGAS IMBITUBA CENTRO 88780000 SC 863;IMBITUBA;-28.244554000;-48.666400100;GPF;SCIMA-I01SP85;SCIMA-I01SP85-SS5;IMA_I01_1_GPON_VLAN_100_101_102-ALC;1/1/4/5
EQP0000000011990880;I01GP729;TO;SCIMA_G1I01;RUA PAULINO MARTINS IMBITUBA CENTRO 88780000 SC 224;IMBITUBA;-28.243123000;-48.663137000;GP;SCIMA-I01SP92;SCIMA-I01SP92-SS1;IMA_I01_1_GPON_VLAN_100_101_102-ALC;1/1/4/6
EQP0000000193336560;I01G0814;CTO SPLITTER 1 8;SCIMA_G1I01;RUA NEREU RAMOS IMBITUBA CENTRO 88780000 SC 927;IMBITUBA;-28.241676000;-48.669897800;G0;SCIMA-I01SP102;SCIMA-I01SP102-SS6;IMA_I01_1_GPON_VLAN_100_101_102-ALC;1/1/8/13
EQP0000000011990748;I01G01514;CTO - OPTAP;SCIMA_G1I01;RUA MANOEL LUCIO MACHADO IMBITUBA VILA SANTO ANTONIO 88780000 SC 281;IMBITUBA;-28.262094800;-48.701574300;G0;SCIMA-I01SP190;SCIMA-I01SP190-SS1;IMA_I01_1_GPON_VLAN_100_101_102-ALC;1/1/6/14
EQP0000000011990748;I01G01514;CTO - OPTAP;SCIMA_G1I01;RUA MANOEL LUCIO MACHADO IMBITUBA VILA SANTO ANTONIO 88780000 SC 281;IMBITUBA;-28.262094800;-48.701574300;G0;SCIMA-I01SP190;SCIMA-I01SP190-SS2;IMA_I01_1_GPON_VLAN_100_101_102-ALC;1/1/6/14
EQP0000000011990845;I01GP957;TO;SCIMA_G1I01;AVENIDA SANTA CATARINA IMBITUBA CENTRO 88780000 SC 433;IMBITUBA;-28.240323000;-48.669617900;GP;SCIMA-I01SP120;SCIMA-I01SP120-SS5;IMA_I01_1_GPON_VLAN_100_101_102-ALC;1/1/5/4
EQP0000000011991202;I01G01750;CTO - OPTAP;SCIMA_G1I01;RUA GREGORIO DE SOUZA IMBITUBA PAES LEME 88780000 SC 205;IMBITUBA;-28.247344200;-48.672787300;G0;SCIMA-I01SP219;SCIMA-I01SP219-SS5;IMA_I01_1_GPON_VLAN_100_101_102-ALC;1/1/8/1
EQP0000000011991202;I01G01750;CTO - OPTAP;SCIMA_G1I01;RUA GREGORIO DE SOUZA IMBITUBA PAES LEME 88780000 SC 205;IMBITUBA;-28.247344200;-48.672787300;G0;SCIMA-I01SP219;SCIMA-I01SP219-SS6;IMA_I01_1_GPON_VLAN_100_101_102-ALC;1/1/8/1
EQP0000000011990802;I01G01262;CTO - OPTAP;SCIMA_G1I01;RUA MANOEL INACIO IMBITUBA VILA NOVA 88780000 SC 476;IMBITUBA;-28.267202800;-48.689906800;G0;SCIMA-I01SP158;SCIMA-I01SP158-SS5;IMA_I01_1_GPON_VLAN_100_101_102-ALC;1/1/5/14
EQP0000000011990802;I01G01262;CTO - OPTAP;SCIMA_G1I01;RUA MANOEL INACIO IMBITUBA VILA NOVA 88780000 SC 476;IMBITUBA;-28.267202800;-48.689906800;G0;SCIMA-I01SP158;SCIMA-I01SP158-SS6;IMA_I01_1_GPON_VLAN_100_101_102-ALC;1/1/5/14
EQP0000000011991066;I01G0184;CTO - OPTAP;SCIMA_G1I01;RUA BELA VISTA IMBITUBA VILA ALVORADA 88780000 SC 208;IMBITUBA;-28.223859000;-48.668785300;G0;SCIMA-I01SP23;SCIMA-I01SP23-SS8;IMA_I01_1_GPON_VLAN_100_101_102-ALC;1/1/1/14
EQP0000000011991066;I01G0184;CTO - OPTAP;SCIMA_G1I01;RUA BELA VISTA IMBITUBA VILA ALVORADA 88780000 SC 208;IMBITUBA;-28.223859000;-48.668785300;G0;SCIMA-I01SP23;SCIMA-I01SP23-SS7;IMA_I01_1_GPON_VLAN_100_101_102-ALC;1/1/1/14
EQP0000000011990988;I01GP427;TO;SCIMA_G1I01;RUA MANOEL FORTUNATO IMBITUBA VILLAGE 88780000 SC 303;IMBITUBA;-28.229702000;-48.673961000;GP;SCIMA-I01SP54;SCIMA-I01SP54-SS3;IMA_I01_1_GPON_VLAN_100_101_102-ALC;1/1/2/12
EQP0000000011990983;I01GP418;TO;SCIMA_G1I01;RUA MANOEL FORTUNATO IMBITUBA VILLAGE 88780000 SC 64;IMBITUBA;-28.230442100;-48.671277400;GP;SCIMA-I01SP53;SCIMA-I01SP53-SS2;IMA_I01_1_GPON_VLAN_100_101_102-ALC;1/1/2/11
EQP0000000011990927;I01G0819;CTO - OPTAP;SCIMA_G1I01;AVENIDA ALVARO CATAO IMBITUBA CENTRO 88780000 SC 58;IMBITUBA;-28.238796300;-48.660454800;G0;SCIMA-I01SP103;SCIMA-I01SP103-SS3;IMA_I01_1_GPON_VLAN_100_101_102-ALC;1/1/4/11
EQP0000000011990945;I01G0840;CTO - OPTAP;SCIMA_G1I01;RUA DONA RUTE DA CRUZ SECCO IMBITUBA CENTRO 88780000 SC 91;IMBITUBA;-28.242821400;-48.666788000;G0;SCIMA-I01SP105;SCIMA-I01SP105-SS7;IMA_I01_1_GPON_VLAN_100_101_102-ALC;1/1/4/13
EQP0000000011990945;I01G0840;CTO - OPTAP;SCIMA_G1I01;RUA DONA RUTE DA CRUZ SECCO IMBITUBA CENTRO 88780000 SC 91;IMBITUBA;-28.242821400;-48.666788000;G0;SCIMA-I01SP105;SCIMA-I01SP105-SS8;IMA_I01_1_GPON_VLAN_100_101_102-ALC;1/1/4/13
EQP0000000193373231;I01G01298;CTO SPLITTER 1 8;SCIMA_G1I01;RUA DOMICIO SEVERINO DE SOUZA IMBITUBA SAGRADA FAMILIA 88780000 SC SN1;IMBITUBA;-28.272127800;-48.696223600;G0;SCIMA-I01SP163;SCIMA-I01SP163-SS2;IMA_I01_1_GPON_VLAN_100_101_102-ALC;1/1/8/15
EQP0000000012009701;I01G01268;CTO - OPTAP;SCIMA_G1I01;AVENIDA RENATO RAMOS DA SILVA IMBITUBA VILA NOVA 88780000 SC 2935;IMBITUBA;-28.263499100;-48.690514700;G0;SCIMA-I01SP159;SCIMA-I01SP159-SS3;IMA_I01_1_GPON_VLAN_100_101_102-ALC;1/1/5/15
EQP0000000012009701;I01G01268;CTO - OPTAP;SCIMA_G1I01;AVENIDA RENATO RAMOS DA SILVA IMBITUBA VILA NOVA 88780000 SC 2935;IMBITUBA;-28.263499100;-48.690514700;G0;SCIMA-I01SP159;SCIMA-I01SP159-SS4;IMA_I01_1_GPON_VLAN_100_101_102-ALC;1/1/5/15
EQP0000000012009366;I01GP476;TO;SCIMA_G1I01;RUA VEREADOR NILSON INACIO ALVES IMBITUBA VILLAGE 88780000 SC 268;IMBITUBA;-28.232617000;-48.675126000;GP;SCIMA-I01SP60;SCIMA-I01SP60-SS4;IMA_I01_1_GPON_VLAN_100_101_102-ALC;1/1/3/2
EQP0000000011990937;I01GP507;TO;SCIMA_G1I01;RUA ERNANI COTRIN IMBITUBA CENTRO 88780000 SC 580;IMBITUBA;-28.236159600;-48.672337700;GP;SCIMA-I01SP64;SCIMA-I01SP64-SS3;IMA_I01_1_GPON_VLAN_100_101_102-ALC;1/1/3/5
EQP0000000011990894;I01G0852;CTO - OPTAP;SCIMA_G1I01;RUA NEREU RAMOS IMBITUBA CENTRO 88780000 SC 663;IMBITUBA;-28.240231800;-48.667618200;G0;SCIMA-I01SP107;SCIMA-I01SP107-SS3;IMA_I01_1_GPON_VLAN_100_101_102-ALC;1/1/4/15
EQP0000000011990894;I01G0852;CTO - OPTAP;SCIMA_G1I01;RUA NEREU RAMOS IMBITUBA CENTRO 88780000 SC 663;IMBITUBA;-28.240231800;-48.667618200;G0;SCIMA-I01SP107;SCIMA-I01SP107-SS4;IMA_I01_1_GPON_VLAN_100_101_102-ALC;1/1/4/15
EQP0000000011990871;I01GP942;TO;SCIMA_G1I01;RUA IRINEU BORNHAUSEN IMBITUBA CENTRO 88780000 SC 143;IMBITUBA;-28.239556700;-48.667750800;GP;SCIMA-I01SP118;SCIMA-I01SP118-SS6;IMA_I01_1_GPON_VLAN_100_101_102-ALC;1/1/5/2
EQP0000000011991207;I01G01748;CTO - OPTAP;SCIMA_G1I01;AVENIDA PRESIDENTE VARGAS IMBITUBA PAES LEME 88780000 SC SN;IMBITUBA;-28.248328800;-48.671801100;G0;SCIMA-I01SP219;SCIMA-I01SP219-SS4;IMA_I01_1_GPON_VLAN_100_101_102-ALC;1/1/8/1
EQP0000000011991207;I01G01748;CTO - OPTAP;SCIMA_G1I01;AVENIDA PRESIDENTE VARGAS IMBITUBA PAES LEME 88780000 SC SN;IMBITUBA;-28.248328800;-48.671801100;G0;SCIMA-I01SP219;SCIMA-I01SP219-SS3;IMA_I01_1_GPON_VLAN_100_101_102-ALC;1/1/8/1
EQP0000000011990793;I01G01426;CTO - OPTAP;SCIMA_G1I01;RUA MANOEL ARAUJO IMBITUBA VILA NOVA 88780000 SC 65;IMBITUBA;-28.257703900;-48.684304100;G0;SCIMA-I01SP179;SCIMA-I01SP179-SS1;IMA_I01_1_GPON_VLAN_100_101_102-ALC;1/1/6/9
EQP0000000011990793;I01G01426;CTO - OPTAP;SCIMA_G1I01;RUA MANOEL ARAUJO IMBITUBA VILA NOVA 88780000 SC 65;IMBITUBA;-28.257703900;-48.684304100;G0;SCIMA-I01SP179;SCIMA-I01SP179-SS2;IMA_I01_1_GPON_VLAN_100_101_102-ALC;1/1/6/9
EQP0000000011990888;I01GP766;TO;SCIMA_G1I01;AVENIDA ALVARO CATAO IMBITUBA CENTRO 88780000 SC 650;IMBITUBA;-28.242079800;-48.665817300;GP;SCIMA-I01SP96;SCIMA-I01SP96-SS6;IMA_I01_1_GPON_VLAN_100_101_102-ALC;1/1/4/10
EQP0000000011991144;I01G01808;CTO - OPTAP;SCIMA_G1I01;RUA SANTA CATARINA IMBITUBA PAES LEME 88780000 SC 1589;IMBITUBA;-28.244751400;-48.674959600;G0;SCIMA-I01SP226;SCIMA-I01SP226-SS7;IMA_I01_1_GPON_VLAN_100_101_102-ALC;1/1/8/3
EQP0000000011991144;I01G01808;CTO - OPTAP;SCIMA_G1I01;RUA SANTA CATARINA IMBITUBA PAES LEME 88780000 SC 1589;IMBITUBA;-28.244751400;-48.674959600;G0;SCIMA-I01SP226;SCIMA-I01SP226-SS8;IMA_I01_1_GPON_VLAN_100_101_102-ALC;1/1/8/3
EQP0000000011991176;I01GP1602;TO;SCIMA_G1I01;RUA LOURIVAL RAMOS IMBITUBA   88780000 SC 144;IMBITUBA;-28.270436000;-48.696456100;GP;SCIMA-I01SP201;SCIMA-I01SP201-SS2;IMA_I01_1_GPON_VLAN_100_101_102-ALC;1/1/7/5
EQP0000000011990996;I01GP406;TO;SCIMA_G1I01;RUA ALDO PITIGLIANI IMBITUBA VILLAGE 88780000 SC 33;IMBITUBA;-28.229857600;-48.670617900;GP;SCIMA-I01SP51;SCIMA-I01SP51-SS6;IMA_I01_1_GPON_VLAN_100_101_102-ALC;1/1/2/9
EQP0000000011990997;I01GP408;TO;SCIMA_G1I01;RUA ALDO PITIGLIANI IMBITUBA VILLAGE 88780000 SC 71;IMBITUBA;-28.229601500;-48.671125400;GP;SCIMA-I01SP51;SCIMA-I01SP51-SS8;IMA_I01_1_GPON_VLAN_100_101_102-ALC;1/1/2/9
EQP0000000011990904;I01G0755;CTO - OPTAP;SCIMA_G1I01;RUA ORDOMIRO FERREIRA IMBITUBA CENTRO 88780000 SC 94;IMBITUBA;-28.244393300;-48.665176900;G0;SCIMA-I01SP95;SCIMA-I01SP95-SS3;IMA_I01_1_GPON_VLAN_100_101_102-ALC;1/1/4/9
EQP0000000011990890;I01G0846;CTO - OPTAP;SCIMA_G1I01;RUA NEREU RAMOS IMBITUBA CENTRO 88780000 SC 569;IMBITUBA;-28.238991800;-48.665724900;G0;SCIMA-I01SP106;SCIMA-I01SP106-SS5;IMA_I01_1_GPON_VLAN_100_101_102-ALC;1/1/4/14
EQP0000000011990890;I01G0846;CTO - OPTAP;SCIMA_G1I01;RUA NEREU RAMOS IMBITUBA CENTRO 88780000 SC 569;IMBITUBA;-28.238991800;-48.665724900;G0;SCIMA-I01SP106;SCIMA-I01SP106-SS6;IMA_I01_1_GPON_VLAN_100_101_102-ALC;1/1/4/14
EQP0000000011991007;I01G0527;CTO - OPTAP;SCIMA_G1I01;RUA ERNANI COTRIN IMBITUBA CENTRO 88780000 SC 592;IMBITUBA;-28.237339500;-48.671212000;G0;SCIMA-I01SP66;SCIMA-I01SP66-SS7;IMA_I01_1_GPON_VLAN_100_101_102-ALC;1/1/3/7
EQP0000000011991166;I01GP1705;TO;SCIMA_G1I01;AVENIDA BRASIL IMBITUBA PAES LEME 88780000 SC 752;IMBITUBA;-28.244940300;-48.676888600;GP;SCIMA-I01SP214;SCIMA-I01SP214-SS1;IMA_I01_1_GPON_VLAN_100_101_102-ALC;1/1/7/12
EQP0000000011990858;I01G01216;CTO - OPTAP;SCIMA_G1I01;RUA LINO OLIVEIRA SOARES IMBITUBA VILA NOVA 88780000 SC SN;IMBITUBA;-28.269395000;-48.693971700;G0;SCIMA-I01SP152;SCIMA-I01SP152-SS8;IMA_I01_1_GPON_VLAN_100_101_102-ALC;1/1/5/8
EQP0000000011990858;I01G01216;CTO - OPTAP;SCIMA_G1I01;RUA LINO OLIVEIRA SOARES IMBITUBA VILA NOVA 88780000 SC SN;IMBITUBA;-28.269395000;-48.693971700;G0;SCIMA-I01SP152;SCIMA-I01SP152-SS7;IMA_I01_1_GPON_VLAN_100_101_102-ALC;1/1/5/8
EQP0000000011991160;I01GPT1722;TO;SCIMA_G1I01;AVENIDA BRASIL IMBITUBA PAES LEME 88780000 SC 330;IMBITUBA;-28.241543600;-48.674755500;GPT;SCIMA-I01SP216;SCIMA-I01SP216-SS2;IMA_I01_1_GPON_VLAN_100_101_102-ALC;1/1/7/14
EQP0000000011990833;I01G01158;CTO - OPTAP;SCIMA_G1I01;RUA PEDRO DE CARVALHO IMBITUBA CAMPO D AVIACAO 88780000 SC 100;IMBITUBA;-28.273625500;-48.695788600;G0;SCIMA-I01SP145;SCIMA-I01SP145-SS5;IMA_I01_1_GPON_VLAN_100_101_102-ALC;1/1/5/5
EQP0000000011990833;I01G01158;CTO - OPTAP;SCIMA_G1I01;RUA PEDRO DE CARVALHO IMBITUBA CAMPO D AVIACAO 88780000 SC 100;IMBITUBA;-28.273625500;-48.695788600;G0;SCIMA-I01SP145;SCIMA-I01SP145-SS6;IMA_I01_1_GPON_VLAN_100_101_102-ALC;1/1/5/5
EQP0000000011990503;I01G01630;CTO - OPTAP;SCIMA_G1I01;RUA PEDRO BITTENCOURT IMBITUBA VILA SANTO ANTONIO 88780000 SC 19;IMBITUBA;-28.263675300;-48.693048300;G0;SCIMA-I01SP204;SCIMA-I01SP204-SS5;IMA_I01_1_GPON_VLAN_100_101_102-ALC;1/1/7/8
EQP0000000011990503;I01G01630;CTO - OPTAP;SCIMA_G1I01;RUA PEDRO BITTENCOURT IMBITUBA VILA SANTO ANTONIO 88780000 SC 19;IMBITUBA;-28.263675300;-48.693048300;G0;SCIMA-I01SP204;SCIMA-I01SP204-SS6;IMA_I01_1_GPON_VLAN_100_101_102-ALC;1/1/7/8
EQP0000000012009373;I01GP407;TO;SCIMA_G1I01;RUA ALDO PITIGLIANI IMBITUBA VILLAGE 88780000 SC 57;IMBITUBA;-28.229646700;-48.671037200;GP;SCIMA-I01SP51;SCIMA-I01SP51-SS7;IMA_I01_1_GPON_VLAN_100_101_102-ALC;1/1/2/9
EQP0000000011991102;I01G0369;CTO - OPTAP;SCIMA_G1I01;AVENIDA MARIETA KONDER BORNHAUSEN IMBITUBA RIBANCEIRA 88780000 SC 96;IMBITUBA;-28.220542700;-48.672941200;G0;SCIMA-I01SP47;SCIMA-I01SP47-SS1;IMA_I01_1_GPON_VLAN_100_101_102-ALC;1/1/2/7
EQP0000000011990766;I01G01681;CTO - OPTAP;SCIMA_G1I01;RUA JULIO VERGILIO DA SILVA IMBITUBA VILA SANTO ANTONIO 88780000 SC SN;IMBITUBA;-28.257564900;-48.693319700;G0;SCIMA-I01SP211;SCIMA-I01SP211-SS1;IMA_I01_1_GPON_VLAN_100_101_102-ALC;1/1/7/9
EQP0000000011990751;I01G01449;CTO - OPTAP;SCIMA_G1I01;RUA PRESIDENTE GROFF IMBITUBA PORTO DA VILA 88780000 SC 400;IMBITUBA;-28.272365900;-48.700760500;G0;SCIMA-I01SP182;SCIMA-I01SP182-SS1;IMA_I01_1_GPON_VLAN_100_101_102-ALC;1/1/6/12
EQP0000000193400046;I01G0388;CTO SPLITTER 1 8;SCIMA_G1I01;RUA VEREADOR ADRIANO DALBOSCO IMBITUBA RIBANCEIRA 88780000 SC 18;IMBITUBA;-28.224975300;-48.673696400;G0;SCIMA-I01SP49;SCIMA-I01SP49-SS4;IMA_I01_1_GPON_VLAN_100_101_102-ALC;1/1/8/12
EQP0000000011990777;I01G01441;CTO - OPTAP;SCIMA_G1I01;RUA ANTONIO MANOEL FELICIANO IMBITUBA PORTO DA VILA 88780000 SC 275;IMBITUBA;-28.266482600;-48.704346500;G0;SCIMA-I01SP181;SCIMA-I01SP181-SS1;IMA_I01_1_GPON_VLAN_100_101_102-ALC;1/1/6/11
EQP0000000193336131;I01G0816;CTO SPLITTER 1 8;SCIMA_G1I01;AVENIDA DOUTOR JOAO RIMSA IMBITUBA CENTRO 88780000 SC 988;IMBITUBA;-28.241283100;-48.667854800;G0;SCIMA-I01SP102;SCIMA-I01SP102-SS8;IMA_I01_1_GPON_VLAN_100_101_102-ALC;1/1/8/13
EQP0000000107049151;I01GP640;MINI CDOE 1:2 + 1:8 PRECON SELADA 60/40;SCIMA_G1I01;AVENIDA DOUTOR JOAO RIMSA IMBITUBA CENTRO 88780000 SC 456;IMBITUBA;-28.238201400;-48.663083500;GP;SCIMA-I01SP80;SCIMA-I01SP80-SS8;IMA_I01_1_GPON_VLAN_100_101_102-ALC;1/1/3/16
EQP0000000011990987;I01GP426;TO;SCIMA_G1I01;RUA MANOEL FORTUNATO IMBITUBA VILLAGE 88780000 SC 297;IMBITUBA;-28.229766900;-48.673814300;GP;SCIMA-I01SP54;SCIMA-I01SP54-SS2;IMA_I01_1_GPON_VLAN_100_101_102-ALC;1/1/2/12
EQP0000000011991019;I01GP281;TO;SCIMA_G1I01;RUA JORGE LACERDA IMBITUBA   88780000 SC 59;IMBITUBA;-28.236711200;-48.666793700;GP;SCIMA-I01SP36;SCIMA-I01SP36-SS1;IMA_I01_1_GPON_VLAN_100_101_102-ALC;1/1/2/4
EQP0000000012009703;I01G01168;CTO - OPTAP;SCIMA_G1I01;RUA SAO PAULO IMBITUBA CAMPO D AVIACAO 88780000 SC 108;IMBITUBA;-28.274188200;-48.695943600;G0;SCIMA-I01SP146;SCIMA-I01SP146-SS8;IMA_I01_1_GPON_VLAN_100_101_102-ALC;1/1/5/6
EQP0000000012009703;I01G01168;CTO - OPTAP;SCIMA_G1I01;RUA SAO PAULO IMBITUBA CAMPO D AVIACAO 88780000 SC 108;IMBITUBA;-28.274188200;-48.695943600;G0;SCIMA-I01SP146;SCIMA-I01SP146-SS7;IMA_I01_1_GPON_VLAN_100_101_102-ALC;1/1/5/6
EQP0000000011991194;I01GPF1617;TO;SCIMA_G1I01;AVENIDA RENATO RAMOS DA SILVA IMBITUBA VILA NOVA 88780000 SC 3639;IMBITUBA;-28.266658000;-48.696963200;GPF;SCIMA-I01SP203;SCIMA-I01SP203-SS1;IMA_I01_1_GPON_VLAN_100_101_102-ALC;1/1/7/7
EQP0000000011991050;I01G0120;CTO - OPTAP;SCIMA_G1I01;RUA SEBASTIAO PAULO DE CAMPOS IMBITUBA VILA ALVORADA 88780000 SC 153;IMBITUBA;-28.222494600;-48.666619900;G0;SCIMA-I01SP15;SCIMA-I01SP15-SS8;IMA_I01_1_GPON_VLAN_100_101_102-ALC;1/1/1/12
EQP0000000011991050;I01G0120;CTO - OPTAP;SCIMA_G1I01;RUA SEBASTIAO PAULO DE CAMPOS IMBITUBA VILA ALVORADA 88780000 SC 153;IMBITUBA;-28.222494600;-48.666619900;G0;SCIMA-I01SP15;SCIMA-I01SP15-SS7;IMA_I01_1_GPON_VLAN_100_101_102-ALC;1/1/1/12
EQP0000000011990982;I01GP417;TO;SCIMA_G1I01;RUA MANOEL FORTUNATO IMBITUBA VILLAGE 88780000 SC 50;IMBITUBA;-28.230507100;-48.671156800;GP;SCIMA-I01SP53;SCIMA-I01SP53-SS1;IMA_I01_1_GPON_VLAN_100_101_102-ALC;1/1/2/11
EQP0000000011991126;I01G0026;CTO - OPTAP;SCIMA_G1I01;RUA BRAULINO TRAJANO DE MIRANDA IMBITUBA   88780000 SC 690;IMBITUBA;-28.217955300;-48.679174300;G0;SCIMA-I01SP4;SCIMA-I01SP4-SS2;IMA_I01_1_GPON_VLAN_100_101_102-ALC;1/1/1/4
EQP0000000011991126;I01G0026;CTO - OPTAP;SCIMA_G1I01;RUA BRAULINO TRAJANO DE MIRANDA IMBITUBA   88780000 SC 690;IMBITUBA;-28.217955300;-48.679174300;G0;SCIMA-I01SP4;SCIMA-I01SP4-SS1;IMA_I01_1_GPON_VLAN_100_101_102-ALC;1/1/1/4
EQP0000000011991015;I01GP411;TO;SCIMA_G1I01;RUA ALDO PITIGLIANI IMBITUBA VILLAGE 88780000 SC 144;IMBITUBA;-28.229123900;-48.671619900;GP;SCIMA-I01SP52;SCIMA-I01SP52-SS3;IMA_I01_1_GPON_VLAN_100_101_102-ALC;1/1/2/10
EQP0000000011991182;I01G01608;CTO - OPTAP;SCIMA_G1I01;RUA LOURIVAL RAMOS IMBITUBA SAGRADA FAMILIA 88780000 SC SN;IMBITUBA;-28.268749300;-48.700445800;G0;SCIMA-I01SP201;SCIMA-I01SP201-SS7;IMA_I01_1_GPON_VLAN_100_101_102-ALC;1/1/7/5
EQP0000000011991182;I01G01608;CTO - OPTAP;SCIMA_G1I01;RUA LOURIVAL RAMOS IMBITUBA SAGRADA FAMILIA 88780000 SC SN;IMBITUBA;-28.268749300;-48.700445800;G0;SCIMA-I01SP201;SCIMA-I01SP201-SS8;IMA_I01_1_GPON_VLAN_100_101_102-ALC;1/1/7/5
EQP0000000011991186;I01GP1715;TO;SCIMA_G1I01;RUA SANTA CATARINA IMBITUBA PAES LEME 88780000 SC 1400;IMBITUBA;-28.242813500;-48.674349300;GP;SCIMA-I01SP215;SCIMA-I01SP215-SS3;IMA_I01_1_GPON_VLAN_100_101_102-ALC;1/1/7/13
EQP0000000011991023;I01GP273;TO;SCIMA_G1I01;RUA ADEMAR FERREIRA IMBITUBA CENTRO 88780000 SC 23;IMBITUBA;-28.235370000;-48.663583500;GP;SCIMA-I01SP35;SCIMA-I01SP35-SS1;IMA_I01_1_GPON_VLAN_100_101_102-ALC;1/1/2/3
EQP0000000011990975;I01GP461;TO;SCIMA_G1I01;RUA MARIO LUIZ FERNANDES IMBITUBA VILLAGE 88780000 SC 535;IMBITUBA;-28.232738000;-48.673389200;GP;SCIMA-I01SP58;SCIMA-I01SP58-SS5;IMA_I01_1_GPON_VLAN_100_101_102-ALC;1/1/2/16
EQP0000000011990757;I01G01689;CTO - OPTAP;SCIMA_G1I01;AVENIDA RENATO RAMOS DA SILVA IMBITUBA PAES LEME 88780000 SC 1081;IMBITUBA;-28.250536600;-48.679224000;G0;SCIMA-I01SP212;SCIMA-I01SP212-SS1;IMA_I01_1_GPON_VLAN_100_101_102-ALC;1/1/7/10
EQP0000000193337981;I01G01679;CTO SPLITTER 1 8;SCIMA_G1I01;RUA PEDRO ANTONIO GONCALVES IMBITUBA VILA SANTO ANTONIO 88780000 SC 65;IMBITUBA;-28.259905600;-48.694263900;G0;SCIMA-I01SP210;SCIMA-I01SP210-SS7;IMA_I01_1_GPON_VLAN_100_101_102-ALC;1/1/3/10
EQP0000000012001378;I01GP466;TO;SCIMA_G1I01;RUA MARIO LUIZ FERNANDES IMBITUBA VILLAGE 88780000 SC 294;IMBITUBA;-28.232028900;-48.675092600;GP;SCIMA-I01SP59;SCIMA-I01SP59-SS2;IMA_I01_1_GPON_VLAN_100_101_102-ALC;1/1/3/1
EQP0000000011991009;I01GP468;TO;SCIMA_G1I01;RUA MARIO LUIZ FERNANDES IMBITUBA VILLAGE 88780000 SC 293;IMBITUBA;-28.232237400;-48.675172300;GP;SCIMA-I01SP59;SCIMA-I01SP59-SS4;IMA_I01_1_GPON_VLAN_100_101_102-ALC;1/1/3/1
EQP0000000011991168;I01GP1707;TO;SCIMA_G1I01;RUA VILMAR GOULART PEREIRA IMBITUBA PAES LEME 88780000 SC 124;IMBITUBA;-28.244478300;-48.677781100;GP;SCIMA-I01SP214;SCIMA-I01SP214-SS3;IMA_I01_1_GPON_VLAN_100_101_102-ALC;1/1/7/12
EQP0000000193337088;I01G0812;CTO SPLITTER 1 8;SCIMA_G1I01;AVENIDA BRASIL IMBITUBA PAES LEME 88780000 SC 478;IMBITUBA;-28.242259200;-48.675516000;G0;SCIMA-I01SP102;SCIMA-I01SP102-SS4;IMA_I01_1_GPON_VLAN_100_101_102-ALC;1/1/8/13
EQP0000000011990799;I01G01388;CTO - OPTAP;SCIMA_G1I01;RUA DOS PROFESSORES IMBITUBA VILA NOVA 88780000 SC SN;IMBITUBA;-28.263381800;-48.687460900;G0;SCIMA-I01SP174;SCIMA-I01SP174-SS3;IMA_I01_1_GPON_VLAN_100_101_102-ALC;1/1/6/4
EQP0000000011990799;I01G01388;CTO - OPTAP;SCIMA_G1I01;RUA DOS PROFESSORES IMBITUBA VILA NOVA 88780000 SC SN;IMBITUBA;-28.263381800;-48.687460900;G0;SCIMA-I01SP174;SCIMA-I01SP174-SS4;IMA_I01_1_GPON_VLAN_100_101_102-ALC;1/1/6/4
EQP0000000011990788;I01GP1339;TO;SCIMA_G1I01;AVENIDA ESTRELA IMBITUBA VILA NOVA 88780000 SC 211;IMBITUBA;-28.264712600;-48.686595800;GP;SCIMA-I01SP168;SCIMA-I01SP168-SS3;IMA_I01_1_GPON_VLAN_100_101_102-ALC;1/1/6/3
EQP0000000011990826;I01G01273;CTO - OPTAP;SCIMA_G1I01;RUA HANS DIETER SCHMIDT IMBITUBA VILA NOVA 88780000 SC 65;IMBITUBA;-28.266078400;-48.683393100;G0;SCIMA-I01SP160;SCIMA-I01SP160-SS1;IMA_I01_1_GPON_VLAN_100_101_102-ALC;1/1/5/16
EQP0000000011991034;I01G0499;CTO - OPTAP;SCIMA_G1I01;RUA ANTONIO THOMAZ PAIM IMBITUBA VILLAGE 88780000 SC 77;IMBITUBA;-28.231940400;-48.671594100;G0;SCIMA-I01SP63;SCIMA-I01SP63-SS3;IMA_I01_1_GPON_VLAN_100_101_102-ALC;1/1/3/4
EQP0000000193372949;I01G01303;CTO SPLITTER 1 8;SCIMA_G1I01;RUA MANOEL SERAFIM IMBITUBA VILA NOVA 88780000 SC 358;IMBITUBA;-28.268447900;-48.689277800;G0;SCIMA-I01SP163;SCIMA-I01SP163-SS7;IMA_I01_1_GPON_VLAN_100_101_102-ALC;1/1/8/15
EQP0000000193376335;I01G01529;CTO SPLITTER 1 8;SCIMA_G1I01;RUA PALHOCA IMBITUBA VILA NOVA 88780000 SC 75;IMBITUBA;-28.264650000;-48.694233500;G0;SCIMA-I01SP192;SCIMA-I01SP192-SS1;IMA_I01_1_GPON_VLAN_100_101_102-ALC;1/1/6/16
EQP0000000012009841;I01G0086;CTO - OPTAP;SCIMA_G1I01;RUA JUCELI MARQUES IMBITUBA   88780000 SC 53;IMBITUBA;-28.218240700;-48.672842500;G0;SCIMA-I01SP11;SCIMA-I01SP11-SS6;IMA_I01_1_GPON_VLAN_100_101_102-ALC;1/1/1/8
EQP0000000012009841;I01G0086;CTO - OPTAP;SCIMA_G1I01;RUA JUCELI MARQUES IMBITUBA   88780000 SC 53;IMBITUBA;-28.218240700;-48.672842500;G0;SCIMA-I01SP11;SCIMA-I01SP11-SS5;IMA_I01_1_GPON_VLAN_100_101_102-ALC;1/1/1/8
EQP0000000011990790;I01GPF1337;TO;SCIMA_G1I01;AVENIDA ESTRELA IMBITUBA VILA NOVA 88780000 SC 141;IMBITUBA;-28.263708100;-48.685523100;GPF;;S8_1;;
EQP0000000011991170;I01G01758;CTO - OPTAP;SCIMA_G1I01;RUA PRESALINO PIRES IMBITUBA PAES LEME 88780000 SC 1593;IMBITUBA;-28.246146300;-48.674907500;G0;SCIMA-I01SP220;SCIMA-I01SP220-SS5;IMA_I01_1_GPON_VLAN_100_101_102-ALC;1/1/8/2
EQP0000000011991170;I01G01758;CTO - OPTAP;SCIMA_G1I01;RUA PRESALINO PIRES IMBITUBA PAES LEME 88780000 SC 1593;IMBITUBA;-28.246146300;-48.674907500;G0;SCIMA-I01SP220;SCIMA-I01SP220-SS6;IMA_I01_1_GPON_VLAN_100_101_102-ALC;1/1/8/2
EQP0000000012001590;I01G0534;CTO - OPTAP;SCIMA_G1I01;RUA ADELFO PAMATO IMBITUBA CENTRO 88780000 SC 740;IMBITUBA;-28.235927200;-48.675930800;G0;SCIMA-I01SP67;SCIMA-I01SP67-SS6;IMA_I01_1_GPON_VLAN_100_101_102-ALC;1/1/3/8
EQP0000000011990878;I01G01210;CTO - OPTAP;SCIMA_G1I01;RUA SANTA LUZIA IMBITUBA CAMPO D AVIACAO 88780000 SC SN;IMBITUBA;-28.272064700;-48.692611200;G0;SCIMA-I01SP152;SCIMA-I01SP152-SS2;IMA_I01_1_GPON_VLAN_100_101_102-ALC;1/1/5/8
EQP0000000011990878;I01G01210;CTO - OPTAP;SCIMA_G1I01;RUA SANTA LUZIA IMBITUBA CAMPO D AVIACAO 88780000 SC SN;IMBITUBA;-28.272064700;-48.692611200;G0;SCIMA-I01SP152;SCIMA-I01SP152-SS1;IMA_I01_1_GPON_VLAN_100_101_102-ALC;1/1/5/8
EQP0000000011990770;I01G01456;CTO - OPTAP;SCIMA_G1I01;RUA SEVERINO HORACIO MARCELINO IMBITUBA PORTO DA VILA 88780000 SC 75;IMBITUBA;-28.265801800;-48.702601800;G0;SCIMA-I01SP182;SCIMA-I01SP182-SS8;IMA_I01_1_GPON_VLAN_100_101_102-ALC;1/1/6/12
EQP0000000011991068;I01G0114;CTO - OPTAP;SCIMA_G1I01;RUA ANTONIO OLEIRO IMBITUBA VILA ALVORADA 88780000 SC 250;IMBITUBA;-28.226814700;-48.668933100;G0;SCIMA-I01SP15;SCIMA-I01SP15-SS2;IMA_I01_1_GPON_VLAN_100_101_102-ALC;1/1/1/12
EQP0000000011991068;I01G0114;CTO - OPTAP;SCIMA_G1I01;RUA ANTONIO OLEIRO IMBITUBA VILA ALVORADA 88780000 SC 250;IMBITUBA;-28.226814700;-48.668933100;G0;SCIMA-I01SP15;SCIMA-I01SP15-SS1;IMA_I01_1_GPON_VLAN_100_101_102-ALC;1/1/1/12
EQP0000000012009375;I01GP289;TO;SCIMA_G1I01;AVENIDA VINTE E UM DE JUNHO IMBITUBA RIBANCEIRA 88780000 SC 277;IMBITUBA;-28.226398700;-48.672738000;GP;SCIMA-I01SP37;SCIMA-I01SP37-SS1;IMA_I01_1_GPON_VLAN_100_101_102-ALC;1/1/2/5
EQP0000000193399756;I01G0392;CTO SPLITTER 1 8;SCIMA_G1I01;RUA JOSE CORREA IMBITUBA VILLAGE 88780000 SC 267;IMBITUBA;-28.229256500;-48.672856200;G0;SCIMA-I01SP49;SCIMA-I01SP49-SS8;IMA_I01_1_GPON_VLAN_100_101_102-ALC;1/1/8/12
EQP0000000193393868;I01G01436;CTO SPLITTER 1 8;SCIMA_G1I01;AVENIDA RENATO RAMOS DA SILVA IMBITUBA VILA NOVA 88780000 SC 2225;IMBITUBA;-28.257960900;-48.686178100;G0;SCIMA-I01SP180;SCIMA-I01SP180-SS4;IMA_I01_1_GPON_VLAN_100_101_102-ALC;1/1/6/10
EQP0000000011990907;I01G0757;CTO - OPTAP;SCIMA_G1I01;RUA MANOEL ANTONIO DE SOUZA IMBITUBA CENTRO 88780000 SC 730;IMBITUBA;-28.246127500;-48.666342300;G0;SCIMA-I01SP95;SCIMA-I01SP95-SS5;IMA_I01_1_GPON_VLAN_100_101_102-ALC;1/1/4/9
EQP0000000011991198;I01G01558;CTO - OPTAP;SCIMA_G1I01;RUA RUI BARBOSA IMBITUBA SAGRADA FAMILIA 88780000 SC 113;IMBITUBA;-28.267921100;-48.697242000;G0;SCIMA-I01SP195;SCIMA-I01SP195-SS6;IMA_I01_1_GPON_VLAN_100_101_102-ALC;1/1/7/3
EQP0000000011991198;I01G01558;CTO - OPTAP;SCIMA_G1I01;RUA RUI BARBOSA IMBITUBA SAGRADA FAMILIA 88780000 SC 113;IMBITUBA;-28.267921100;-48.697242000;G0;SCIMA-I01SP195;SCIMA-I01SP195-SS5;IMA_I01_1_GPON_VLAN_100_101_102-ALC;1/1/7/3
EQP0000000011991087;I01G0090;CTO - OPTAP;SCIMA_G1I01;RUA NASCER DO SOL IMBITUBA VILA NOVA ALVORADA 88780000 SC 30;IMBITUBA;-28.214649200;-48.670175400;G0;SCIMA-I01SP12;SCIMA-I01SP12-SS2;IMA_I01_1_GPON_VLAN_100_101_102-ALC;1/1/1/9
EQP0000000011991087;I01G0090;CTO - OPTAP;SCIMA_G1I01;RUA NASCER DO SOL IMBITUBA VILA NOVA ALVORADA 88780000 SC 30;IMBITUBA;-28.214649200;-48.670175400;G0;SCIMA-I01SP12;SCIMA-I01SP12-SS1;IMA_I01_1_GPON_VLAN_100_101_102-ALC;1/1/1/9
EQP0000000011990792;I01G01428;CTO - OPTAP;SCIMA_G1I01;RUA SANTANA IMBITUBA VILA NOVA 88780000 SC 161;IMBITUBA;-28.258696700;-48.684610000;G0;SCIMA-I01SP179;SCIMA-I01SP179-SS4;IMA_I01_1_GPON_VLAN_100_101_102-ALC;1/1/6/9
EQP0000000011990792;I01G01428;CTO - OPTAP;SCIMA_G1I01;RUA SANTANA IMBITUBA VILA NOVA 88780000 SC 161;IMBITUBA;-28.258696700;-48.684610000;G0;SCIMA-I01SP179;SCIMA-I01SP179-SS3;IMA_I01_1_GPON_VLAN_100_101_102-ALC;1/1/6/9
EQP0000000011991069;I01G0170;CTO - OPTAP;SCIMA_G1I01;RUA ITAGIBA IMBITUBA VILA ALVORADA 88780000 SC 87;IMBITUBA;-28.229299800;-48.663081900;G0;SCIMA-I01SP22;SCIMA-I01SP22-SS2;IMA_I01_1_GPON_VLAN_100_101_102-ALC;1/1/1/13
EQP0000000011991069;I01G0170;CTO - OPTAP;SCIMA_G1I01;RUA ITAGIBA IMBITUBA VILA ALVORADA 88780000 SC 87;IMBITUBA;-28.229299800;-48.663081900;G0;SCIMA-I01SP22;SCIMA-I01SP22-SS1;IMA_I01_1_GPON_VLAN_100_101_102-ALC;1/1/1/13
