UID_EQUIP;CTO_NAME;MODELO;ARMARIO;ENDERECO;MUNICIPIO;LATITUDE;LONGITUDE;TIPO_CTO;SP;SS
EQP0000000070021619;I01G0080;CTO - OPTAP-B 90/10;ESSMJ_G1I01;RUA HENRIQUE EGGERT SANTA MARIA DE JETIBA SAO SEBASTIAO DO MEIO 29645000 ES SN;SANTA MARIA DE JETIBA;-20.029935600;-40.757017100;G0;ESSMJ-I01SP10;ESSMJ-I01SP10-SS8
EQP0000000069919910;I01G0453;CTO - OPTAP-B 85/15;ESSMJ_G1I01;RUA TERESA STORCK SANTA MARIA DE JETIBA VILA NOVA 29645000 ES SN;SANTA MARIA DE JETIBA;-20.017065500;-40.752100700;G0;ESSMJ-I01SP57;ESSMJ-I01SP57-SS5
EQP0000000070027825;I01G0306;CTO - OPTAP-B 60/40;ESSMJ_G1I01;RUA CARLOS ALBERTO GUILHERME GUMS SANTA MARIA DE JETIBA SAO LUIZ 29645000 ES SN;SANTA MARIA DE JETIBA;-20.004895100;-40.741875200;G0;ESSMJ-I01SP39;ESSMJ-I01SP39-SS2
EQP0000000070026523;I01G0140;CTO - OPTAP-B 60/40;ESSMJ_G1I01;AVENIDA FREDERICO GRULKE SANTA MARIA DE JETIBA CENTRO 29645000 ES SN;SANTA MARIA DE JETIBA;-20.028251700;-40.741588300;G0;ESSMJ-I01SP18;ESSMJ-I01SP18-SS4
EQP0000000070020537;I01G0133;CTO - OPTAP-B 85/15;ESSMJ_G1I01;RUA HENRIQUE POTRAZ SANTA MARIA DE JETIBA CENTRO 29645000 ES 127;SANTA MARIA DE JETIBA;-20.027910400;-40.740914000;G0;ESSMJ-I01SP17;ESSMJ-I01SP17-SS5
EQP0000000070037957;I01G0120;CTO - OPTAP-B 90/10;ESSMJ_G1I01;RUA CLARA BERGER DETTMANN SANTA MARIA DE JETIBA CENTRO 29645000 ES SN;SANTA MARIA DE JETIBA;-20.027043900;-40.744019600;G0;ESSMJ-I01SP15;ESSMJ-I01SP15-SS8
EQP0000000070020260;I01G0331;CTO - OPTAP-B 70/30;ESSMJ_G1I01;RUA SEM NOME SANTA MARIA DE JETIBA SAO LUIZ 29645000 ES 454;SANTA MARIA DE JETIBA;-19.993298400;-40.746932000;G0;ESSMJ-I01SP42;ESSMJ-I01SP42-SS3
EQP0000000069947965;I01G0399;CTO - OPTAP-B 90/10;ESSMJ_G1I01;RUA FLORENCIO AUGUSTO BERGER SANTA MARIA DE JETIBA CENTRO 29645000 ES SN;SANTA MARIA DE JETIBA;-20.015185100;-40.746030300;G0;ESSMJ-I01SP50;ESSMJ-I01SP50-SS7
EQP0000000069954539;I01G0404;CTO - OPTAP-B 80/20;ESSMJ_G1I01;RUA SEM NOME SANTA MARIA DE JETIBA SAO LUIZ 29645000 ES 87;SANTA MARIA DE JETIBA;-20.014361900;-40.744625800;G0;ESSMJ-I01SP51;ESSMJ-I01SP51-SS4
EQP0000000070039088;I01G0116;CTO - OPTAP-B 80/20;ESSMJ_G1I01;RUA FLORIANO BERGER SANTA MARIA DE JETIBA CENTRO 29645000 ES 244;SANTA MARIA DE JETIBA;-20.027646500;-40.742482800;G0;ESSMJ-I01SP15;ESSMJ-I01SP15-SS4
EQP0000000070035607;I01G0064;CTO - OPTAP-B 90/10;ESSMJ_G1I01;RUA FRANCISCO SCHWARTZ SANTA MARIA DE JETIBA CENTRO 29645000 ES 153;SANTA MARIA DE JETIBA;-20.029806900;-40.741046300;G0;ESSMJ-I01SP8;ESSMJ-I01SP8-SS8
EQP0000000070031038;I01G0320;CTO - OPTAP-B 90/10;ESSMJ_G1I01;LADEIRA AUGUSTO HENRIQUE BERTOLO SANTA MARIA DE JETIBA SAO LUIZ 29645000 ES 49;SANTA MARIA DE JETIBA;-20.001905800;-40.740495000;G0;ESSMJ-I01SP40;ESSMJ-I01SP40-SS8
EQP0000000070043014;I01G0124;CTO - OPTAP-B 80/20;ESSMJ_G1I01;RUA SOPHIA JACOB MIERTSCHINK SANTA MARIA DE JETIBA CENTRO 29645000 ES SN;SANTA MARIA DE JETIBA;-20.026332200;-40.745165400;G0;ESSMJ-I01SP16;ESSMJ-I01SP16-SS4
EQP0000000070031373;I01G0168;CTO - OPTAP-B 90/10;ESSMJ_G1I01;RUA FLORENCIO AUGUSTO BERGER SANTA MARIA DE JETIBA CENTRO 29645000 ES 615;SANTA MARIA DE JETIBA;-20.024028300;-40.743878600;G0;ESSMJ-I01SP21;ESSMJ-I01SP21-SS8
EQP0000000070023502;I01G0078;CTO - OPTAP-B 90/10;ESSMJ_G1I01;RUA HENRIQUE EGGERT SANTA MARIA DE JETIBA SAO SEBASTIAO DO MEIO 29645000 ES SN;SANTA MARIA DE JETIBA;-20.030981800;-40.760825800;G0;ESSMJ-I01SP10;ESSMJ-I01SP10-SS6
EQP0000000070034479;I01G0315;CTO - OPTAP-B 70/30;ESSMJ_G1I01;RUA ALFREDO KUSTER SANTA MARIA DE JETIBA SAO LUIZ 29645000 ES 89;SANTA MARIA DE JETIBA;-20.001489100;-40.739780500;G0;ESSMJ-I01SP40;ESSMJ-I01SP40-SS3
EQP0000000069953992;I01G0405;CTO - OPTAP-B 85/15;ESSMJ_G1I01;RUA SEM NOME SANTA MARIA DE JETIBA SAO LUIZ 29645000 ES SN;SANTA MARIA DE JETIBA;-20.014481400;-40.743680700;G0;ESSMJ-I01SP51;ESSMJ-I01SP51-SS5
EQP0000000070009534;I01G0103;CTO - OPTAP-B 90/10;ESSMJ_G1I01;RUA ADOLFO ALBERTO LUIZ BELZ SANTA MARIA DE JETIBA SAO SEBASTIAO DO MEIO 29645000 ES SN;SANTA MARIA DE JETIBA;-20.027719200;-40.752743700;G0;ESSMJ-I01SP13;ESSMJ-I01SP13-SS7
EQP0000000070043534;I01G0123;CTO - OPTAP-B 70/30;ESSMJ_G1I01;RUA SOPHIA JACOB MIERTSCHINK SANTA MARIA DE JETIBA CENTRO 29645000 ES 145;SANTA MARIA DE JETIBA;-20.027222400;-40.746385400;G0;ESSMJ-I01SP16;ESSMJ-I01SP16-SS3
EQP0000000069969972;I01G0380;CTO - OPTAP-B 80/20;ESSMJ_G1I01;RUA SEM NOME SANTA MARIA DE JETIBA SAO LUIZ 29645000 ES 58;SANTA MARIA DE JETIBA;-20.008253600;-40.743342700;G0;ESSMJ-I01SP48;ESSMJ-I01SP48-SS4
EQP0000000069917054;I01G0464;CTO - OPTAP-B 90/10;ESSMJ_G1I01;RUA JOSE MULLER SANTA MARIA DE JETIBA VILA NOVA 29645000 ES 157;SANTA MARIA DE JETIBA;-20.017099000;-40.751146200;G0;ESSMJ-I01SP58;ESSMJ-I01SP58-SS8
EQP0000000070028421;I01G0294;CTO - OPTAP-B 90/10;ESSMJ_G1I01;RUA JOSE CONTE SANTA MARIA DE JETIBA SAO LUIZ 29645000 ES SN;SANTA MARIA DE JETIBA;-20.001234300;-40.730813000;G0;ESSMJ-I01SP37;ESSMJ-I01SP37-SS6
EQP0000000070031745;I01G0319;CTO - OPTAP-B 90/10;ESSMJ_G1I01;RUA ALFREDO KUSTER SANTA MARIA DE JETIBA SAO LUIZ 29645000 ES SN;SANTA MARIA DE JETIBA;-20.000892900;-40.739869700;G0;ESSMJ-I01SP40;ESSMJ-I01SP40-SS7
EQP0000000070009717;I01G0220;CTO - OPTAP-B 60/40;ESSMJ_G1I01;RUA DOS EVANGELICOS SANTA MARIA DE JETIBA CENTRO 29645000 ES SN;SANTA MARIA DE JETIBA;-20.022788600;-40.746361200;G0;ESSMJ-I01SP28;ESSMJ-I01SP28-SS3
EQP0000000070075746;I01G0192;CTO - OPTAP-B 70/30;ESSMJ_G1I01;RUA MARTIN JACOB SANTA MARIA DE JETIBA CENTRO 29645000 ES 87;SANTA MARIA DE JETIBA;-20.024286400;-40.744652600;G0;ESSMJ-I01SP24;ESSMJ-I01SP24-SS7
EQP0000000070024850;I01G0296;CTO - OPTAP-B 90/10;ESSMJ_G1I01;RUA HENRIQUE JOAO JULIO KUSTER SANTA MARIA DE JETIBA SAO LUIZ 29645000 ES 1385;SANTA MARIA DE JETIBA;-20.001605300;-40.729320600;G0;ESSMJ-I01SP37;ESSMJ-I01SP37-SS8
EQP0000000070077939;I01G0186;CTO - OPTAP-B 60/40;ESSMJ_G1I01;AVENIDA FREDERICO GRULKE SANTA MARIA DE JETIBA CENTRO 29645000 ES SN;SANTA MARIA DE JETIBA;-20.025742200;-40.744085200;G0;ESSMJ-I01SP24;ESSMJ-I01SP24-SS1
EQP0000000070016715;I01G0147;CTO - OPTAP-B 70/30;ESSMJ_G1I01;RUA HENRIQUE POTRAZ SANTA MARIA DE JETIBA CENTRO 29645000 ES 317;SANTA MARIA DE JETIBA;-20.026570000;-40.741957700;G0;ESSMJ-I01SP19;ESSMJ-I01SP19-SS3
EQP0000000070015018;I01G0254;CTO - OPTAP-B 70/30;ESSMJ_G1I01;AVENIDA FREDERICO GRULKE SANTA MARIA DE JETIBA CENTRO 29645000 ES SN;SANTA MARIA DE JETIBA;-20.022027100;-40.746449700;G0;ESSMJ-I01SP32;ESSMJ-I01SP32-SS5
EQP0000000070032501;I01G0318;CTO - OPTAP-B 90/10;ESSMJ_G1I01;RUA RODOLFO KUSTER SANTA MARIA DE JETIBA SAO LUIZ 29645000 ES 259;SANTA MARIA DE JETIBA;-20.000429200;-40.737320500;G0;ESSMJ-I01SP40;ESSMJ-I01SP40-SS6
EQP0000000070053359;I01G0016;CTO - OPTAP-B 90/10;ESSMJ_G1I01;RUA HERMAN MIERTSCHINK SANTA MARIA DE JETIBA CENTRO 29645000 ES SN;SANTA MARIA DE JETIBA;-20.032771200;-40.740791700;G0;ESSMJ-I01SP2;ESSMJ-I01SP2-SS8
EQP0000000070004110;I01G0286;CTO - OPTAP-B 90/10;ESSMJ_G1I01;RUA HENRIQUE JOAO JULIO KUSTER SANTA MARIA DE JETIBA SAO LUIZ 29645000 ES 1765;SANTA MARIA DE JETIBA;-20.001482500;-40.725626300;G0;ESSMJ-I01SP36;ESSMJ-I01SP36-SS6
EQP0000000070026294;I01G0308;CTO - OPTAP-B 80/20;ESSMJ_G1I01;RUA CARLOS ALBERTO GUILHERME GUMS SANTA MARIA DE JETIBA SAO LUIZ 29645000 ES SN;SANTA MARIA DE JETIBA;-20.005487600;-40.741227900;G0;ESSMJ-I01SP39;ESSMJ-I01SP39-SS4
EQP0000000070009244;I01G0348;CTO - OPTAP-B 80/20;ESSMJ_G1I01;RUA ARNO BERGER SANTA MARIA DE JETIBA SAO LUIZ 29645000 ES 439;SANTA MARIA DE JETIBA;-19.996441000;-40.741350200;G0;ESSMJ-I01SP44;ESSMJ-I01SP44-SS4
EQP0000000070054072;I01G0013;CTO - OPTAP-B 85/15;ESSMJ_G1I01;RUA HERMAN MIERTSCHINK SANTA MARIA DE JETIBA CENTRO 29645000 ES 189;SANTA MARIA DE JETIBA;-20.031704500;-40.741526700;G0;ESSMJ-I01SP2;ESSMJ-I01SP2-SS5
EQP0000000070041278;I01G0128;CTO - OPTAP-B 90/10;ESSMJ_G1I01;RUA EMILIA ROEPKE BOLDT SANTA MARIA DE JETIBA CENTRO 29645000 ES 38;SANTA MARIA DE JETIBA;-20.026673300;-40.744611300;G0;ESSMJ-I01SP16;ESSMJ-I01SP16-SS8
EQP0000000070025857;I01G0142;CTO - OPTAP-B 70/30;ESSMJ_G1I01;AVENIDA FREDERICO GRULKE SANTA MARIA DE JETIBA CENTRO 29645000 ES 825;SANTA MARIA DE JETIBA;-20.027295700;-40.742260200;G0;ESSMJ-I01SP18;ESSMJ-I01SP18-SS6
EQP0000000070010717;I01G0218;CTO SPLITTER 1 8;ESSMJ_G1I01;RUA DOS EVANGELICOS SANTA MARIA DE JETIBA CENTRO 29645000 ES 370;SANTA MARIA DE JETIBA;-20.021679600;-40.747057300;G0;ESSMJ-I01SP28;ESSMJ-I01SP28-SS1
EQP0000000070043110;I01G0276;CTO - OPTAP-B 80/20;ESSMJ_G1I01;RUA ALBERTO BERGER SANTA MARIA DE JETIBA CENTRO 29645000 ES 19;SANTA MARIA DE JETIBA;-20.020441000;-40.747349400;G0;ESSMJ-I01SP35;ESSMJ-I01SP35-SS4
EQP0000000070033335;I01G0164;CTO - OPTAP-B 80/20;ESSMJ_G1I01;RUA FLORENCIO AUGUSTO BERGER SANTA MARIA DE JETIBA CENTRO 29645000 ES 370;SANTA MARIA DE JETIBA;-20.025501900;-40.742493300;G0;ESSMJ-I01SP21;ESSMJ-I01SP21-SS4
EQP0000000070008712;I01G0304;CTO - OPTAP-B 90/10;ESSMJ_G1I01;RUA HENRIQUE FREDERICO STHUR SANTA MARIA DE JETIBA SAO LUIS 29645000 ES 23;SANTA MARIA DE JETIBA;-20.001380400;-40.738036600;G0;ESSMJ-I01SP38;ESSMJ-I01SP38-SS8
EQP0000000070004000;I01G0216;CTO - OPTAP-B 90/10;ESSMJ_G1I01;RUA DOS EVANGELICOS SANTA MARIA DE JETIBA CENTRO 29645000 ES 20;SANTA MARIA DE JETIBA;-20.024319800;-40.745747800;G0;ESSMJ-I01SP27;ESSMJ-I01SP27-SS8
EQP0000000070022999;I01G0312;CTO - OPTAP-B 90/10;ESSMJ_G1I01;RUA HENRIQUE JOAO JULIO KUSTER SANTA MARIA DE JETIBA SAO LUIZ 29645000 ES SN;SANTA MARIA DE JETIBA;-20.002698600;-40.739193200;G0;ESSMJ-I01SP39;ESSMJ-I01SP39-SS8
EQP0000000070031965;I01G0167;CTO - OPTAP-B 90/10;ESSMJ_G1I01;RUA FLORENCIO AUGUSTO BERGER SANTA MARIA DE JETIBA CENTRO 29645000 ES 525;SANTA MARIA DE JETIBA;-20.025040500;-40.743894600;G0;ESSMJ-I01SP21;ESSMJ-I01SP21-SS7
EQP0000000070001745;I01G0364;CTO - OPTAP-B 60/40;ESSMJ_G1I01;RUA BOA VISTA SANTA MARIA DE JETIBA SAO LUIZ 29645000 ES 60;SANTA MARIA DE JETIBA;-20.000446700;-40.741657300;G0;ESSMJ-I01SP46;ESSMJ-I01SP46-SS3
EQP0000000069998667;I01G0360;CTO - OPTAP-B 90/10;ESSMJ_G1I01;RUA EMILIO ALFREDO AUGUSTO JACOB SANTA MARIA DE JETIBA SAO LUIZ 29645000 ES 57;SANTA MARIA DE JETIBA;-20.000722000;-40.741473700;G0;ESSMJ-I01SP45;ESSMJ-I01SP45-SS8
EQP0000000070016164;I01G0252;CTO - OPTAP-B 60/40;ESSMJ_G1I01;AVENIDA FREDERICO GRULKE SANTA MARIA DE JETIBA CENTRO 29645000 ES 1391;SANTA MARIA DE JETIBA;-20.023240500;-40.745704700;G0;ESSMJ-I01SP32;ESSMJ-I01SP32-SS4
EQP0000000070044152;I01G0272;CTO - OPTAP-B 90/10;ESSMJ_G1I01;RUA SEIS DE MAIO SANTA MARIA DE JETIBA CENTRO 29645000 ES 43;SANTA MARIA DE JETIBA;-20.020264500;-40.746620600;G0;ESSMJ-I01SP34;ESSMJ-I01SP34-SS8
EQP0000000069913574;I01G0466;CTO - OPTAP-B 60/40;ESSMJ_G1I01;RODOVIA KURT CARL LUDWIG KERCKHOF SANTA MARIA DE JETIBA VILA NOVA 29645000 ES 220;SANTA MARIA DE JETIBA;-20.015153900;-40.747659200;G0;ESSMJ-I01SP59;ESSMJ-I01SP59-SS2
EQP0000000070030832;I01G0344;CTO - OPTAP-B 90/10;ESSMJ_G1I01;RUA SEM NOME SANTA MARIA DE JETIBA SAO LUIZ 29645000 ES SN;SANTA MARIA DE JETIBA;-19.996042200;-40.742264200;G0;ESSMJ-I01SP43;ESSMJ-I01SP43-SS8
EQP0000000069927344;I01G0416;CTO - OPTAP-B 90/10;ESSMJ_G1I01;RUA SEM NOME SANTA MARIA DE JETIBA VILA NOVA 29645000 ES 98;SANTA MARIA DE JETIBA;-20.018721200;-40.759495800;G0;ESSMJ-I01SP52;ESSMJ-I01SP52-SS8
EQP0000000069932022;I01G0420;CTO - OPTAP-B 60/40;ESSMJ_G1I01;RUA SEM NOME SANTA MARIA DE JETIBA VILA NOVA 29645000 ES 35;SANTA MARIA DE JETIBA;-20.018655100;-40.758943200;G0;ESSMJ-I01SP53;ESSMJ-I01SP53-SS4
EQP0000000070006282;I01G0352;CTO - OPTAP-B 90/10;ESSMJ_G1I01;RUA ARNO BERGER SANTA MARIA DE JETIBA SAO LUIZ 29645000 ES SN1;SANTA MARIA DE JETIBA;-19.999013200;-40.742091700;G0;ESSMJ-I01SP44;ESSMJ-I01SP44-SS8
EQP0000000070020749;I01G0175;CTO - OPTAP-B 90/10;ESSMJ_G1I01;RUA FLORENCIO AUGUSTO BERGER SANTA MARIA DE JETIBA CENTRO 29645000 ES SN;SANTA MARIA DE JETIBA;-20.023232300;-40.743745600;G0;ESSMJ-I01SP22;ESSMJ-I01SP22-SS7
EQP0000000069959910;I01G0388;CTO - OPTAP-B 80/20;ESSMJ_G1I01;RODOVIA BR 355 SANTA MARIA DE JETIBA SAO LUIZ 29645000 ES SN;SANTA MARIA DE JETIBA;-20.010556000;-40.744910900;G0;ESSMJ-I01SP49;ESSMJ-I01SP49-SS4
EQP0000000070034639;I01G0161;CTO SPLITTER 1 8;ESSMJ_G1I01;RUA FLORENCIO AUGUSTO BERGER SANTA MARIA DE JETIBA CENTRO 29645000 ES 153;SANTA MARIA DE JETIBA;-20.027175500;-40.740618200;G0;ESSMJ-I01SP21;ESSMJ-I01SP21-SS1
EQP0000000070013439;I01G0297;CTO SPLITTER 1 8;ESSMJ_G1I01;RUA SEM NOME SANTA MARIA DE JETIBA SAO LUIZ 29645000 ES SN;SANTA MARIA DE JETIBA;-20.003813800;-40.729193500;G0;ESSMJ-I01SP38;ESSMJ-I01SP38-SS1
EQP0000000070005398;I01GP212;MINI CDOE 1:2 + 1:8 PRECON SELADA 60/40;ESSMJ_G1I01;RUA GUILHERME MIERTSCHINK SANTA MARIA DE JETIBA CENTRO 29645000 ES 163;SANTA MARIA DE JETIBA;-20.025875200;-40.746097600;GP;ESSMJ-I01SP27;ESSMJ-I01SP27-SS4
EQP0000000070029963;I01G0305;CTO SPLITTER 1 8;ESSMJ_G1I01;RUA ALBERTO RICARDO RICHARD GUMS SANTA MARIA DE JETIBA SAO LUIS 29645000 ES 116;SANTA MARIA DE JETIBA;-20.005903000;-40.742152900;G0;ESSMJ-I01SP39;ESSMJ-I01SP39-SS1
EQP0000000070051378;I01GP17;MINI CDOE 1:2 + 1:8 PRECON SELADA 60/40;ESSMJ_G1I01;RUA HERMAN MIERTSCHINK SANTA MARIA DE JETIBA CENTRO 29645000 ES 463;SANTA MARIA DE JETIBA;-20.033737000;-40.739621700;GP;ESSMJ-I01SP3;ESSMJ-I01SP3-SS1
EQP0000000070008072;I01GP226;MINI CDOE 1:2 + 1:8 PRECON SELADA 60/40;ESSMJ_G1I01;RUA DOS EVANGELICOS SANTA MARIA DE JETIBA CENTRO 29645000 ES 75;SANTA MARIA DE JETIBA;-20.023746400;-40.746165600;GP;ESSMJ-I01SP29;ESSMJ-I01SP29-SS2
EQP0000000070414780;I01GP403;MINI CDOE 1:2 + 1:8 PRECON SELADA 70/30;ESSMJ_G1I01;RUA AUGUSTO MARTIN GERMANO  VESPER SANTA MARIA DE JETIBA SAO LUIS 29645000 ES 37;SANTA MARIA DE JETIBA;-20.014025500;-40.744638800;GP;ESSMJ-I01SP51;S8_1
EQP0000000229535183;I01GP401;MINI CDOE 1:2 + 1:8 PRECON SELADA 70/30;ESSMJ_G1I01;RUA AUGUSTO MARTIN GERMANO  VESPER SANTA MARIA DE JETIBA SAO LUIS 29645000 ES 37;SANTA MARIA DE JETIBA;-20.014025500;-40.744638800;GP;ESSMJ-I01SP51;S8_1
EQP0000000070007219;I01GP203;MINI CDOE 1:2 + 1:8 PRECON SELADA 60/40;ESSMJ_G1I01;RUA AUGUSTO JACOB SANTA MARIA DE JETIBA CENTRO 29645000 ES 137;SANTA MARIA DE JETIBA;-20.025629500;-40.744931200;GP;ESSMJ-I01SP26;ESSMJ-I01SP26-SS3
EQP0000000229531133;I01GP274;MINI CDOE 1:2 + 1:8 PRECON SELADA 70/30;ESSMJ_G1I01;RUA DOS EVANGELICOS SANTA MARIA DE JETIBA CENTRO 29645000 ES 1652;SANTA MARIA DE JETIBA;-20.020481500;-40.746842800;GP;ESSMJ-I01SP35;S8_1
EQP0000000070028363;I01GP154;MINI CDOE 1:2 + 1:8 PRECON SELADA 60/40;ESSMJ_G1I01;AVENIDA FREDERICO GRULKE SANTA MARIA DE JETIBA CENTRO 29645000 ES 1115;SANTA MARIA DE JETIBA;-20.025739000;-40.744260300;GP;ESSMJ-I01SP20;ESSMJ-I01SP20-SS2
EQP0000000070042259;I01GP25;MINI CDOE 1:2 + 1:8 PRECON SELADA 60/40;ESSMJ_G1I01;AVENIDA FREDERICO GRULKE SANTA MARIA DE JETIBA CENTRO 29645000 ES 357;SANTA MARIA DE JETIBA;-20.031369700;-40.739892800;GP;ESSMJ-I01SP4;ESSMJ-I01SP4-SS1
EQP0000000230547664;I01GP275;MINI CDOE 1:2 + 1:8 PRECON SELADA 70/30;ESSMJ_G1I01;RUA DOS EVANGELICOS SANTA MARIA DE JETIBA CENTRO 29645000 ES 1652;SANTA MARIA DE JETIBA;-20.020481500;-40.746842800;GP;ESSMJ-I01SP35;S8_1
EQP0000000070014250;I01GP67;MINI CDOE 1:2 + 1:8 PRECON SELADA 60/40;ESSMJ_G1I01;RUA DO IMIGRANTE (CENTRO) SANTA MARIA DE JETIBA CENTRO 29645000 ES 10;SANTA MARIA DE JETIBA;-20.030229100;-40.741212800;GP;ESSMJ-I01SP9;ESSMJ-I01SP9-SS3
EQP0000000070029352;I01G0050;CTO - OPTAP-B 60/40;ESSMJ_G1I01;LADEIRA TEODORO LITKE SANTA MARIA DE JETIBA CENTRO 29645000 ES 55;SANTA MARIA DE JETIBA;-20.034312500;-40.737953600;G0;ESSMJ-I01SP7;ESSMJ-I01SP7-SS2
EQP0000000070023859;I01G0144;CTO - OPTAP-B 70/30;ESSMJ_G1I01;AVENIDA FREDERICO GRULKE SANTA MARIA DE JETIBA CENTRO 29645000 ES 925;SANTA MARIA DE JETIBA;-20.026687900;-40.742992500;G0;ESSMJ-I01SP18;ESSMJ-I01SP18-SS8
EQP0000000070022215;I01G0132;CTO - OPTAP-B 80/20;ESSMJ_G1I01;RUA HENRIQUE POTRAZ SANTA MARIA DE JETIBA CENTRO 29645000 ES 15;SANTA MARIA DE JETIBA;-20.028815000;-40.740681400;G0;ESSMJ-I01SP17;ESSMJ-I01SP17-SS4
EQP0000000069958142;I01G0389;CTO - OPTAP-B 85/15;ESSMJ_G1I01;RODOVIA BR 355 SANTA MARIA DE JETIBA SAO LUIZ 29645000 ES SN;SANTA MARIA DE JETIBA;-20.011489900;-40.745223300;G0;ESSMJ-I01SP49;ESSMJ-I01SP49-SS5
EQP0000000070008709;I01G0224;CTO - OPTAP-B 70/30;ESSMJ_G1I01;RUA DOS EVANGELICOS SANTA MARIA DE JETIBA CENTRO 29645000 ES 74;SANTA MARIA DE JETIBA;-20.023660900;-40.746019100;G0;ESSMJ-I01SP28;ESSMJ-I01SP28-SS7
EQP0000000070027249;I01G0138;CTO - OPTAP-B 60/40;ESSMJ_G1I01;AVENIDA FREDERICO GRULKE SANTA MARIA DE JETIBA CENTRO 29645000 ES SN;SANTA MARIA DE JETIBA;-20.028655100;-40.741369600;G0;ESSMJ-I01SP18;ESSMJ-I01SP18-SS2
EQP0000000070053628;I01G0015;CTO - OPTAP-B 90/10;ESSMJ_G1I01;RUA HERMAN MIERTSCHINK SANTA MARIA DE JETIBA CENTRO 29645000 ES 290;SANTA MARIA DE JETIBA;-20.032486100;-40.741071600;G0;ESSMJ-I01SP2;ESSMJ-I01SP2-SS7
EQP0000000069932945;I01G0432;CTO - OPTAP-B 90/10;ESSMJ_G1I01;RUA SANDRA LUDTKE SANTA MARIA DE JETIBA VILA NOVA 29645000 ES SN;SANTA MARIA DE JETIBA;-20.017906300;-40.757123400;G0;ESSMJ-I01SP54;ESSMJ-I01SP54-SS8
EQP0000000070013705;I01G0335;CTO - OPTAP-B 90/10;ESSMJ_G1I01;RUA SEM NOME SANTA MARIA DE JETIBA SAO LUIZ 29645000 ES SN;SANTA MARIA DE JETIBA;-19.995802600;-40.745768900;G0;ESSMJ-I01SP42;ESSMJ-I01SP42-SS7
EQP0000000069908504;I01G0445;CTO - OPTAP-B 85/15;ESSMJ_G1I01;RUA TRINTA E UM DE OUTUBRO SANTA MARIA DE JETIBA VILA NOVA 29645000 ES 32;SANTA MARIA DE JETIBA;-20.017328500;-40.754938700;G0;ESSMJ-I01SP56;ESSMJ-I01SP56-SS5
EQP0000000070016684;I01G0334;CTO - OPTAP-B 90/10;ESSMJ_G1I01;RUA DA AMIZADE SANTA MARIA DE JETIBA SAO LUIZ 29645000 ES 928;SANTA MARIA DE JETIBA;-19.996013800;-40.746612100;G0;ESSMJ-I01SP42;ESSMJ-I01SP42-SS6
EQP0000000070018043;I01G0333;CTO - OPTAP-B 85/15;ESSMJ_G1I01;RUA SEM NOME SANTA MARIA DE JETIBA SAO LUIZ 29645000 ES SN;SANTA MARIA DE JETIBA;-19.994777800;-40.747141800;G0;ESSMJ-I01SP42;ESSMJ-I01SP42-SS5
EQP0000000069948963;I01G0397;CTO - OPTAP-B 85/15;ESSMJ_G1I01;RUA MARLI RAMLOW SANTA MARIA DE JETIBA CENTRO 29645000 ES 45;SANTA MARIA DE JETIBA;-20.015730200;-40.745570000;G0;ESSMJ-I01SP50;ESSMJ-I01SP50-SS5
EQP0000000070005890;I01G0208;CTO - OPTAP-B 90/10;ESSMJ_G1I01;RUA AUGUSTO JACOB SANTA MARIA DE JETIBA CENTRO 29645000 ES 260;SANTA MARIA DE JETIBA;-20.024613800;-40.745139400;G0;ESSMJ-I01SP26;ESSMJ-I01SP26-SS8
EQP0000000070015783;I01G0298;CTO - OPTAP-B 60/40;ESSMJ_G1I01;RUA SEM NOME SANTA MARIA DE JETIBA SAO LUIZ 29645000 ES SN;SANTA MARIA DE JETIBA;-20.004705200;-40.730444800;G0;ESSMJ-I01SP38;ESSMJ-I01SP38-SS2
EQP0000000069950181;I01G0396;CTO - OPTAP-B 80/20;ESSMJ_G1I01;RUA MARLI RAMLOW SANTA MARIA DE JETIBA CENTRO 29645000 ES SN;SANTA MARIA DE JETIBA;-20.016205200;-40.743617200;G0;ESSMJ-I01SP50;ESSMJ-I01SP50-SS4
EQP0000000070013720;I01G0256;CTO - OPTAP-B 70/30;ESSMJ_G1I01;AVENIDA FREDERICO GRULKE SANTA MARIA DE JETIBA CENTRO 29645000 ES 1639;SANTA MARIA DE JETIBA;-20.021101100;-40.746862500;G0;ESSMJ-I01SP32;ESSMJ-I01SP32-SS8
EQP0000000070041671;I01G0127;CTO - OPTAP-B 90/10;ESSMJ_G1I01;RUA EMILIA ROEPKE BOLDT SANTA MARIA DE JETIBA CENTRO 29645000 ES 51;SANTA MARIA DE JETIBA;-20.026383000;-40.744047100;G0;ESSMJ-I01SP16;ESSMJ-I01SP16-SS7
EQP0000000070009718;I01G0303;CTO - OPTAP-B 90/10;ESSMJ_G1I01;RUA HENRIQUE JOAO JULIO KUSTER SANTA MARIA DE JETIBA SAO LUIZ 29645000 ES SN;SANTA MARIA DE JETIBA;-20.002982500;-40.738916500;G0;ESSMJ-I01SP38;ESSMJ-I01SP38-SS7
EQP0000000070007737;I01G0350;CTO - OPTAP-B 90/10;ESSMJ_G1I01;RUA SEM NOME SANTA MARIA DE JETIBA SAO LUIZ 29645000 ES 26;SANTA MARIA DE JETIBA;-19.997983100;-40.741025900;G0;ESSMJ-I01SP44;ESSMJ-I01SP44-SS6
EQP0000000069952191;I01G0394;CTO - OPTAP-B 60/40;ESSMJ_G1I01;RUA MARLI RAMLOW SANTA MARIA DE JETIBA SAO LUIZ 29645000 ES SN;SANTA MARIA DE JETIBA;-20.016087200;-40.739709300;G0;ESSMJ-I01SP50;ESSMJ-I01SP50-SS2
EQP0000000070037412;I01G0106;CTO - OPTAP-B 60/40;ESSMJ_G1I01;RUA WALDEMAR DETTMANN SANTA MARIA DE JETIBA CENTRO 29645000 ES 135;SANTA MARIA DE JETIBA;-20.027236500;-40.745490200;G0;ESSMJ-I01SP14;ESSMJ-I01SP14-SS2
EQP0000000069969163;I01G0379;CTO - OPTAP-B 70/30;ESSMJ_G1I01;RUA ROSSETA POTRATZ SANTA MARIA DE JETIBA SAO LUIZ 29645000 ES SN;SANTA MARIA DE JETIBA;-20.008913300;-40.743285900;G0;ESSMJ-I01SP48;ESSMJ-I01SP48-SS3
EQP0000000069914898;I01G0460;CTO - OPTAP-B 80/20;ESSMJ_G1I01;RUA JOSE MULLER SANTA MARIA DE JETIBA VILA NOVA 29645000 ES 41;SANTA MARIA DE JETIBA;-20.016312100;-40.750145000;G0;ESSMJ-I01SP58;ESSMJ-I01SP58-SS4
EQP0000000070053831;I01G0014;CTO - OPTAP-B 90/10;ESSMJ_G1I01;RUA HERMAN MIERTSCHINK SANTA MARIA DE JETIBA CENTRO 29645000 ES 221;SANTA MARIA DE JETIBA;-20.032012400;-40.741526200;G0;ESSMJ-I01SP2;ESSMJ-I01SP2-SS6
EQP0000000070040102;I01G0280;CTO - OPTAP-B 90/10;ESSMJ_G1I01;RUA VINTE E CINCO DE JULHO SANTA MARIA DE JETIBA CENTRO 29645000 ES 40;SANTA MARIA DE JETIBA;-20.019755300;-40.746603700;G0;ESSMJ-I01SP35;ESSMJ-I01SP35-SS8
EQP0000000070041779;I01G0278;CTO - OPTAP-B 90/10;ESSMJ_G1I01;RUA ALBERTO BERGER SANTA MARIA DE JETIBA CENTRO 29645000 ES SN;SANTA MARIA DE JETIBA;-20.019821300;-40.747402800;G0;ESSMJ-I01SP35;ESSMJ-I01SP35-SS6
EQP0000000070016315;I01G0047;CTO - OPTAP-B 90/10;ESSMJ_G1I01;RUA DO IMIGRANTE (CENTRO) SANTA MARIA DE JETIBA CENTRO 29645000 ES SN;SANTA MARIA DE JETIBA;-20.030710600;-40.740848700;G0;ESSMJ-I01SP6;ESSMJ-I01SP6-SS7
EQP0000000070013211;I01G0151;CTO - OPTAP-B 90/10;ESSMJ_G1I01;RUA FLORENCIO AUGUSTO BERGER SANTA MARIA DE JETIBA CENTRO 29645000 ES SN;SANTA MARIA DE JETIBA;-20.025613400;-40.743657100;G0;ESSMJ-I01SP19;ESSMJ-I01SP19-SS7
EQP0000000069916293;I01G0462;CTO - OPTAP-B 90/10;ESSMJ_G1I01;RUA JOSE MULLER SANTA MARIA DE JETIBA VILA NOVA 29645000 ES 87;SANTA MARIA DE JETIBA;-20.016737600;-40.750595800;G0;ESSMJ-I01SP58;ESSMJ-I01SP58-SS6
EQP0000000069925682;I01G0422;CTO - OPTAP-B 70/30;ESSMJ_G1I01;RUA SEM NOME SANTA MARIA DE JETIBA VILA NOVA 29645000 ES 37;SANTA MARIA DE JETIBA;-20.018461600;-40.758653000;G0;ESSMJ-I01SP53;ESSMJ-I01SP53-SS6
EQP0000000070264793;I01G0439;CTO - OPTAP-B 90/10;ESSMJ_G1I01;RODOVIA KURT CARL LUDWIG KERCKHOF SANTA MARIA DE JETIBA VILA NOVA 29645000 ES SN;SANTA MARIA DE JETIBA;-20.018568800;-40.757327000;G0;ESSMJ-I01SP55;ESSMJ-I01SP55-SS7
EQP0000000070017231;I01G0046;CTO - OPTAP-B 90/10;ESSMJ_G1I01;RUA DO IMIGRANTE (CENTRO) SANTA MARIA DE JETIBA CENTRO 29645000 ES SN;SANTA MARIA DE JETIBA;-20.031386900;-40.740506700;G0;ESSMJ-I01SP6;ESSMJ-I01SP6-SS6
EQP0000000070027903;I01G0086;CTO - OPTAP-B 90/10;ESSMJ_G1I01;LADEIRA FLORENCIO SCHULTZ SANTA MARIA DE JETIBA SAO SEBASTIAO DO MEIO 29645000 ES SN;SANTA MARIA DE JETIBA;-20.029816100;-40.754494100;G0;ESSMJ-I01SP11;ESSMJ-I01SP11-SS6
EQP0000000069915653;I01G0461;CTO - OPTAP-B 85/15;ESSMJ_G1I01;RUA JOSE MULLER SANTA MARIA DE JETIBA VILA NOVA 29645000 ES 65;SANTA MARIA DE JETIBA;-20.016491000;-40.750271400;G0;ESSMJ-I01SP58;ESSMJ-I01SP58-SS5
EQP0000000070001371;I01G0355;CTO - OPTAP-B 70/30;ESSMJ_G1I01;RUA ALFREDO KUSTER SANTA MARIA DE JETIBA SAO LUIZ 29645000 ES 210;SANTA MARIA DE JETIBA;-20.000243600;-40.740156100;G0;ESSMJ-I01SP45;ESSMJ-I01SP45-SS3
EQP0000000070022485;I01G0039;CTO - OPTAP-B 90/10;ESSMJ_G1I01;RUA FRANCISCO SCHWARTZ SANTA MARIA DE JETIBA CENTRO 29645000 ES 89;SANTA MARIA DE JETIBA;-20.030091300;-40.741955800;G0;ESSMJ-I01SP5;ESSMJ-I01SP5-SS7
EQP0000000070027237;I01G0054;CTO - OPTAP-B 90/10;ESSMJ_G1I01;AVENIDA FREDERICO GRULKE SANTA MARIA DE JETIBA CENTRO 29645000 ES SN;SANTA MARIA DE JETIBA;-20.030936600;-40.739984900;G0;ESSMJ-I01SP7;ESSMJ-I01SP7-SS6
EQP0000000070042078;I01G0126;CTO - OPTAP-B 90/10;ESSMJ_G1I01;RUA AUGUSTO JACOB SANTA MARIA DE JETIBA CENTRO 29645000 ES 25;SANTA MARIA DE JETIBA;-20.026531100;-40.744282000;G0;ESSMJ-I01SP16;ESSMJ-I01SP16-SS6
EQP0000000069910626;I01G0472;CTO - OPTAP-B 90/10;ESSMJ_G1I01;RUA CANTINHO DO CEU SANTA MARIA DE JETIBA VILA NOVA 29645000 ES 151;SANTA MARIA DE JETIBA;-20.017238900;-40.749173200;G0;ESSMJ-I01SP59;ESSMJ-I01SP59-SS8
EQP0000000070044423;I01G0271;CTO - OPTAP-B 90/10;ESSMJ_G1I01;RUA ROLF POTRATZ SANTA MARIA DE JETIBA CENTRO 29645000 ES 261;SANTA MARIA DE JETIBA;-20.020660000;-40.746425700;G0;ESSMJ-I01SP34;ESSMJ-I01SP34-SS7
EQP0000000070036565;I01G0248;CTO - OPTAP-B 90/10;ESSMJ_G1I01;RUA PETUNIA SANTA MARIA DE JETIBA CENTRO 29645000 ES 465;SANTA MARIA DE JETIBA;-20.020967500;-40.747259000;G0;ESSMJ-I01SP31;ESSMJ-I01SP31-SS8
EQP0000000070076101;I01G0190;CTO - OPTAP-B 70/30;ESSMJ_G1I01;AVENIDA FREDERICO GRULKE SANTA MARIA DE JETIBA CENTRO 29645000 ES SN;SANTA MARIA DE JETIBA;-20.024745100;-40.744735500;G0;ESSMJ-I01SP24;ESSMJ-I01SP24-SS5
EQP0000000070022736;I01G0079;CTO - OPTAP-B 90/10;ESSMJ_G1I01;RUA HENRIQUE EGGERT SANTA MARIA DE JETIBA SAO SEBASTIAO DO MEIO 29645000 ES SN;SANTA MARIA DE JETIBA;-20.030594000;-40.760024500;G0;ESSMJ-I01SP10;ESSMJ-I01SP10-SS7
EQP0000000070032822;I01G0165;CTO - OPTAP-B 85/15;ESSMJ_G1I01;RUA FLORENCIO AUGUSTO BERGER SANTA MARIA DE JETIBA CENTRO 29645000 ES 417;SANTA MARIA DE JETIBA;-20.025441400;-40.743041900;G0;ESSMJ-I01SP21;ESSMJ-I01SP21-SS5
EQP0000000070006137;I01G0207;CTO - OPTAP-B 90/10;ESSMJ_G1I01;RUA AUGUSTO JACOB SANTA MARIA DE JETIBA CENTRO 29645000 ES 190;SANTA MARIA DE JETIBA;-20.025267400;-40.744894300;G0;ESSMJ-I01SP26;ESSMJ-I01SP26-SS7
EQP0000000070021324;I01G0174;CTO - OPTAP-B 90/10;ESSMJ_G1I01;RUA FLORENCIO AUGUSTO BERGER SANTA MARIA DE JETIBA CENTRO 29645000 ES 755;SANTA MARIA DE JETIBA;-20.022694500;-40.743946000;G0;ESSMJ-I01SP22;ESSMJ-I01SP22-SS6
EQP0000000070027492;I01G0341;CTO - OPTAP-B 85/15;ESSMJ_G1I01;RODOVIA BR 355 SANTA MARIA DE JETIBA SAO LUIZ 29645000 ES SN;SANTA MARIA DE JETIBA;-19.995436800;-40.745045400;G0;ESSMJ-I01SP43;ESSMJ-I01SP43-SS5
EQP0000000070010510;I01G0302;CTO - OPTAP-B 90/10;ESSMJ_G1I01;RUA HENRIQUE JOAO JULIO KUSTER SANTA MARIA DE JETIBA SAO LUIZ 29645000 ES 452;SANTA MARIA DE JETIBA;-20.003516400;-40.737644300;G0;ESSMJ-I01SP38;ESSMJ-I01SP38-SS6
EQP0000000070003350;I01G0287;CTO - OPTAP-B 90/10;ESSMJ_G1I01;RUA HENRIQUE JOAO JULIO KUSTER SANTA MARIA DE JETIBA SAO LUIZ 29645000 ES 1558;SANTA MARIA DE JETIBA;-20.001679500;-40.727133900;G0;ESSMJ-I01SP36;ESSMJ-I01SP36-SS7
EQP0000000069919749;I01G0455;CTO - OPTAP-B 90/10;ESSMJ_G1I01;RUA JOSE MULLER SANTA MARIA DE JETIBA VILA NOVA 29645000 ES 260;SANTA MARIA DE JETIBA;-20.017388600;-40.752031800;G0;ESSMJ-I01SP57;ESSMJ-I01SP57-SS7
EQP0000000070008960;I01G0104;CTO - OPTAP-B 90/10;ESSMJ_G1I01;RUA LUTERANA SANTA MARIA DE JETIBA SAO SEBASTIAO DO MEIO 29645000 ES SN;SANTA MARIA DE JETIBA;-20.028369500;-40.752841800;G0;ESSMJ-I01SP13;ESSMJ-I01SP13-SS8
EQP0000000070030079;I01G0063;CTO - OPTAP-B 90/10;ESSMJ_G1I01;AVENIDA FREDERICO GRULKE SANTA MARIA DE JETIBA CENTRO 29645000 ES 552;SANTA MARIA DE JETIBA;-20.029659800;-40.740534800;G0;ESSMJ-I01SP8;ESSMJ-I01SP8-SS7
EQP0000000070038273;I01G0118;CTO - OPTAP-B 90/10;ESSMJ_G1I01;RUA FLORIANO BERGER SANTA MARIA DE JETIBA CENTRO 29645000 ES SN;SANTA MARIA DE JETIBA;-20.027045500;-40.743344400;G0;ESSMJ-I01SP15;ESSMJ-I01SP15-SS6
EQP0000000069945803;I01G0408;CTO - OPTAP-B 90/10;ESSMJ_G1I01;RODOVIA BR 355 SANTA MARIA DE JETIBA CENTRO 29645000 ES 481;SANTA MARIA DE JETIBA;-20.014642000;-40.745691300;G0;ESSMJ-I01SP51;ESSMJ-I01SP51-SS8
EQP0000000069936059;I01G0435;CTO - OPTAP-B 70/30;ESSMJ_G1I01;RUA SEM NOME SANTA MARIA DE JETIBA VILA NOVA 29645000 ES 213;SANTA MARIA DE JETIBA;-20.020969600;-40.756289500;G0;ESSMJ-I01SP55;ESSMJ-I01SP55-SS3
EQP0000000070006693;I01G0205;CTO - OPTAP-B 85/15;ESSMJ_G1I01;RUA GUILHERME MIERTSCHINK SANTA MARIA DE JETIBA CENTRO 29645000 ES 71;SANTA MARIA DE JETIBA;-20.025948100;-40.745005000;G0;ESSMJ-I01SP26;ESSMJ-I01SP26-SS5
EQP0000000070018530;I01G0044;CTO - OPTAP-B 80/20;ESSMJ_G1I01;RUA DO IMIGRANTE (CENTRO) SANTA MARIA DE JETIBA CENTRO 29645000 ES 256;SANTA MARIA DE JETIBA;-20.032565800;-40.739957400;G0;ESSMJ-I01SP6;ESSMJ-I01SP6-SS4
EQP0000000069939387;I01G0431;CTO - OPTAP-B 90/10;ESSMJ_G1I01;RODOVIA KURT CARL LUDWIG KERCKHOF SANTA MARIA DE JETIBA VILA NOVA 29645000 ES 986;SANTA MARIA DE JETIBA;-20.018614300;-40.755983700;G0;ESSMJ-I01SP54;ESSMJ-I01SP54-SS7
EQP0000000069960715;I01G0387;CTO - OPTAP-B 70/30;ESSMJ_G1I01;RODOVIA BR 355 SANTA MARIA DE JETIBA SAO LUIZ 29645000 ES 20;SANTA MARIA DE JETIBA;-20.009608200;-40.744318400;G0;ESSMJ-I01SP49;ESSMJ-I01SP49-SS3
EQP0000000069956966;I01G0392;CTO - OPTAP-B 90/10;ESSMJ_G1I01;RODOVIA BR 355 SANTA MARIA DE JETIBA SAO LUIZ 29645000 ES SN;SANTA MARIA DE JETIBA;-20.013266900;-40.744803300;G0;ESSMJ-I01SP49;ESSMJ-I01SP49-SS8
EQP0000000070042440;I01G0125;CTO - OPTAP-B 85/15;ESSMJ_G1I01;RUA SOPHIA JACOB MIERTSCHINK SANTA MARIA DE JETIBA CENTRO 29645000 ES 26;SANTA MARIA DE JETIBA;-20.026281900;-40.744672900;G0;ESSMJ-I01SP16;ESSMJ-I01SP16-SS5
EQP0000000070033961;I01G0162;CTO - OPTAP-B 60/40;ESSMJ_G1I01;RUA FLORENCIO AUGUSTO BERGER SANTA MARIA DE JETIBA CENTRO 29645000 ES 29;SANTA MARIA DE JETIBA;-20.025976600;-40.741490400;G0;ESSMJ-I01SP21;ESSMJ-I01SP21-SS2
EQP0000000069931127;I01G0410;CTO - OPTAP-B 60/40;ESSMJ_G1I01;RODOVIA KURT CARL LUDWIG KERCKHOF SANTA MARIA DE JETIBA VILA NOVA 29645000 ES SN;SANTA MARIA DE JETIBA;-20.019851600;-40.762543700;G0;ESSMJ-I01SP52;ESSMJ-I01SP52-SS2
EQP0000000069948620;I01G0398;CTO - OPTAP-B 90/10;ESSMJ_G1I01;RUA FLORENCIO AUGUSTO BERGER SANTA MARIA DE JETIBA CENTRO 29645000 ES 1695;SANTA MARIA DE JETIBA;-20.015719100;-40.746173000;G0;ESSMJ-I01SP50;ESSMJ-I01SP50-SS6
EQP0000000069914192;I01G0458;CTO - OPTAP-B 60/40;ESSMJ_G1I01;RUA SEM NOME SANTA MARIA DE JETIBA VILA NOVA 29645000 ES SN;SANTA MARIA DE JETIBA;-20.015465500;-40.748871500;G0;ESSMJ-I01SP58;ESSMJ-I01SP58-SS2
EQP0000000070013781;I01G0183;CTO - OPTAP-B 90/10;ESSMJ_G1I01;AVENIDA FREDERICO GRULKE SANTA MARIA DE JETIBA CENTRO 29645000 ES SN;SANTA MARIA DE JETIBA;-20.023711800;-40.745290400;G0;ESSMJ-I01SP23;ESSMJ-I01SP23-SS7
EQP0000000069920398;I01G0451;CTO - OPTAP-B 70/30;ESSMJ_G1I01;RUA ANTONIO SANTOS SANTA MARIA DE JETIBA VILA NOVA 29645000 ES SN;SANTA MARIA DE JETIBA;-20.016718000;-40.752225800;G0;ESSMJ-I01SP57;ESSMJ-I01SP57-SS3
EQP0000000070055355;I01G0010;CTO - OPTAP-B 60/40;ESSMJ_G1I01;RUA TERCIO CORREA DOS SANTOS SANTA MARIA DE JETIBA CENTRO 29645000 ES 175;SANTA MARIA DE JETIBA;-20.031684100;-40.740858700;G0;ESSMJ-I01SP2;ESSMJ-I01SP2-SS2
EQP0000000070062657;I01G0454;CTO - OPTAP-B 90/10;ESSMJ_G1I01;RUA JOSE MULLER SANTA MARIA DE JETIBA VILA NOVA 29645000 ES 244;SANTA MARIA DE JETIBA;-20.017342200;-40.751881900;G0;ESSMJ-I01SP57;ESSMJ-I01SP57-SS6
EQP0000000070015155;I01G0048;CTO - OPTAP-B 90/10;ESSMJ_G1I01;RUA DO IMIGRANTE (CENTRO) SANTA MARIA DE JETIBA CENTRO 29645000 ES 50;SANTA MARIA DE JETIBA;-20.030493900;-40.740965200;G0;ESSMJ-I01SP6;ESSMJ-I01SP6-SS8
EQP0000000069913945;I01G0469;CTO - OPTAP-B 85/15;ESSMJ_G1I01;RODOVIA KURT CARL LUDWIG KERCKHOF SANTA MARIA DE JETIBA VILA NOVA 29645000 ES 294;SANTA MARIA DE JETIBA;-20.015455900;-40.748322800;G0;ESSMJ-I01SP59;ESSMJ-I01SP59-SS5
EQP0000000069928211;I01G0415;CTO - OPTAP-B 90/10;ESSMJ_G1I01;RUA SEM NOME SANTA MARIA DE JETIBA VILA NOVA 29645000 ES 29;SANTA MARIA DE JETIBA;-20.018373700;-40.759827600;G0;ESSMJ-I01SP52;ESSMJ-I01SP52-SS7
EQP0000000069972597;I01G0371;CTO - OPTAP-B 70/30;ESSMJ_G1I01;RUA SEM NOME SANTA MARIA DE JETIBA SAO LUIZ 29645000 ES SN;SANTA MARIA DE JETIBA;-20.000217400;-40.745534300;G0;ESSMJ-I01SP47;ESSMJ-I01SP47-SS3
EQP0000000070021459;I01G0288;CTO - OPTAP-B 90/10;ESSMJ_G1I01;RUA HENRIQUE JOAO JULIO KUSTER SANTA MARIA DE JETIBA SAO LUIZ 29645000 ES 1440;SANTA MARIA DE JETIBA;-20.001675600;-40.728630400;G0;ESSMJ-I01SP36;ESSMJ-I01SP36-SS8
EQP0000000069913008;I01G0467;CTO - OPTAP-B 70/30;ESSMJ_G1I01;RODOVIA KURT CARL LUDWIG KERCKHOF SANTA MARIA DE JETIBA VILA NOVA 29645000 ES 104;SANTA MARIA DE JETIBA;-20.014708000;-40.746862500;G0;ESSMJ-I01SP59;ESSMJ-I01SP59-SS3
EQP0000000070034298;I01G0289;CTO - OPTAP-B 60/40;ESSMJ_G1I01;RUA HENRIQUE JOAO JULIO KUSTER SANTA MARIA DE JETIBA SAO LUIZ 29645000 ES 111;SANTA MARIA DE JETIBA;-20.003321100;-40.734919300;G0;ESSMJ-I01SP37;ESSMJ-I01SP37-SS1
EQP0000000070011591;I01G0301;CTO - OPTAP-B 85/15;ESSMJ_G1I01;RUA SEM NOME SANTA MARIA DE JETIBA SAO LUIZ 29645000 ES SN;SANTA MARIA DE JETIBA;-20.004054800;-40.736778200;G0;ESSMJ-I01SP38;ESSMJ-I01SP38-SS5
EQP0000000070001006;I01G0353;CTO - OPTAP-B 60/40;ESSMJ_G1I01;RUA SEM NOME SANTA MARIA DE JETIBA SAO LUIZ 29645000 ES 149;SANTA MARIA DE JETIBA;-19.999650400;-40.740229300;G0;ESSMJ-I01SP45;ESSMJ-I01SP45-SS1
EQP0000000069997916;I01G0359;CTO - OPTAP-B 90/10;ESSMJ_G1I01;RUA AMALIA J JACOBE KUSTER SANTA MARIA DE JETIBA SAO LUIZ 29645000 ES 10;SANTA MARIA DE JETIBA;-20.000620000;-40.740888800;G0;ESSMJ-I01SP45;ESSMJ-I01SP45-SS7
EQP0000000069967878;I01G0383;CTO - OPTAP-B 90/10;ESSMJ_G1I01;RUA 24 DE JUNHO SANTA MARIA DE JETIBA SAO LUIZ 29645000 ES 55;SANTA MARIA DE JETIBA;-20.008547000;-40.744789600;G0;ESSMJ-I01SP48;ESSMJ-I01SP48-SS7
EQP0000000070036484;I01G0109;CTO - OPTAP-B 85/15;ESSMJ_G1I01;RUA WALDEMAR DETTMANN SANTA MARIA DE JETIBA CENTRO 29645000 ES 305;SANTA MARIA DE JETIBA;-20.027993200;-40.746869500;G0;ESSMJ-I01SP14;ESSMJ-I01SP14-SS5
EQP0000000070050528;I01G0008;CTO - OPTAP-B 90/10;ESSMJ_G1I01;RUA HERMAN MIERTSCHINK SANTA MARIA DE JETIBA CENTRO 29645000 ES 412;SANTA MARIA DE JETIBA;-20.033482400;-40.740069900;G0;ESSMJ-I01SP1;ESSMJ-I01SP1-SS8
EQP0000000069967515;I01G0381;CTO - OPTAP-B 85/15;ESSMJ_G1I01;RUA 24 DE JUNHO SANTA MARIA DE JETIBA SAO LUIZ 29645000 ES 131;SANTA MARIA DE JETIBA;-20.009161300;-40.745172900;G0;ESSMJ-I01SP48;ESSMJ-I01SP48-SS5
EQP0000000070025235;I01G0056;CTO - OPTAP-B 90/10;ESSMJ_G1I01;AVENIDA FREDERICO GRULKE SANTA MARIA DE JETIBA CENTRO 29645000 ES SN;SANTA MARIA DE JETIBA;-20.030191300;-40.740483900;G0;ESSMJ-I01SP7;ESSMJ-I01SP7-SS8
EQP0000000070028879;I01G0051;CTO - OPTAP-B 70/30;ESSMJ_G1I01;AVENIDA FREDERICO GRULKE SANTA MARIA DE JETIBA CENTRO 29645000 ES 67;SANTA MARIA DE JETIBA;-20.034129500;-40.738540600;G0;ESSMJ-I01SP7;ESSMJ-I01SP7-SS3
EQP0000000070033646;I01G0290;CTO - OPTAP-B 60/40;ESSMJ_G1I01;RUA HENRIQUE JOAO JULIO KUSTER SANTA MARIA DE JETIBA SAO LUIZ 29645000 ES 967;SANTA MARIA DE JETIBA;-20.002490300;-40.733664300;G0;ESSMJ-I01SP37;ESSMJ-I01SP37-SS2
EQP0000000070004672;I01G0214;CTO - OPTAP-B 90/10;ESSMJ_G1I01;RUA HERA ALEMA SANTA MARIA DE JETIBA CENTRO 29645000 ES SN;SANTA MARIA DE JETIBA;-20.025842300;-40.746675400;G0;ESSMJ-I01SP27;ESSMJ-I01SP27-SS6
EQP0000000070063559;I01G0452;CTO - OPTAP-B 80/20;ESSMJ_G1I01;RUA FLORENCIO BAUSEN SANTA MARIA DE JETIBA VILA NOVA 29645000 ES 180;SANTA MARIA DE JETIBA;-20.016601500;-40.751915500;G0;ESSMJ-I01SP57;ESSMJ-I01SP57-SS4
EQP0000000069998231;I01G0358;CTO - OPTAP-B 90/10;ESSMJ_G1I01;RUA AMALIA J JACOBE KUSTER SANTA MARIA DE JETIBA SAO LUIZ 29645000 ES SN;SANTA MARIA DE JETIBA;-20.000945300;-40.741057600;G0;ESSMJ-I01SP45;ESSMJ-I01SP45-SS6
EQP0000000069907968;I01G0443;CTO - OPTAP-B 70/30;ESSMJ_G1I01;RUA TRINTA E UM DE OUTUBRO SANTA MARIA DE JETIBA VILA NOVA 29645000 ES SN;SANTA MARIA DE JETIBA;-20.016770600;-40.755913800;G0;ESSMJ-I01SP56;ESSMJ-I01SP56-SS3
EQP0000000070013347;I01G0184;CTO - OPTAP-B 90/10;ESSMJ_G1I01;AVENIDA FREDERICO GRULKE SANTA MARIA DE JETIBA CENTRO 29645000 ES SN;SANTA MARIA DE JETIBA;-20.023578000;-40.745482500;G0;ESSMJ-I01SP23;ESSMJ-I01SP23-SS8
EQP0000000069927651;I01G0414;CTO - OPTAP-B 90/10;ESSMJ_G1I01;RUA SEM NOME SANTA MARIA DE JETIBA VILA NOVA 29645000 ES 30;SANTA MARIA DE JETIBA;-20.018741900;-40.760050000;G0;ESSMJ-I01SP52;ESSMJ-I01SP52-SS6
EQP0000000070031453;I01G0292;CTO - OPTAP-B 80/20;ESSMJ_G1I01;RUA HENRIQUE JOAO JULIO KUSTER SANTA MARIA DE JETIBA SAO LUIZ 29645000 ES 1163;SANTA MARIA DE JETIBA;-20.001779100;-40.731317300;G0;ESSMJ-I01SP37;ESSMJ-I01SP37-SS4
EQP0000000070030560;I01G0083;CTO - OPTAP-B 70/30;ESSMJ_G1I01;RUA ARTHUR SCHWAMBACH SANTA MARIA DE JETIBA CENTRO 29645000 ES 75;SANTA MARIA DE JETIBA;-20.030644100;-40.748226400;G0;ESSMJ-I01SP11;ESSMJ-I01SP11-SS3
EQP0000000070008437;I01G0092;CTO - OPTAP-B 80/20;ESSMJ_G1I01;RUA SEM NOME SANTA MARIA DE JETIBA SAO SEBASTIAO DO MEIO 29645000 ES SN;SANTA MARIA DE JETIBA;-20.026178400;-40.756554300;G0;ESSMJ-I01SP12;ESSMJ-I01SP12-SS4
EQP0000000070011685;I01G0246;CTO - OPTAP-B 90/10;ESSMJ_G1I01;RUA PETUNIA SANTA MARIA DE JETIBA CENTRO 29645000 ES 206;SANTA MARIA DE JETIBA;-20.022314500;-40.747372900;G0;ESSMJ-I01SP31;ESSMJ-I01SP31-SS6
EQP0000000070052695;I01G0204;CTO - OPTAP-B 80/20;ESSMJ_G1I01;RUA AUGUSTO JACOB SANTA MARIA DE JETIBA CENTRO 29645000 ES 137;SANTA MARIA DE JETIBA;-20.025627400;-40.744844800;G0;ESSMJ-I01SP26;ESSMJ-I01SP26-SS4
EQP0000000070010311;I01G0347;CTO - OPTAP-B 70/30;ESSMJ_G1I01;RUA ARNO BERGER SANTA MARIA DE JETIBA SAO LUIZ 29645000 ES 535;SANTA MARIA DE JETIBA;-19.995660300;-40.740963200;G0;ESSMJ-I01SP44;ESSMJ-I01SP44-SS3
EQP0000000070034315;I01G0111;CTO - OPTAP-B 90/10;ESSMJ_G1I01;RUA LUTERANA SANTA MARIA DE JETIBA CENTRO 29645000 ES 216;SANTA MARIA DE JETIBA;-20.028104900;-40.746449100;G0;ESSMJ-I01SP14;ESSMJ-I01SP14-SS7
EQP0000000069942693;I01G0427;CTO - OPTAP-B 70/30;ESSMJ_G1I01;RODOVIA KURT CARL LUDWIG KERCKHOF SANTA MARIA DE JETIBA VILA NOVA 29645000 ES SN;SANTA MARIA DE JETIBA;-20.018439900;-40.755215300;G0;ESSMJ-I01SP54;ESSMJ-I01SP54-SS3
EQP0000000070002336;I01G0362;CTO - OPTAP-B 60/40;ESSMJ_G1I01;RODOVIA BR 355 SANTA MARIA DE JETIBA SAO LUIZ 29645000 ES 2180;SANTA MARIA DE JETIBA;-20.000297600;-40.742456600;G0;ESSMJ-I01SP46;ESSMJ-I01SP46-SS1
EQP0000000070052269;I01G0005;CTO - OPTAP-B 85/15;ESSMJ_G1I01;RUA HERMAN MIERTSCHINK SANTA MARIA DE JETIBA CENTRO 29645000 ES 820;SANTA MARIA DE JETIBA;-20.035653500;-40.737804600;G0;ESSMJ-I01SP1;ESSMJ-I01SP1-SS5
EQP0000000070031034;I01G0082;CTO - OPTAP-B 60/40;ESSMJ_G1I01;RUA SEM NOME SANTA MARIA DE JETIBA SAO SEBASTIAO DO MEIO 29645000 ES SN;SANTA MARIA DE JETIBA;-20.030966600;-40.748407100;G0;ESSMJ-I01SP11;ESSMJ-I01SP11-SS2
EQP0000000070033246;I01G0317;CTO - OPTAP-B 85/15;ESSMJ_G1I01;RUA LEANDRO KOELER SANTA MARIA DE JETIBA SAO LUIZ 29645000 ES SN;SANTA MARIA DE JETIBA;-20.000619000;-40.738054000;G0;ESSMJ-I01SP40;ESSMJ-I01SP40-SS5
EQP0000000070017825;I01G0146;CTO - OPTAP-B 60/40;ESSMJ_G1I01;RUA HENRIQUE POTRAZ SANTA MARIA DE JETIBA CENTRO 29645000 ES 235;SANTA MARIA DE JETIBA;-20.026805900;-40.741500700;G0;ESSMJ-I01SP19;ESSMJ-I01SP19-SS2
EQP0000000069999199;I01G0357;CTO - OPTAP-B 85/15;ESSMJ_G1I01;RUA EMILIO ALFREDO AUGUSTO JACOB SANTA MARIA DE JETIBA SAO LUIZ 29645000 ES SN;SANTA MARIA DE JETIBA;-20.000009200;-40.741129100;G0;ESSMJ-I01SP45;ESSMJ-I01SP45-SS5
EQP0000000070077081;I01G0188;CTO - OPTAP-B 60/40;ESSMJ_G1I01;AVENIDA FREDERICO GRULKE SANTA MARIA DE JETIBA CENTRO 29645000 ES 1160;SANTA MARIA DE JETIBA;-20.024933600;-40.744407600;G0;ESSMJ-I01SP24;ESSMJ-I01SP24-SS3
EQP0000000070024045;I01GP244;MINI CDOE 1:2 + 1:8 PRECON SELADA 60/40;ESSMJ_G1I01;RUA PETUNIA SANTA MARIA DE JETIBA CENTRO 29645000 ES 317;SANTA MARIA DE JETIBA;-20.022804700;-40.747016200;GP;ESSMJ-I01SP31;ESSMJ-I01SP31-SS4
EQP0000000070034756;I01G0110;CTO - OPTAP-B 90/10;ESSMJ_G1I01;RUA LUTERANA SANTA MARIA DE JETIBA CENTRO 29645000 ES SN;SANTA MARIA DE JETIBA;-20.028897200;-40.747760900;G0;ESSMJ-I01SP14;ESSMJ-I01SP14-SS6
EQP0000000070006798;I01G0095;CTO - OPTAP-B 90/10;ESSMJ_G1I01;RUA JANETTA EMILIA SCHULZ ROSS SANTA MARIA DE JETIBA SAO SEBASTIAO DO MEIO 29645000 ES SN;SANTA MARIA DE JETIBA;-20.027274500;-40.753997700;G0;ESSMJ-I01SP12;ESSMJ-I01SP12-SS7
EQP0000000070040820;I01G0113;CTO - OPTAP-B 60/40;ESSMJ_G1I01;RUA FLORIANO BERGER SANTA MARIA DE JETIBA CENTRO 29645000 ES SN;SANTA MARIA DE JETIBA;-20.028856100;-40.741681000;G0;ESSMJ-I01SP15;ESSMJ-I01SP15-SS1
EQP0000000070026291;I01G0055;CTO - OPTAP-B 90/10;ESSMJ_G1I01;AVENIDA FREDERICO GRULKE SANTA MARIA DE JETIBA CENTRO 29645000 ES 455;SANTA MARIA DE JETIBA;-20.030420800;-40.740336600;G0;ESSMJ-I01SP7;ESSMJ-I01SP7-SS7
EQP0000000070019930;I01G0134;CTO - OPTAP-B 90/10;ESSMJ_G1I01;RUA HENRIQUE POTRAZ SANTA MARIA DE JETIBA CENTRO 29645000 ES 151;SANTA MARIA DE JETIBA;-20.027589700;-40.741041000;G0;ESSMJ-I01SP17;ESSMJ-I01SP17-SS6
EQP0000000070018668;I01G0136;CTO - OPTAP-B 90/10;ESSMJ_G1I01;RUA GUERLINA KUSTER SANTA MARIA DE JETIBA CENTRO 29645000 ES 35;SANTA MARIA DE JETIBA;-20.027416000;-40.741552300;G0;ESSMJ-I01SP17;ESSMJ-I01SP17-SS8
EQP0000000069957208;I01G0391;CTO - OPTAP-B 90/10;ESSMJ_G1I01;RODOVIA BR 355 SANTA MARIA DE JETIBA SAO LUIZ 29645000 ES SN;SANTA MARIA DE JETIBA;-20.012884600;-40.744787900;G0;ESSMJ-I01SP49;ESSMJ-I01SP49-SS7
EQP0000000069956459;I01G0407;CTO - OPTAP-B 90/10;ESSMJ_G1I01;RODOVIA BR 355 SANTA MARIA DE JETIBA SAO LUIZ 29645000 ES SN;SANTA MARIA DE JETIBA;-20.014323900;-40.745416000;G0;ESSMJ-I01SP51;ESSMJ-I01SP51-SS7
EQP0000000070020548;I01G0042;CTO - OPTAP-B 60/40;ESSMJ_G1I01;RUA TERCIO CORREA DOS SANTOS SANTA MARIA DE JETIBA CENTRO 29645000 ES SN;SANTA MARIA DE JETIBA;-20.032682500;-40.740270900;G0;ESSMJ-I01SP6;ESSMJ-I01SP6-SS2
EQP0000000070019779;I01G0176;CTO - OPTAP-B 90/10;ESSMJ_G1I01;RUA NICOLAU REINKE SANTA MARIA DE JETIBA CENTRO 29645000 ES SN;SANTA MARIA DE JETIBA;-20.023303300;-40.744548400;G0;ESSMJ-I01SP22;ESSMJ-I01SP22-SS8
EQP0000000069955473;I01G0406;CTO - OPTAP-B 90/10;ESSMJ_G1I01;RODOVIA BR 355 SANTA MARIA DE JETIBA SAO LUIZ 29645000 ES SN;SANTA MARIA DE JETIBA;-20.013900700;-40.744975200;G0;ESSMJ-I01SP51;ESSMJ-I01SP51-SS6
EQP0000000069926398;I01G0418;CTO - OPTAP-B 60/40;ESSMJ_G1I01;RUA SEM NOME SANTA MARIA DE JETIBA VILA NOVA 29645000 ES SN;SANTA MARIA DE JETIBA;-20.017600400;-40.759346700;G0;ESSMJ-I01SP53;ESSMJ-I01SP53-SS2
EQP0000000070026297;I01G0340;CTO - OPTAP-B 80/20;ESSMJ_G1I01;RODOVIA BR 355 SANTA MARIA DE JETIBA SAO LUIZ 29645000 ES 59;SANTA MARIA DE JETIBA;-19.994514500;-40.745666300;G0;ESSMJ-I01SP43;ESSMJ-I01SP43-SS4
EQP0000000069918258;I01G0470;CTO - OPTAP-B 90/10;ESSMJ_G1I01;RODOVIA KURT CARL LUDWIG KERCKHOF SANTA MARIA DE JETIBA VILA NOVA 29645000 ES SN;SANTA MARIA DE JETIBA;-20.016574700;-40.749358500;G0;ESSMJ-I01SP59;ESSMJ-I01SP59-SS6
EQP0000000070037057;I01G0107;CTO - OPTAP-B 70/30;ESSMJ_G1I01;RUA WALDEMAR DETTMANN SANTA MARIA DE JETIBA CENTRO 29645000 ES SN;SANTA MARIA DE JETIBA;-20.027371600;-40.745699500;G0;ESSMJ-I01SP14;ESSMJ-I01SP14-SS3
EQP0000000070027075;I01G0307;CTO - OPTAP-B 70/30;ESSMJ_G1I01;RUA JOZINA KEPPO GUMS SANTA MARIA DE JETIBA SAO LUIZ 29645000 ES SN;SANTA MARIA DE JETIBA;-20.005158300;-40.741167800;G0;ESSMJ-I01SP39;ESSMJ-I01SP39-SS3
EQP0000000069909325;I01G0447;CTO - OPTAP-B 90/10;ESSMJ_G1I01;RODOVIA KURT CARL LUDWIG KERCKHOF SANTA MARIA DE JETIBA VILA NOVA 29645000 ES SN;SANTA MARIA DE JETIBA;-20.018424600;-40.753428900;G0;ESSMJ-I01SP56;ESSMJ-I01SP56-SS7
EQP0000000069992382;I01G0373;CTO - OPTAP-B 85/15;ESSMJ_G1I01;RUA SEM NOME SANTA MARIA DE JETIBA SAO LUIZ 29645000 ES SN;SANTA MARIA DE JETIBA;-20.005847000;-40.746533300;G0;ESSMJ-I01SP47;ESSMJ-I01SP47-SS5
EQP0000000069966759;I01G0382;CTO - OPTAP-B 90/10;ESSMJ_G1I01;RUA 24 DE JUNHO SANTA MARIA DE JETIBA SAO LUIZ 29645000 ES SN;SANTA MARIA DE JETIBA;-20.009533100;-40.746134100;G0;ESSMJ-I01SP48;ESSMJ-I01SP48-SS6
EQP0000000070009257;I01G0222;CTO - OPTAP-B 70/30;ESSMJ_G1I01;RUA DOS EVANGELICOS SANTA MARIA DE JETIBA CENTRO 29645000 ES 170;SANTA MARIA DE JETIBA;-20.023025900;-40.746300100;G0;ESSMJ-I01SP28;ESSMJ-I01SP28-SS5
EQP0000000070040453;I01G0114;CTO - OPTAP-B 60/40;ESSMJ_G1I01;RUA FLORIANO BERGER SANTA MARIA DE JETIBA CENTRO 29645000 ES SN;SANTA MARIA DE JETIBA;-20.028399500;-40.741948600;G0;ESSMJ-I01SP15;ESSMJ-I01SP15-SS2
EQP0000000069916706;I01G0463;CTO - OPTAP-B 90/10;ESSMJ_G1I01;RUA SEM NOME SANTA MARIA DE JETIBA VILA NOVA 29645000 ES 35;SANTA MARIA DE JETIBA;-20.016662500;-40.751304000;G0;ESSMJ-I01SP58;ESSMJ-I01SP58-SS7
EQP0000000070027980;I01G0053;CTO - OPTAP-B 85/15;ESSMJ_G1I01;AVENIDA FREDERICO GRULKE SANTA MARIA DE JETIBA CENTRO 29645000 ES 231;SANTA MARIA DE JETIBA;-20.032584300;-40.739507100;G0;ESSMJ-I01SP7;ESSMJ-I01SP7-SS5
EQP0000000069947753;I01G0400;CTO - OPTAP-B 90/10;ESSMJ_G1I01;RODOVIA BR 355 SANTA MARIA DE JETIBA CENTRO 29645000 ES SN;SANTA MARIA DE JETIBA;-20.014848900;-40.745886100;G0;ESSMJ-I01SP50;ESSMJ-I01SP50-SS8
EQP0000000070008441;I01G0349;CTO - OPTAP-B 85/15;ESSMJ_G1I01;RUA ARNO BERGER SANTA MARIA DE JETIBA SAO LUIZ 29645000 ES 321;SANTA MARIA DE JETIBA;-19.997654500;-40.741480800;G0;ESSMJ-I01SP44;ESSMJ-I01SP44-SS5
EQP0000000070031528;I01G0060;CTO - OPTAP-B 80/20;ESSMJ_G1I01;RUA DOUTOR MARTINHO LUTERO SANTA MARIA DE JETIBA CENTRO 29645000 ES 30;SANTA MARIA DE JETIBA;-20.029606400;-40.741485700;G0;ESSMJ-I01SP8;ESSMJ-I01SP8-SS4
EQP0000000070015793;I01G0181;CTO - OPTAP-B 85/15;ESSMJ_G1I01;RUA NICOLAU REINKE SANTA MARIA DE JETIBA CENTRO 29645000 ES SN;SANTA MARIA DE JETIBA;-20.023987300;-40.744772100;G0;ESSMJ-I01SP23;ESSMJ-I01SP23-SS5
EQP0000000069940545;I01G0429;CTO - OPTAP-B 85/15;ESSMJ_G1I01;RUA SEM NOME SANTA MARIA DE JETIBA VILA NOVA 29645000 ES 112;SANTA MARIA DE JETIBA;-20.017877300;-40.755671300;G0;ESSMJ-I01SP54;ESSMJ-I01SP54-SS5
EQP0000000070033726;I01G0316;CTO - OPTAP-B 80/20;ESSMJ_G1I01;RUA RODOLFO KUSTER SANTA MARIA DE JETIBA SAO LUIZ 29645000 ES 71;SANTA MARIA DE JETIBA;-20.000936600;-40.739172400;G0;ESSMJ-I01SP40;ESSMJ-I01SP40-SS4
EQP0000000069971997;I01G0370;CTO - OPTAP-B 60/40;ESSMJ_G1I01;RUA SEM NOME SANTA MARIA DE JETIBA SAO LUIZ 29645000 ES SN;SANTA MARIA DE JETIBA;-19.998513500;-40.745716000;G0;ESSMJ-I01SP47;ESSMJ-I01SP47-SS2
EQP0000000069936957;I01G0434;CTO - OPTAP-B 60/40;ESSMJ_G1I01;RUA BELA ALVORADA SANTA MARIA DE JETIBA VILA NOVA 29645000 ES SN;SANTA MARIA DE JETIBA;-20.020189300;-40.756807500;G0;ESSMJ-I01SP55;ESSMJ-I01SP55-SS2
EQP0000000070007393;I01G0094;CTO - OPTAP-B 90/10;ESSMJ_G1I01;RUA SEM NOME SANTA MARIA DE JETIBA SAO SEBASTIAO DO MEIO 29645000 ES SN;SANTA MARIA DE JETIBA;-20.026425800;-40.755459000;G0;ESSMJ-I01SP12;ESSMJ-I01SP12-SS6
EQP0000000069957984;I01G0390;CTO - OPTAP-B 90/10;ESSMJ_G1I01;RODOVIA BR 355 SANTA MARIA DE JETIBA SAO LUIZ 29645000 ES SN;SANTA MARIA DE JETIBA;-20.012185100;-40.745119600;G0;ESSMJ-I01SP49;ESSMJ-I01SP49-SS6
EQP0000000070011368;I01G0100;CTO - OPTAP-B 80/20;ESSMJ_G1I01;RUA SEM NOME SANTA MARIA DE JETIBA SAO SEBASTIAO DO MEIO 29645000 ES SN;SANTA MARIA DE JETIBA;-20.026312100;-40.752863600;G0;ESSMJ-I01SP13;ESSMJ-I01SP13-SS4
EQP0000000070018111;I01G0045;CTO - OPTAP-B 85/15;ESSMJ_G1I01;RUA DO IMIGRANTE (CENTRO) SANTA MARIA DE JETIBA CENTRO 29645000 ES SN;SANTA MARIA DE JETIBA;-20.032330200;-40.740063600;G0;ESSMJ-I01SP6;ESSMJ-I01SP6-SS5
EQP0000000070026837;I01G0295;CTO - OPTAP-B 90/10;ESSMJ_G1I01;RUA SEM NOME SANTA MARIA DE JETIBA SAO LUIZ 29645000 ES SN;SANTA MARIA DE JETIBA;-20.001374300;-40.730087500;G0;ESSMJ-I01SP37;ESSMJ-I01SP37-SS7
EQP0000000070054437;I01G0012;CTO - OPTAP-B 80/20;ESSMJ_G1I01;RUA HERMAN MIERTSCHINK SANTA MARIA DE JETIBA CENTRO 29645000 ES 91;SANTA MARIA DE JETIBA;-20.031020400;-40.741600800;G0;ESSMJ-I01SP2;ESSMJ-I01SP2-SS4
EQP0000000070033723;I01G0112;CTO - OPTAP-B 90/10;ESSMJ_G1I01;RUA LUTERANA SANTA MARIA DE JETIBA CENTRO 29645000 ES SN;SANTA MARIA DE JETIBA;-20.026983500;-40.744805000;G0;ESSMJ-I01SP14;ESSMJ-I01SP14-SS8
EQP0000000070025136;I01G0339;CTO - OPTAP-B 70/30;ESSMJ_G1I01;RODOVIA BR 355 SANTA MARIA DE JETIBA SAO LUIZ 29645000 ES SN;SANTA MARIA DE JETIBA;-19.993423900;-40.746033000;G0;ESSMJ-I01SP43;ESSMJ-I01SP43-SS3
EQP0000000070021578;I01G0040;CTO - OPTAP-B 90/10;ESSMJ_G1I01;RUA FRANCISCO SCHWARTZ SANTA MARIA DE JETIBA CENTRO 29645000 ES 89;SANTA MARIA DE JETIBA;-20.030058900;-40.741726400;G0;ESSMJ-I01SP5;ESSMJ-I01SP5-SS8
EQP0000000070011033;I01G0101;CTO - OPTAP-B 85/15;ESSMJ_G1I01;RUA SEM NOME SANTA MARIA DE JETIBA SAO SEBASTIAO DO MEIO 29645000 ES SN;SANTA MARIA DE JETIBA;-20.025811300;-40.753605200;G0;ESSMJ-I01SP13;ESSMJ-I01SP13-SS5
EQP0000000070029583;I01G0293;CTO - OPTAP-B 85/15;ESSMJ_G1I01;RUA JOSE CONTE SANTA MARIA DE JETIBA SAO LUIZ 29645000 ES SN;SANTA MARIA DE JETIBA;-20.000747500;-40.730703600;G0;ESSMJ-I01SP37;ESSMJ-I01SP37-SS5
EQP0000000070006401;I01G0206;CTO - OPTAP-B 90/10;ESSMJ_G1I01;RUA GUILHERME MIERTSCHINK SANTA MARIA DE JETIBA CENTRO 29645000 ES 20;SANTA MARIA DE JETIBA;-20.025678000;-40.744509300;G0;ESSMJ-I01SP26;ESSMJ-I01SP26-SS6
EQP0000000070040731;I01G0279;CTO - OPTAP-B 90/10;ESSMJ_G1I01;AVENIDA FREDERICO GRULKE SANTA MARIA DE JETIBA CENTRO 29645000 ES SN;SANTA MARIA DE JETIBA;-20.018897600;-40.747137400;G0;ESSMJ-I01SP35;ESSMJ-I01SP35-SS7
EQP0000000070042531;I01G0277;CTO - OPTAP-B 85/15;ESSMJ_G1I01;RUA ALBERTO BERGER SANTA MARIA DE JETIBA CENTRO 29645000 ES 49;SANTA MARIA DE JETIBA;-20.020239800;-40.747363700;G0;ESSMJ-I01SP35;ESSMJ-I01SP35-SS5
EQP0000000070024723;I01G0076;CTO - OPTAP-B 80/20;ESSMJ_G1I01;RUA SEM NOME SANTA MARIA DE JETIBA SAO SEBASTIAO DO MEIO 29645000 ES SN;SANTA MARIA DE JETIBA;-20.029420800;-40.760587700;G0;ESSMJ-I01SP10;ESSMJ-I01SP10-SS4
EQP0000000070018906;I01G0043;CTO - OPTAP-B 70/30;ESSMJ_G1I01;RUA TERCIO CORREA DOS SANTOS SANTA MARIA DE JETIBA CENTRO 29645000 ES SN;SANTA MARIA DE JETIBA;-20.033330800;-40.739851300;G0;ESSMJ-I01SP6;ESSMJ-I01SP6-SS3
EQP0000000069943371;I01G0428;CTO - OPTAP-B 80/20;ESSMJ_G1I01;RODOVIA KURT CARL LUDWIG KERCKHOF SANTA MARIA DE JETIBA VILA NOVA 29645000 ES SN;SANTA MARIA DE JETIBA;-20.018622400;-40.755623100;G0;ESSMJ-I01SP54;ESSMJ-I01SP54-SS4
EQP0000000070033571;I01G0163;CTO - OPTAP-B 70/30;ESSMJ_G1I01;RUA GUSTAVO BERGER SANTA MARIA DE JETIBA CENTRO 29645000 ES 100;SANTA MARIA DE JETIBA;-20.025317400;-40.741832800;G0;ESSMJ-I01SP21;ESSMJ-I01SP21-SS3
EQP0000000070025011;I01G0309;CTO - OPTAP-B 85/15;ESSMJ_G1I01;RUA WALTER BERTHOLD CARL DOBRUNS SANTA MARIA DE JETIBA SAO LUIZ 29645000 ES 430;SANTA MARIA DE JETIBA;-20.006094800;-40.741177500;G0;ESSMJ-I01SP39;ESSMJ-I01SP39-SS5
EQP0000000070014386;I01G0182;CTO - OPTAP-B 90/10;ESSMJ_G1I01;RUA NICOLAU REINKE SANTA MARIA DE JETIBA CENTRO 29645000 ES 25;SANTA MARIA DE JETIBA;-20.023759700;-40.744807700;G0;ESSMJ-I01SP23;ESSMJ-I01SP23-SS6
EQP0000000070054785;I01G0011;CTO - OPTAP-B 70/30;ESSMJ_G1I01;RUA TERCIO CORREA DOS SANTOS SANTA MARIA DE JETIBA CENTRO 29645000 ES 107;SANTA MARIA DE JETIBA;-20.031108500;-40.741121900;G0;ESSMJ-I01SP2;ESSMJ-I01SP2-SS3
EQP0000000070010711;I01G0102;CTO - OPTAP-B 90/10;ESSMJ_G1I01;RUA SEM NOME SANTA MARIA DE JETIBA SAO SEBASTIAO DO MEIO 29645000 ES SN;SANTA MARIA DE JETIBA;-20.026960300;-40.753724000;G0;ESSMJ-I01SP13;ESSMJ-I01SP13-SS6
EQP0000000070030381;I01G0343;CTO - OPTAP-B 90/10;ESSMJ_G1I01;RUA SEM NOME SANTA MARIA DE JETIBA SAO LUIZ 29645000 ES SN;SANTA MARIA DE JETIBA;-19.995501900;-40.743706000;G0;ESSMJ-I01SP43;ESSMJ-I01SP43-SS7
EQP0000000070011168;I01G0247;CTO - OPTAP-B 90/10;ESSMJ_G1I01;RUA PETUNIA SANTA MARIA DE JETIBA CENTRO 29645000 ES 80;SANTA MARIA DE JETIBA;-20.021473200;-40.747699600;G0;ESSMJ-I01SP31;ESSMJ-I01SP31-SS7
EQP0000000069935526;I01G0436;CTO - OPTAP-B 80/20;ESSMJ_G1I01;RUA DEZENOVE DE ABRIL SANTA MARIA DE JETIBA VILA NOVA 29645000 ES SN;SANTA MARIA DE JETIBA;-20.020587600;-40.756017600;G0;ESSMJ-I01SP55;ESSMJ-I01SP55-SS4
EQP0000000070021862;I01G0173;CTO - OPTAP-B 85/15;ESSMJ_G1I01;RUA BERTHOLDO JACOB SANTA MARIA DE JETIBA CENTRO 29645000 ES 56;SANTA MARIA DE JETIBA;-20.022674400;-40.743445900;G0;ESSMJ-I01SP22;ESSMJ-I01SP22-SS5
EQP0000000070011925;I01G0300;CTO - OPTAP-B 80/20;ESSMJ_G1I01;RUA HENRIQUE JOAO JULIO KUSTER SANTA MARIA DE JETIBA SAO LUIZ 29645000 ES SN;SANTA MARIA DE JETIBA;-20.003335500;-40.735989400;G0;ESSMJ-I01SP38;ESSMJ-I01SP38-SS4
EQP0000000069933841;I01G0438;CTO - OPTAP-B 90/10;ESSMJ_G1I01;RUA LUIS EMILIO BARTH SANTA MARIA DE JETIBA VILA NOVA 29645000 ES 43;SANTA MARIA DE JETIBA;-20.019477700;-40.756490300;G0;ESSMJ-I01SP55;ESSMJ-I01SP55-SS6
EQP0000000070027228;I01G0087;CTO - OPTAP-B 90/10;ESSMJ_G1I01;RUA RAULINO BRAUN SANTA MARIA DE JETIBA SAO SEBASTIAO DO MEIO 29645000 ES SN;SANTA MARIA DE JETIBA;-20.029432500;-40.755947200;G0;ESSMJ-I01SP11;ESSMJ-I01SP11-SS7
EQP0000000069997511;I01G0366;CTO - OPTAP-B 70/30;ESSMJ_G1I01;RODOVIA BR 355 SANTA MARIA DE JETIBA SAO LUIZ 29645000 ES 2030;SANTA MARIA DE JETIBA;-20.001214900;-40.741364500;G0;ESSMJ-I01SP46;ESSMJ-I01SP46-SS5
EQP0000000070014943;I01G0149;CTO - OPTAP-B 85/15;ESSMJ_G1I01;RUA HENRIQUE POTRAZ SANTA MARIA DE JETIBA CENTRO 29645000 ES 331;SANTA MARIA DE JETIBA;-20.026478400;-40.742140200;G0;ESSMJ-I01SP19;ESSMJ-I01SP19-SS5
EQP0000000070007007;I01G0351;CTO - OPTAP-B 90/10;ESSMJ_G1I01;RUA ARNO BERGER SANTA MARIA DE JETIBA SAO LUIZ 29645000 ES SN1;SANTA MARIA DE JETIBA;-19.999014900;-40.741228300;G0;ESSMJ-I01SP44;ESSMJ-I01SP44-SS7
EQP0000000069930368;I01G0411;CTO - OPTAP-B 70/30;ESSMJ_G1I01;RODOVIA KURT CARL LUDWIG KERCKHOF SANTA MARIA DE JETIBA VILA NOVA 29645000 ES SN;SANTA MARIA DE JETIBA;-20.019164200;-40.761919200;G0;ESSMJ-I01SP52;ESSMJ-I01SP52-SS3
EQP0000000070039870;I01G0115;CTO - OPTAP-B 70/30;ESSMJ_G1I01;RUA FLORIANO BERGER SANTA MARIA DE JETIBA CENTRO 29645000 ES 184;SANTA MARIA DE JETIBA;-20.028031900;-40.742189200;G0;ESSMJ-I01SP15;ESSMJ-I01SP15-SS3
EQP0000000070017084;I01G0180;CTO - OPTAP-B 80/20;ESSMJ_G1I01;RUA NICOLAU REINKE SANTA MARIA DE JETIBA CENTRO 29645000 ES SN;SANTA MARIA DE JETIBA;-20.022975900;-40.742645300;G0;ESSMJ-I01SP23;ESSMJ-I01SP23-SS4
EQP0000000070032374;I01G0166;CTO - OPTAP-B 90/10;ESSMJ_G1I01;RUA EMILIA ROEPKE BOLDT SANTA MARIA DE JETIBA CENTRO 29645000 ES 455;SANTA MARIA DE JETIBA;-20.025506800;-40.743432700;G0;ESSMJ-I01SP21;ESSMJ-I01SP21-SS6
EQP0000000069934889;I01G0437;CTO - OPTAP-B 85/15;ESSMJ_G1I01;RUA LUIS EMILIO BARTH SANTA MARIA DE JETIBA VILA NOVA 29645000 ES 65;SANTA MARIA DE JETIBA;-20.019695900;-40.756410200;G0;ESSMJ-I01SP55;ESSMJ-I01SP55-SS5
EQP0000000070004445;I01G0215;CTO - OPTAP-B 90/10;ESSMJ_G1I01;RUA DOS EVANGELICOS SANTA MARIA DE JETIBA CENTRO 29645000 ES 90;SANTA MARIA DE JETIBA;-20.024910400;-40.745692000;G0;ESSMJ-I01SP27;ESSMJ-I01SP27-SS7
EQP0000000069970474;I01G0384;CTO - OPTAP-B 90/10;ESSMJ_G1I01;RODOVIA BR 355 SANTA MARIA DE JETIBA SAO LUIZ 29645000 ES 1214;SANTA MARIA DE JETIBA;-20.008455000;-40.744065600;G0;ESSMJ-I01SP48;ESSMJ-I01SP48-SS8
EQP0000000070029616;I01G0170;CTO - OPTAP-B 60/40;ESSMJ_G1I01;RUA ARNOLD BEHREND SANTA MARIA DE JETIBA CENTRO 29645000 ES SN;SANTA MARIA DE JETIBA;-20.022719000;-40.745410800;G0;ESSMJ-I01SP22;ESSMJ-I01SP22-SS2
EQP0000000070021832;I01G0332;CTO - OPTAP-B 80/20;ESSMJ_G1I01;RUA SEM NOME SANTA MARIA DE JETIBA SAO LUIZ 29645000 ES SN;SANTA MARIA DE JETIBA;-19.995020100;-40.746539100;G0;ESSMJ-I01SP42;ESSMJ-I01SP42-SS4
EQP0000000070004995;I01G0213;CTO - OPTAP-B 85/15;ESSMJ_G1I01;RUA GUILHERME MIERTSCHINK SANTA MARIA DE JETIBA CENTRO 29645000 ES 141;SANTA MARIA DE JETIBA;-20.025902300;-40.745756200;G0;ESSMJ-I01SP27;ESSMJ-I01SP27-SS5
EQP0000000069953139;I01G0393;CTO - OPTAP-B 60/40;ESSMJ_G1I01;RUA SEM NOME SANTA MARIA DE JETIBA SAO LUIZ 29645000 ES SN;SANTA MARIA DE JETIBA;-20.015699100;-40.738203700;G0;ESSMJ-I01SP50;ESSMJ-I01SP50-SS1
EQP0000000070049640;I01G0269;CTO - OPTAP-B 85/15;ESSMJ_G1I01;RUA ANTONIO BEHREND SANTA MARIA DE JETIBA CENTRO 29645000 ES 75;SANTA MARIA DE JETIBA;-20.021842800;-40.745332400;G0;ESSMJ-I01SP34;ESSMJ-I01SP34-SS5
EQP0000000070055803;I01G0009;CTO - OPTAP-B 60/40;ESSMJ_G1I01;RUA TERCIO CORREA DOS SANTOS SANTA MARIA DE JETIBA CENTRO 29645000 ES 221;SANTA MARIA DE JETIBA;-20.032178000;-40.740583600;G0;ESSMJ-I01SP2;ESSMJ-I01SP2-SS1
EQP0000000070029969;I01G0084;CTO - OPTAP-B 80/20;ESSMJ_G1I01;RUA HENRIQUE EGGERT SANTA MARIA DE JETIBA CENTRO 29645000 ES 33;SANTA MARIA DE JETIBA;-20.030158200;-40.748724100;G0;ESSMJ-I01SP11;ESSMJ-I01SP11-SS4
EQP0000000070058811;I01G0368;CTO - OPTAP-B 70/30;ESSMJ_G1I01;LADEIRA AUGUSTO HENRIQUE BERTOLO SANTA MARIA DE JETIBA SAO LUIZ 29645000 ES 49;SANTA MARIA DE JETIBA;-20.001915300;-40.740708800;G0;ESSMJ-I01SP46;ESSMJ-I01SP46-SS7
EQP0000000069925192;I01G0424;CTO - OPTAP-B 70/30;ESSMJ_G1I01;RUA SEM NOME SANTA MARIA DE JETIBA VILA NOVA 29645000 ES SN;SANTA MARIA DE JETIBA;-20.018019700;-40.758261800;G0;ESSMJ-I01SP53;ESSMJ-I01SP53-SS8
EQP0000000069919150;I01G0471;CTO - OPTAP-B 90/10;ESSMJ_G1I01;RODOVIA KURT CARL LUDWIG KERCKHOF SANTA MARIA DE JETIBA VILA NOVA 29645000 ES SN;SANTA MARIA DE JETIBA;-20.017081700;-40.749789200;G0;ESSMJ-I01SP59;ESSMJ-I01SP59-SS7
EQP0000000069912858;I01G0468;CTO - OPTAP-B 80/20;ESSMJ_G1I01;RODOVIA KURT CARL LUDWIG KERCKHOF SANTA MARIA DE JETIBA VILA NOVA 29645000 ES SN;SANTA MARIA DE JETIBA;-20.014626600;-40.746527900;G0;ESSMJ-I01SP59;ESSMJ-I01SP59-SS4
EQP0000000069924916;I01G0440;CTO - OPTAP-B 90/10;ESSMJ_G1I01;RODOVIA KURT CARL LUDWIG KERCKHOF SANTA MARIA DE JETIBA VILA NOVA 29645000 ES 1184;SANTA MARIA DE JETIBA;-20.018552700;-40.757981400;G0;ESSMJ-I01SP55;ESSMJ-I01SP55-SS8
EQP0000000070023855;I01G0311;CTO - OPTAP-B 90/10;ESSMJ_G1I01;RUA WALTER BERTHOLD CARL DOBRUNS SANTA MARIA DE JETIBA SAO LUIZ 29645000 ES 347;SANTA MARIA DE JETIBA;-20.004633000;-40.740442500;G0;ESSMJ-I01SP39;ESSMJ-I01SP39-SS7
EQP0000000069928867;I01G0413;CTO - OPTAP-B 85/15;ESSMJ_G1I01;RODOVIA KURT CARL LUDWIG KERCKHOF SANTA MARIA DE JETIBA VILA NOVA 29645000 ES 83;SANTA MARIA DE JETIBA;-20.019082900;-40.760147200;G0;ESSMJ-I01SP52;ESSMJ-I01SP52-SS5
EQP0000000070008194;I01G0093;CTO - OPTAP-B 85/15;ESSMJ_G1I01;RUA SEM NOME SANTA MARIA DE JETIBA SAO SEBASTIAO DO MEIO 29645000 ES SN;SANTA MARIA DE JETIBA;-20.025626600;-40.756519300;G0;ESSMJ-I01SP12;ESSMJ-I01SP12-SS5
EQP0000000070032239;I01G0291;CTO - OPTAP-B 70/30;ESSMJ_G1I01;RUA HENRIQUE JOAO JULIO KUSTER SANTA MARIA DE JETIBA SAO LUIZ 29645000 ES 946;SANTA MARIA DE JETIBA;-20.002290400;-40.733115600;G0;ESSMJ-I01SP37;ESSMJ-I01SP37-SS3
EQP0000000070044997;I01G0270;CTO - OPTAP-B 90/10;ESSMJ_G1I01;RUA ROLF POTRATZ SANTA MARIA DE JETIBA CENTRO 29645000 ES 44;SANTA MARIA DE JETIBA;-20.021598100;-40.746228500;G0;ESSMJ-I01SP34;ESSMJ-I01SP34-SS6
EQP0000000070066591;I01G0119;CTO - OPTAP-B 90/10;ESSMJ_G1I01;RUA FLORIANO BERGER SANTA MARIA DE JETIBA CENTRO 29645000 ES 369;SANTA MARIA DE JETIBA;-20.026894500;-40.743549200;G0;ESSMJ-I01SP15;ESSMJ-I01SP15-SS7
EQP0000000070029030;I01G0171;CTO - OPTAP-B 70/30;ESSMJ_G1I01;RUA FLORENCIO AUGUSTO BERGER SANTA MARIA DE JETIBA CENTRO 29645000 ES SN;SANTA MARIA DE JETIBA;-20.022211100;-40.744357600;G0;ESSMJ-I01SP22;ESSMJ-I01SP22-SS3
EQP0000000069910199;I01G0456;CTO - OPTAP-B 90/10;ESSMJ_G1I01;RODOVIA KURT CARL LUDWIG KERCKHOF SANTA MARIA DE JETIBA VILA NOVA 29645000 ES 36;SANTA MARIA DE JETIBA;-20.017858300;-40.751475100;G0;ESSMJ-I01SP57;ESSMJ-I01SP57-SS8
EQP0000000069993191;I01G0374;CTO - OPTAP-B 90/10;ESSMJ_G1I01;RUA SEM NOME SANTA MARIA DE JETIBA SAO LUIZ 29645000 ES SN;SANTA MARIA DE JETIBA;-20.007517200;-40.745913400;G0;ESSMJ-I01SP47;ESSMJ-I01SP47-SS6
EQP0000000070024645;I01G0035;CTO - OPTAP-B 70/30;ESSMJ_G1I01;RUA DALMACIO ESPINDOLA SANTA MARIA DE JETIBA CENTRO 29645000 ES SN;SANTA MARIA DE JETIBA;-20.032435500;-40.741986600;G0;ESSMJ-I01SP5;ESSMJ-I01SP5-SS3
EQP0000000070011823;I01G0152;CTO - OPTAP-B 90/10;ESSMJ_G1I01;AVENIDA FREDERICO GRULKE SANTA MARIA DE JETIBA CENTRO 29645000 ES 1089;SANTA MARIA DE JETIBA;-20.025998300;-40.743800600;G0;ESSMJ-I01SP19;ESSMJ-I01SP19-SS8
EQP0000000070029259;I01G0085;CTO - OPTAP-B 85/15;ESSMJ_G1I01;RUA HENRIQUE EGGERT SANTA MARIA DE JETIBA SAO SEBASTIAO DO MEIO 29645000 ES SN;SANTA MARIA DE JETIBA;-20.029331500;-40.753656600;G0;ESSMJ-I01SP11;ESSMJ-I01SP11-SS5
EQP0000000070019692;I01G0281;CTO - OPTAP-B 60/40;ESSMJ_G1I01;RUA SEM NOME SANTA MARIA DE JETIBA SAO LUIZ 29645000 ES 416;SANTA MARIA DE JETIBA;-20.001148800;-40.719686700;G0;ESSMJ-I01SP36;ESSMJ-I01SP36-SS1
EQP0000000069941171;I01G0430;CTO - OPTAP-B 90/10;ESSMJ_G1I01;RUA SEM NOME SANTA MARIA DE JETIBA VILA NOVA 29645000 ES SN;SANTA MARIA DE JETIBA;-20.017930500;-40.756011800;G0;ESSMJ-I01SP54;ESSMJ-I01SP54-SS6
EQP0000000070031198;I01G0061;CTO - OPTAP-B 85/15;ESSMJ_G1I01;RUA DOUTOR MARTINHO LUTERO SANTA MARIA DE JETIBA CENTRO 29645000 ES 50;SANTA MARIA DE JETIBA;-20.029525500;-40.741255700;G0;ESSMJ-I01SP8;ESSMJ-I01SP8-SS5
EQP0000000069994223;I01G0376;CTO - OPTAP-B 90/10;ESSMJ_G1I01;RUA CARLOS ALBERTO GUILHERME GUMS SANTA MARIA DE JETIBA SAO LUIZ 29645000 ES SN;SANTA MARIA DE JETIBA;-20.005233800;-40.742173800;G0;ESSMJ-I01SP47;ESSMJ-I01SP47-SS8
EQP0000000070025542;I01G0310;CTO - OPTAP-B 90/10;ESSMJ_G1I01;RUA HERMANN DOBRUNS SANTA MARIA DE JETIBA SAO LUIZ 29645000 ES SN;SANTA MARIA DE JETIBA;-20.006426300;-40.741332000;G0;ESSMJ-I01SP39;ESSMJ-I01SP39-SS6
EQP0000000069914523;I01G0459;CTO - OPTAP-B 70/30;ESSMJ_G1I01;RUA JOSE MULLER SANTA MARIA DE JETIBA VILA NOVA 29645000 ES 140;SANTA MARIA DE JETIBA;-20.015771900;-40.749410100;G0;ESSMJ-I01SP58;ESSMJ-I01SP58-SS3
EQP0000000070012556;I01G0336;CTO - OPTAP-B 90/10;ESSMJ_G1I01;RODOVIA BR 355 SANTA MARIA DE JETIBA SAO LUIZ 29645000 ES SN;SANTA MARIA DE JETIBA;-19.998411600;-40.743133600;G0;ESSMJ-I01SP42;ESSMJ-I01SP42-SS8
EQP0000000070019200;I01G0135;CTO - OPTAP-B 90/10;ESSMJ_G1I01;RUA HENRIQUE POTRAZ SANTA MARIA DE JETIBA CENTRO 29645000 ES 180;SANTA MARIA DE JETIBA;-20.027297300;-40.741083800;G0;ESSMJ-I01SP17;ESSMJ-I01SP17-SS7
EQP0000000070036785;I01G0108;CTO - OPTAP-B 80/20;ESSMJ_G1I01;RUA WALDEMAR DETTMANN SANTA MARIA DE JETIBA CENTRO 29645000 ES 203;SANTA MARIA DE JETIBA;-20.027496200;-40.745905000;G0;ESSMJ-I01SP14;ESSMJ-I01SP14-SS4
EQP0000000070022561;I01G0172;CTO - OPTAP-B 80/20;ESSMJ_G1I01;RUA BERTHOLDO JACOB SANTA MARIA DE JETIBA CENTRO 29645000 ES SN;SANTA MARIA DE JETIBA;-20.022697400;-40.743101200;G0;ESSMJ-I01SP22;ESSMJ-I01SP22-SS4
EQP0000000069993722;I01G0375;CTO - OPTAP-B 90/10;ESSMJ_G1I01;RUA SEM NOME SANTA MARIA DE JETIBA SAO LUIZ 29645000 ES SN;SANTA MARIA DE JETIBA;-20.007675300;-40.744727700;G0;ESSMJ-I01SP47;ESSMJ-I01SP47-SS7
EQP0000000069951283;I01G0395;CTO - OPTAP-B 70/30;ESSMJ_G1I01;RUA MARLI RAMLOW SANTA MARIA DE JETIBA CENTRO 29645000 ES SN;SANTA MARIA DE JETIBA;-20.016339700;-40.742252000;G0;ESSMJ-I01SP50;ESSMJ-I01SP50-SS3
EQP0000000069908271;I01G0444;CTO - OPTAP-B 80/20;ESSMJ_G1I01;RUA TRINTA E UM DE OUTUBRO SANTA MARIA DE JETIBA VILA NOVA 29645000 ES 34;SANTA MARIA DE JETIBA;-20.017177100;-40.755225100;G0;ESSMJ-I01SP56;ESSMJ-I01SP56-SS4
EQP0000000070026746;I01G0088;CTO - OPTAP-B 90/10;ESSMJ_G1I01;RUA HENRIQUE EGGERT SANTA MARIA DE JETIBA SAO SEBASTIAO DO MEIO 29645000 ES SN;SANTA MARIA DE JETIBA;-20.029139100;-40.755419300;G0;ESSMJ-I01SP11;ESSMJ-I01SP11-SS8
EQP0000000070038532;I01G0117;CTO - OPTAP-B 85/15;ESSMJ_G1I01;RUA FLORIANO BERGER SANTA MARIA DE JETIBA CENTRO 29645000 ES 284;SANTA MARIA DE JETIBA;-20.027439500;-40.742744300;G0;ESSMJ-I01SP15;ESSMJ-I01SP15-SS5
EQP0000000070028783;I01G0342;CTO - OPTAP-B 90/10;ESSMJ_G1I01;RUA SEM NOME SANTA MARIA DE JETIBA SAO LUIZ 29645000 ES SN;SANTA MARIA DE JETIBA;-19.993942100;-40.744208500;G0;ESSMJ-I01SP43;ESSMJ-I01SP43-SS6
EQP0000000069961039;I01G0386;CTO - OPTAP-B 60/40;ESSMJ_G1I01;RODOVIA BR 355 SANTA MARIA DE JETIBA SAO LUIZ 29645000 ES 1090;SANTA MARIA DE JETIBA;-20.009512700;-40.744586100;G0;ESSMJ-I01SP49;ESSMJ-I01SP49-SS2
EQP0000000070023132;I01G0038;CTO - OPTAP-B 90/10;ESSMJ_G1I01;RUA HERMAN ROELKE SANTA MARIA DE JETIBA CENTRO 29645000 ES SN;SANTA MARIA DE JETIBA;-20.028969800;-40.743276800;G0;ESSMJ-I01SP5;ESSMJ-I01SP5-SS6
EQP0000000070030829;I01G0062;CTO - OPTAP-B 90/10;ESSMJ_G1I01;RUA FLORENCIO AUGUSTO BERGER SANTA MARIA DE JETIBA CENTRO 29645000 ES 4;SANTA MARIA DE JETIBA;-20.029383100;-40.740748900;G0;ESSMJ-I01SP8;ESSMJ-I01SP8-SS6
EQP0000000070025696;I01G0075;CTO - OPTAP-B 70/30;ESSMJ_G1I01;RUA SEM NOME SANTA MARIA DE JETIBA SAO SEBASTIAO DO MEIO 29645000 ES SN;SANTA MARIA DE JETIBA;-20.029533000;-40.759269200;G0;ESSMJ-I01SP10;ESSMJ-I01SP10-SS3
EQP0000000070000349;I01G0354;CTO - OPTAP-B 60/40;ESSMJ_G1I01;RUA SEM NOME SANTA MARIA DE JETIBA SAO LUIZ 29645000 ES SN;SANTA MARIA DE JETIBA;-19.999126100;-40.740990100;G0;ESSMJ-I01SP45;ESSMJ-I01SP45-SS2
EQP0000000070012357;I01G0299;CTO - OPTAP-B 70/30;ESSMJ_G1I01;RUA SEM NOME SANTA MARIA DE JETIBA SAO LUIZ 29645000 ES SN;SANTA MARIA DE JETIBA;-20.004958400;-40.733546100;G0;ESSMJ-I01SP38;ESSMJ-I01SP38-SS3
EQP0000000070028535;I01G0052;CTO - OPTAP-B 80/20;ESSMJ_G1I01;AVENIDA FREDERICO GRULKE SANTA MARIA DE JETIBA CENTRO 29645000 ES 143;SANTA MARIA DE JETIBA;-20.033625000;-40.739173800;G0;ESSMJ-I01SP7;ESSMJ-I01SP7-SS4
EQP0000000069929396;I01G0412;CTO - OPTAP-B 80/20;ESSMJ_G1I01;RUA SEM NOME SANTA MARIA DE JETIBA VILA NOVA 29645000 ES 66;SANTA MARIA DE JETIBA;-20.019367700;-40.760572500;G0;ESSMJ-I01SP52;ESSMJ-I01SP52-SS4
EQP0000000070023663;I01G0037;CTO - OPTAP-B 85/15;ESSMJ_G1I01;RUA DALMACIO ESPINDOLA SANTA MARIA DE JETIBA CENTRO 29645000 ES SN;SANTA MARIA DE JETIBA;-20.031214600;-40.743676700;G0;ESSMJ-I01SP5;ESSMJ-I01SP5-SS5
EQP0000000070027649;I01GP234;MINI CDOE 1:2 + 1:8 PRECON SELADA 60/40;ESSMJ_G1I01;RUA DOS EVANGELICOS SANTA MARIA DE JETIBA CENTRO 29645000 ES 334;SANTA MARIA DE JETIBA;-20.022034800;-40.746716600;GP;ESSMJ-I01SP30;ESSMJ-I01SP30-SS2
EQP0000000070016141;I01G0283;CTO - OPTAP-B 70/30;ESSMJ_G1I01;RUA THEODORO ZAGER SANTA MARIA DE JETIBA SAO LUIZ 29645000 ES SN;SANTA MARIA DE JETIBA;-20.001769500;-40.721436500;G0;ESSMJ-I01SP36;ESSMJ-I01SP36-SS3
EQP0000000070012918;I01G0245;CTO - OPTAP-B 85/15;ESSMJ_G1I01;RUA BUGANVILE SANTA MARIA DE JETIBA CENTRO 29645000 ES SN;SANTA MARIA DE JETIBA;-20.023798500;-40.747006700;G0;ESSMJ-I01SP31;ESSMJ-I01SP31-SS5
EQP0000000070051999;I01G0006;CTO - OPTAP-B 90/10;ESSMJ_G1I01;RUA HERMAN MIERTSCHINK SANTA MARIA DE JETIBA CENTRO 29645000 ES 605;SANTA MARIA DE JETIBA;-20.034659200;-40.738478100;G0;ESSMJ-I01SP1;ESSMJ-I01SP1-SS6
EQP0000000070013605;I01G0150;CTO - OPTAP-B 90/10;ESSMJ_G1I01;RUA HENRIQUE POTRAZ SANTA MARIA DE JETIBA CENTRO 29645000 ES 415;SANTA MARIA DE JETIBA;-20.026180000;-40.742806000;G0;ESSMJ-I01SP19;ESSMJ-I01SP19-SS6
EQP0000000070024175;I01G0077;CTO - OPTAP-B 85/15;ESSMJ_G1I01;RUA SEM NOME SANTA MARIA DE JETIBA SAO SEBASTIAO DO MEIO 29645000 ES SN;SANTA MARIA DE JETIBA;-20.030078100;-40.759800200;G0;ESSMJ-I01SP10;ESSMJ-I01SP10-SS5
EQP0000000069973148;I01G0372;CTO - OPTAP-B 80/20;ESSMJ_G1I01;RUA SEM NOME SANTA MARIA DE JETIBA SAO LUIZ 29645000 ES SN;SANTA MARIA DE JETIBA;-20.001600700;-40.746150500;G0;ESSMJ-I01SP47;ESSMJ-I01SP47-SS4
EQP0000000069971163;I01G0369;CTO - OPTAP-B 60/40;ESSMJ_G1I01;RUA SEM NOME SANTA MARIA DE JETIBA SAO LUIZ 29645000 ES SN;SANTA MARIA DE JETIBA;-19.996849100;-40.745670100;G0;ESSMJ-I01SP47;ESSMJ-I01SP47-SS1
EQP0000000070016048;I01G0148;CTO - OPTAP-B 80/20;ESSMJ_G1I01;RUA ADOLFO BEHREND SANTA MARIA DE JETIBA CENTRO 29645000 ES 39;SANTA MARIA DE JETIBA;-20.026001200;-40.742154000;G0;ESSMJ-I01SP19;ESSMJ-I01SP19-SS4
EQP0000000070050603;I01G0268;CTO - OPTAP-B 80/20;ESSMJ_G1I01;RUA FLORENCIO AUGUSTO BERGER SANTA MARIA DE JETIBA CENTRO 29645000 ES SN;SANTA MARIA DE JETIBA;-20.020577900;-40.745867800;G0;ESSMJ-I01SP34;ESSMJ-I01SP34-SS4
EQP0000000070024172;I01G0036;CTO - OPTAP-B 80/20;ESSMJ_G1I01;RUA ALFREDO EMILIO RODRIGUES SANTA MARIA DE JETIBA CENTRO 29645000 ES SN;SANTA MARIA DE JETIBA;-20.031998700;-40.742626300;G0;ESSMJ-I01SP5;ESSMJ-I01SP5-SS4
EQP0000000069909729;I01G0448;CTO - OPTAP-B 90/10;ESSMJ_G1I01;RUA GERMANO MARQUARDT SANTA MARIA DE JETIBA VILA NOVA 29645000 ES 26;SANTA MARIA DE JETIBA;-20.017984000;-40.752058500;G0;ESSMJ-I01SP56;ESSMJ-I01SP56-SS8
EQP0000000069908934;I01G0446;CTO - OPTAP-B 90/10;ESSMJ_G1I01;RUA TRINTA E UM DE OUTUBRO SANTA MARIA DE JETIBA VILA NOVA 29645000 ES 116;SANTA MARIA DE JETIBA;-20.017632200;-40.755031400;G0;ESSMJ-I01SP56;ESSMJ-I01SP56-SS6
EQP0000000070009174;I01G0284;CTO - OPTAP-B 80/20;ESSMJ_G1I01;RUA SEM NOME SANTA MARIA DE JETIBA SAO LUIZ 29645000 ES SN;SANTA MARIA DE JETIBA;-20.001080100;-40.722686700;G0;ESSMJ-I01SP36;ESSMJ-I01SP36-SS4
EQP0000000069999941;I01G0356;CTO - OPTAP-B 80/20;ESSMJ_G1I01;RUA ALFREDO KUSTER SANTA MARIA DE JETIBA SAO LUIZ 29645000 ES 345;SANTA MARIA DE JETIBA;-19.999343700;-40.741029800;G0;ESSMJ-I01SP45;ESSMJ-I01SP45-SS4
EQP0000000070006477;I01G0096;CTO - OPTAP-B 90/10;ESSMJ_G1I01;RUA RICARDO MARQUARDT SANTA MARIA DE JETIBA SAO SEBASTIAO DO MEIO 29645000 ES SN;SANTA MARIA DE JETIBA;-20.028008900;-40.753367000;G0;ESSMJ-I01SP12;ESSMJ-I01SP12-SS8
EQP0000000070008276;I01G0285;CTO - OPTAP-B 85/15;ESSMJ_G1I01;RUA HENRIQUE JOAO JULIO KUSTER SANTA MARIA DE JETIBA SAO LUIZ 29645000 ES SN;SANTA MARIA DE JETIBA;-20.001379900;-40.723332500;G0;ESSMJ-I01SP36;ESSMJ-I01SP36-SS5
;;;;;;;;;;
;;;;;;;;;;
;;;;;;;;;;
;;;;;;;;;;
;;;;;;;;;;
;;;;;;;;;;
;;;;;;;;;;
;;;;;;;;;;
;;;;;;;;;;
;;;;;;;;;;
;;;;;;;;;;
;;;;;;;;;;
;;;;;;;;;;
;;;;;;;;;;
;;;;;;;;;;
;;;;;;;;;;
;;;;;;;;;;
;;;;;;;;;;
;;;;;;;;;;
;;;;;;;;;;
;;;;;;;;;;
;;;;;;;;;;
;;;;;;;;;;
;;;;;;;;;;
;;;;;;;;;;
;;;;;;;;;;
;;;;;;;;;;
;;;;;;;;;;
;;;;;;;;;;
;;;;;;;;;;
;;;;;;;;;;
;;;;;;;;;;
;;;;;;;;;;
;;;;;;;;;;
;;;;;;;;;;
;;;;;;;;;;
;;;;;;;;;;
;;;;;;;;;;
;;;;;;;;;;
;;;;;;;;;;
;;;;;;;;;;
;;;;;;;;;;
;;;;;;;;;;
;;;;;;;;;;
;;;;;;;;;;
;;;;;;;;;;
;;;;;;;;;;
;;;;;;;;;;
;;;;;;;;;;
;;;;;;;;;;
;;;;;;;;;;
;;;;;;;;;;
;;;;;;;;;;
;;;;;;;;;;
;;;;;;;;;;
;;;;;;;;;;
;;;;;;;;;;
;;;;;;;;;;
;;;;;;;;;;
;;;;;;;;;;
;;;;;;;;;;
;;;;;;;;;;
;;;;;;;;;;
;;;;;;;;;;
;;;;;;;;;;
;;;;;;;;;;
;;;;;;;;;;
;;;;;;;;;;
;;;;;;;;;;
;;;;;;;;;;
;;;;;;;;;;
;;;;;;;;;;
;;;;;;;;;;
;;;;;;;;;;
;;;;;;;;;;
;;;;;;;;;;
;;;;;;;;;;
;;;;;;;;;;
;;;;;;;;;;
;;;;;;;;;;
;;;;;;;;;;
;;;;;;;;;;
;;;;;;;;;;
;;;;;;;;;;
;;;;;;;;;;
;;;;;;;;;;
;;;;;;;;;;
;;;;;;;;;;
;;;;;;;;;;
;;;;;;;;;;
;;;;;;;;;;
;;;;;;;;;;
;;;;;;;;;;
;;;;;;;;;;
;;;;;;;;;;
;;;;;;;;;;
;;;;;;;;;;
;;;;;;;;;;
;;;;;;;;;;
;;;;;;;;;;
;;;;;;;;;;
;;;;;;;;;;
;;;;;;;;;;
;;;;;;;;;;
;;;;;;;;;;
;;;;;;;;;;
;;;;;;;;;;
;;;;;;;;;;
;;;;;;;;;;
;;;;;;;;;;
;;;;;;;;;;
;;;;;;;;;;
;;;;;;;;;;
;;;;;;;;;;
;;;;;;;;;;
;;;;;;;;;;
;;;;;;;;;;
;;;;;;;;;;
;;;;;;;;;;
;;;;;;;;;;
;;;;;;;;;;
;;;;;;;;;;
;;;;;;;;;;
;;;;;;;;;;
;;;;;;;;;;
;;;;;;;;;;
;;;;;;;;;;
;;;;;;;;;;
;;;;;;;;;;
;;;;;;;;;;
;;;;;;;;;;
;;;;;;;;;;
;;;;;;;;;;
;;;;;;;;;;
;;;;;;;;;;
;;;;;;;;;;
;;;;;;;;;;
;;;;;;;;;;
;;;;;;;;;;
;;;;;;;;;;
;;;;;;;;;;
;;;;;;;;;;
;;;;;;;;;;
;;;;;;;;;;
;;;;;;;;;;
;;;;;;;;;;
;;;;;;;;;;
;;;;;;;;;;
;;;;;;;;;;
;;;;;;;;;;
;;;;;;;;;;
;;;;;;;;;;
;;;;;;;;;;
;;;;;;;;;;
;;;;;;;;;;
;;;;;;;;;;
;;;;;;;;;;
;;;;;;;;;;
;;;;;;;;;;
;;;;;;;;;;
;;;;;;;;;;
;;;;;;;;;;
;;;;;;;;;;
;;;;;;;;;;
;;;;;;;;;;
;;;;;;;;;;
;;;;;;;;;;
;;;;;;;;;;
;;;;;;;;;;
;;;;;;;;;;
;;;;;;;;;;
;;;;;;;;;;
;;;;;;;;;;
;;;;;;;;;;
;;;;;;;;;;
;;;;;;;;;;
;;;;;;;;;;
;;;;;;;;;;
;;;;;;;;;;
;;;;;;;;;;
;;;;;;;;;;
;;;;;;;;;;
;;;;;;;;;;
;;;;;;;;;;
;;;;;;;;;;
;;;;;;;;;;
;;;;;;;;;;
;;;;;;;;;;
;;;;;;;;;;
;;;;;;;;;;
;;;;;;;;;;
;;;;;;;;;;
;;;;;;;;;;
;;;;;;;;;;
;;;;;;;;;;
;;;;;;;;;;
;;;;;;;;;;
;;;;;;;;;;
;;;;;;;;;;
;;;;;;;;;;
;;;;;;;;;;
;;;;;;;;;;
;;;;;;;;;;
;;;;;;;;;;
;;;;;;;;;;
;;;;;;;;;;
;;;;;;;;;;
;;;;;;;;;;
;;;;;;;;;;
;;;;;;;;;;
;;;;;;;;;;
;;;;;;;;;;
;;;;;;;;;;
;;;;;;;;;;
;;;;;;;;;;
;;;;;;;;;;
;;;;;;;;;;
;;;;;;;;;;
;;;;;;;;;;
;;;;;;;;;;
;;;;;;;;;;
;;;;;;;;;;
;;;;;;;;;;
;;;;;;;;;;
;;;;;;;;;;
;;;;;;;;;;
;;;;;;;;;;
;;;;;;;;;;
;;;;;;;;;;
;;;;;;;;;;
;;;;;;;;;;
;;;;;;;;;;
;;;;;;;;;;
;;;;;;;;;;
;;;;;;;;;;
;;;;;;;;;;
;;;;;;;;;;
;;;;;;;;;;
;;;;;;;;;;
;;;;;;;;;;
;;;;;;;;;;
;;;;;;;;;;
;;;;;;;;;;
;;;;;;;;;;
;;;;;;;;;;
;;;;;;;;;;
;;;;;;;;;;
;;;;;;;;;;
;;;;;;;;;;
;;;;;;;;;;
;;;;;;;;;;
;;;;;;;;;;
;;;;;;;;;;
;;;;;;;;;;
;;;;;;;;;;
;;;;;;;;;;
;;;;;;;;;;
;;;;;;;;;;
;;;;;;;;;;
;;;;;;;;;;
;;;;;;;;;;
;;;;;;;;;;
;;;;;;;;;;
;;;;;;;;;;
;;;;;;;;;;
;;;;;;;;;;
;;;;;;;;;;
;;;;;;;;;;
;;;;;;;;;;
;;;;;;;;;;
;;;;;;;;;;
;;;;;;;;;;
;;;;;;;;;;
;;;;;;;;;;
;;;;;;;;;;
;;;;;;;;;;
;;;;;;;;;;
;;;;;;;;;;
;;;;;;;;;;
;;;;;;;;;;
;;;;;;;;;;
;;;;;;;;;;
;;;;;;;;;;
;;;;;;;;;;
;;;;;;;;;;
;;;;;;;;;;
;;;;;;;;;;
;;;;;;;;;;
;;;;;;;;;;
;;;;;;;;;;
;;;;;;;;;;
;;;;;;;;;;
;;;;;;;;;;
;;;;;;;;;;
;;;;;;;;;;
;;;;;;;;;;
;;;;;;;;;;
;;;;;;;;;;
;;;;;;;;;;
;;;;;;;;;;
;;;;;;;;;;
;;;;;;;;;;
;;;;;;;;;;
;;;;;;;;;;
;;;;;;;;;;
;;;;;;;;;;
;;;;;;;;;;
;;;;;;;;;;
;;;;;;;;;;
;;;;;;;;;;
;;;;;;;;;;
;;;;;;;;;;
;;;;;;;;;;
;;;;;;;;;;
;;;;;;;;;;
;;;;;;;;;;
;;;;;;;;;;
;;;;;;;;;;
;;;;;;;;;;
;;;;;;;;;;
;;;;;;;;;;
;;;;;;;;;;
;;;;;;;;;;
;;;;;;;;;;
;;;;;;;;;;
;;;;;;;;;;
;;;;;;;;;;
;;;;;;;;;;
;;;;;;;;;;
;;;;;;;;;;
;;;;;;;;;;
;;;;;;;;;;
;;;;;;;;;;
;;;;;;;;;;
;;;;;;;;;;
;;;;;;;;;;
;;;;;;;;;;
;;;;;;;;;;
;;;;;;;;;;
;;;;;;;;;;
;;;;;;;;;;
;;;;;;;;;;
;;;;;;;;;;
;;;;;;;;;;
;;;;;;;;;;
;;;;;;;;;;
;;;;;;;;;;
;;;;;;;;;;
;;;;;;;;;;
;;;;;;;;;;
;;;;;;;;;;
;;;;;;;;;;
;;;;;;;;;;
;;;;;;;;;;
;;;;;;;;;;
;;;;;;;;;;
;;;;;;;;;;
;;;;;;;;;;
;;;;;;;;;;
;;;;;;;;;;
;;;;;;;;;;
;;;;;;;;;;
;;;;;;;;;;
;;;;;;;;;;
;;;;;;;;;;
;;;;;;;;;;
;;;;;;;;;;
;;;;;;;;;;
;;;;;;;;;;
;;;;;;;;;;
;;;;;;;;;;
;;;;;;;;;;
;;;;;;;;;;
;;;;;;;;;;
;;;;;;;;;;
;;;;;;;;;;
;;;;;;;;;;
;;;;;;;;;;
;;;;;;;;;;
;;;;;;;;;;
;;;;;;;;;;
;;;;;;;;;;
;;;;;;;;;;
;;;;;;;;;;
;;;;;;;;;;
;;;;;;;;;;
;;;;;;;;;;
;;;;;;;;;;
;;;;;;;;;;
;;;;;;;;;;
;;;;;;;;;;
;;;;;;;;;;
;;;;;;;;;;
;;;;;;;;;;
;;;;;;;;;;
;;;;;;;;;;
;;;;;;;;;;
;;;;;;;;;;
;;;;;;;;;;
;;;;;;;;;;
;;;;;;;;;;
;;;;;;;;;;
;;;;;;;;;;
;;;;;;;;;;
;;;;;;;;;;
;;;;;;;;;;
;;;;;;;;;;
;;;;;;;;;;
;;;;;;;;;;
;;;;;;;;;;
;;;;;;;;;;
;;;;;;;;;;
;;;;;;;;;;
;;;;;;;;;;
;;;;;;;;;;
;;;;;;;;;;
;;;;;;;;;;
;;;;;;;;;;
;;;;;;;;;;
;;;;;;;;;;
;;;;;;;;;;
;;;;;;;;;;
;;;;;;;;;;
;;;;;;;;;;
;;;;;;;;;;
;;;;;;;;;;
;;;;;;;;;;
;;;;;;;;;;
;;;;;;;;;;
;;;;;;;;;;
;;;;;;;;;;
;;;;;;;;;;
;;;;;;;;;;
;;;;;;;;;;
;;;;;;;;;;
;;;;;;;;;;
;;;;;;;;;;
;;;;;;;;;;
;;;;;;;;;;
;;;;;;;;;;
;;;;;;;;;;
;;;;;;;;;;
;;;;;;;;;;
;;;;;;;;;;
;;;;;;;;;;
;;;;;;;;;;
;;;;;;;;;;
;;;;;;;;;;
;;;;;;;;;;
;;;;;;;;;;
;;;;;;;;;;
;;;;;;;;;;
;;;;;;;;;;
;;;;;;;;;;
;;;;;;;;;;
;;;;;;;;;;
;;;;;;;;;;
;;;;;;;;;;
;;;;;;;;;;
;;;;;;;;;;
;;;;;;;;;;
;;;;;;;;;;
;;;;;;;;;;
;;;;;;;;;;
;;;;;;;;;;
;;;;;;;;;;
;;;;;;;;;;
;;;;;;;;;;
;;;;;;;;;;
;;;;;;;;;;
;;;;;;;;;;
;;;;;;;;;;
;;;;;;;;;;
;;;;;;;;;;
;;;;;;;;;;
;;;;;;;;;;
;;;;;;;;;;
;;;;;;;;;;
;;;;;;;;;;
;;;;;;;;;;
;;;;;;;;;;
;;;;;;;;;;
;;;;;;;;;;
;;;;;;;;;;
;;;;;;;;;;
;;;;;;;;;;
;;;;;;;;;;
;;;;;;;;;;
;;;;;;;;;;
;;;;;;;;;;
;;;;;;;;;;
;;;;;;;;;;
;;;;;;;;;;
;;;;;;;;;;
;;;;;;;;;;
;;;;;;;;;;
;;;;;;;;;;
;;;;;;;;;;
;;;;;;;;;;
;;;;;;;;;;
;;;;;;;;;;
;;;;;;;;;;
;;;;;;;;;;
;;;;;;;;;;
;;;;;;;;;;
;;;;;;;;;;
;;;;;;;;;;
;;;;;;;;;;
;;;;;;;;;;
;;;;;;;;;;
;;;;;;;;;;
;;;;;;;;;;
;;;;;;;;;;
;;;;;;;;;;
;;;;;;;;;;
;;;;;;;;;;
;;;;;;;;;;
;;;;;;;;;;
;;;;;;;;;;
;;;;;;;;;;
;;;;;;;;;;
;;;;;;;;;;
;;;;;;;;;;
;;;;;;;;;;
;;;;;;;;;;
;;;;;;;;;;
;;;;;;;;;;
;;;;;;;;;;
;;;;;;;;;;
;;;;;;;;;;
;;;;;;;;;;
;;;;;;;;;;
;;;;;;;;;;
;;;;;;;;;;
;;;;;;;;;;
;;;;;;;;;;
;;;;;;;;;;
;;;;;;;;;;
;;;;;;;;;;
;;;;;;;;;;
;;;;;;;;;;
;;;;;;;;;;
;;;;;;;;;;
;;;;;;;;;;
;;;;;;;;;;
;;;;;;;;;;
;;;;;;;;;;
;;;;;;;;;;
;;;;;;;;;;
;;;;;;;;;;
;;;;;;;;;;
;;;;;;;;;;
;;;;;;;;;;
;;;;;;;;;;
;;;;;;;;;;
;;;;;;;;;;
;;;;;;;;;;
;;;;;;;;;;
;;;;;;;;;;
;;;;;;;;;;
;;;;;;;;;;
;;;;;;;;;;
;;;;;;;;;;
;;;;;;;;;;
;;;;;;;;;;
;;;;;;;;;;
;;;;;;;;;;
;;;;;;;;;;
;;;;;;;;;;
;;;;;;;;;;
;;;;;;;;;;
;;;;;;;;;;
;;;;;;;;;;
;;;;;;;;;;
;;;;;;;;;;
;;;;;;;;;;
;;;;;;;;;;
;;;;;;;;;;
;;;;;;;;;;
;;;;;;;;;;
;;;;;;;;;;
;;;;;;;;;;
;;;;;;;;;;
;;;;;;;;;;
;;;;;;;;;;
;;;;;;;;;;
;;;;;;;;;;
;;;;;;;;;;
;;;;;;;;;;
;;;;;;;;;;
;;;;;;;;;;
;;;;;;;;;;
;;;;;;;;;;
;;;;;;;;;;
;;;;;;;;;;
;;;;;;;;;;
;;;;;;;;;;
;;;;;;;;;;
;;;;;;;;;;
;;;;;;;;;;
;;;;;;;;;;
;;;;;;;;;;
;;;;;;;;;;
;;;;;;;;;;
;;;;;;;;;;
;;;;;;;;;;
;;;;;;;;;;
;;;;;;;;;;
;;;;;;;;;;
;;;;;;;;;;
;;;;;;;;;;
;;;;;;;;;;
;;;;;;;;;;
;;;;;;;;;;
;;;;;;;;;;
;;;;;;;;;;
;;;;;;;;;;
;;;;;;;;;;
;;;;;;;;;;
;;;;;;;;;;
;;;;;;;;;;
;;;;;;;;;;
;;;;;;;;;;
;;;;;;;;;;
;;;;;;;;;;
;;;;;;;;;;
;;;;;;;;;;
;;;;;;;;;;
;;;;;;;;;;
;;;;;;;;;;
;;;;;;;;;;
;;;;;;;;;;
;;;;;;;;;;
;;;;;;;;;;
;;;;;;;;;;
;;;;;;;;;;
;;;;;;;;;;
;;;;;;;;;;
;;;;;;;;;;
;;;;;;;;;;
;;;;;;;;;;
;;;;;;;;;;
;;;;;;;;;;
;;;;;;;;;;
;;;;;;;;;;
;;;;;;;;;;
;;;;;;;;;;
;;;;;;;;;;
;;;;;;;;;;
;;;;;;;;;;
;;;;;;;;;;
;;;;;;;;;;
;;;;;;;;;;
;;;;;;;;;;
;;;;;;;;;;
;;;;;;;;;;
;;;;;;;;;;
;;;;;;;;;;
;;;;;;;;;;
;;;;;;;;;;
;;;;;;;;;;
;;;;;;;;;;
;;;;;;;;;;
;;;;;;;;;;
;;;;;;;;;;
;;;;;;;;;;
;;;;;;;;;;
;;;;;;;;;;
;;;;;;;;;;
;;;;;;;;;;
;;;;;;;;;;
;;;;;;;;;;
;;;;;;;;;;
;;;;;;;;;;
;;;;;;;;;;
;;;;;;;;;;
;;;;;;;;;;
;;;;;;;;;;
;;;;;;;;;;
;;;;;;;;;;
;;;;;;;;;;
;;;;;;;;;;
;;;;;;;;;;
;;;;;;;;;;
;;;;;;;;;;
;;;;;;;;;;
;;;;;;;;;;
;;;;;;;;;;
;;;;;;;;;;
;;;;;;;;;;
;;;;;;;;;;
;;;;;;;;;;
;;;;;;;;;;
;;;;;;;;;;
;;;;;;;;;;
;;;;;;;;;;
;;;;;;;;;;
;;;;;;;;;;
;;;;;;;;;;
;;;;;;;;;;
;;;;;;;;;;
;;;;;;;;;;
;;;;;;;;;;
;;;;;;;;;;
;;;;;;;;;;
;;;;;;;;;;
;;;;;;;;;;
;;;;;;;;;;
;;;;;;;;;;
;;;;;;;;;;
;;;;;;;;;;
;;;;;;;;;;
;;;;;;;;;;
;;;;;;;;;;
;;;;;;;;;;
;;;;;;;;;;
;;;;;;;;;;
;;;;;;;;;;
;;;;;;;;;;
;;;;;;;;;;
;;;;;;;;;;
;;;;;;;;;;
;;;;;;;;;;
;;;;;;;;;;
;;;;;;;;;;
;;;;;;;;;;
;;;;;;;;;;
;;;;;;;;;;
;;;;;;;;;;
;;;;;;;;;;
;;;;;;;;;;
;;;;;;;;;;
;;;;;;;;;;
;;;;;;;;;;
;;;;;;;;;;
;;;;;;;;;;
;;;;;;;;;;
;;;;;;;;;;
;;;;;;;;;;
;;;;;;;;;;
;;;;;;;;;;
;;;;;;;;;;
;;;;;;;;;;
;;;;;;;;;;
;;;;;;;;;;
;;;;;;;;;;
;;;;;;;;;;
;;;;;;;;;;
;;;;;;;;;;
;;;;;;;;;;
;;;;;;;;;;
;;;;;;;;;;
;;;;;;;;;;
;;;;;;;;;;
;;;;;;;;;;
;;;;;;;;;;
;;;;;;;;;;
;;;;;;;;;;
;;;;;;;;;;
;;;;;;;;;;
;;;;;;;;;;
;;;;;;;;;;
;;;;;;;;;;
;;;;;;;;;;
;;;;;;;;;;
;;;;;;;;;;
;;;;;;;;;;
;;;;;;;;;;
;;;;;;;;;;
;;;;;;;;;;
;;;;;;;;;;
;;;;;;;;;;
;;;;;;;;;;
;;;;;;;;;;
;;;;;;;;;;
;;;;;;;;;;
;;;;;;;;;;
;;;;;;;;;;
;;;;;;;;;;
;;;;;;;;;;
;;;;;;;;;;
;;;;;;;;;;
;;;;;;;;;;
;;;;;;;;;;
;;;;;;;;;;
;;;;;;;;;;
;;;;;;;;;;
;;;;;;;;;;
;;;;;;;;;;
;;;;;;;;;;
;;;;;;;;;;
;;;;;;;;;;
;;;;;;;;;;
;;;;;;;;;;
;;;;;;;;;;
;;;;;;;;;;
;;;;;;;;;;
;;;;;;;;;;
;;;;;;;;;;
;;;;;;;;;;
;;;;;;;;;;
;;;;;;;;;;
;;;;;;;;;;
;;;;;;;;;;
;;;;;;;;;;
;;;;;;;;;;
;;;;;;;;;;
;;;;;;;;;;
;;;;;;;;;;
;;;;;;;;;;
;;;;;;;;;;
;;;;;;;;;;
;;;;;;;;;;
;;;;;;;;;;
;;;;;;;;;;
;;;;;;;;;;
;;;;;;;;;;
;;;;;;;;;;
;;;;;;;;;;
;;;;;;;;;;
;;;;;;;;;;
;;;;;;;;;;
;;;;;;;;;;
;;;;;;;;;;
;;;;;;;;;;
;;;;;;;;;;
;;;;;;;;;;
;;;;;;;;;;
;;;;;;;;;;
;;;;;;;;;;
;;;;;;;;;;
;;;;;;;;;;
;;;;;;;;;;
;;;;;;;;;;
;;;;;;;;;;
;;;;;;;;;;
;;;;;;;;;;
;;;;;;;;;;
;;;;;;;;;;
;;;;;;;;;;
;;;;;;;;;;
;;;;;;;;;;
;;;;;;;;;;
;;;;;;;;;;
;;;;;;;;;;
;;;;;;;;;;
;;;;;;;;;;
;;;;;;;;;;
;;;;;;;;;;
;;;;;;;;;;
;;;;;;;;;;
;;;;;;;;;;
;;;;;;;;;;
;;;;;;;;;;
;;;;;;;;;;
;;;;;;;;;;
;;;;;;;;;;
;;;;;;;;;;
;;;;;;;;;;
;;;;;;;;;;
;;;;;;;;;;
;;;;;;;;;;
;;;;;;;;;;
;;;;;;;;;;
;;;;;;;;;;
;;;;;;;;;;
;;;;;;;;;;
;;;;;;;;;;
;;;;;;;;;;
;;;;;;;;;;
;;;;;;;;;;
;;;;;;;;;;
;;;;;;;;;;
;;;;;;;;;;
;;;;;;;;;;
;;;;;;;;;;
;;;;;;;;;;
;;;;;;;;;;
;;;;;;;;;;
;;;;;;;;;;
;;;;;;;;;;
;;;;;;;;;;
;;;;;;;;;;
;;;;;;;;;;
;;;;;;;;;;
;;;;;;;;;;
;;;;;;;;;;
;;;;;;;;;;
;;;;;;;;;;
;;;;;;;;;;
;;;;;;;;;;
;;;;;;;;;;
;;;;;;;;;;
;;;;;;;;;;
;;;;;;;;;;
;;;;;;;;;;
;;;;;;;;;;
;;;;;;;;;;
;;;;;;;;;;
;;;;;;;;;;
;;;;;;;;;;
;;;;;;;;;;
;;;;;;;;;;
;;;;;;;;;;
;;;;;;;;;;
;;;;;;;;;;
;;;;;;;;;;
;;;;;;;;;;
;;;;;;;;;;
;;;;;;;;;;
;;;;;;;;;;
;;;;;;;;;;
;;;;;;;;;;
;;;;;;;;;;
;;;;;;;;;;
;;;;;;;;;;
;;;;;;;;;;
;;;;;;;;;;
;;;;;;;;;;
;;;;;;;;;;
;;;;;;;;;;
;;;;;;;;;;
;;;;;;;;;;
;;;;;;;;;;
;;;;;;;;;;
;;;;;;;;;;
;;;;;;;;;;
;;;;;;;;;;
;;;;;;;;;;
;;;;;;;;;;
;;;;;;;;;;
;;;;;;;;;;
;;;;;;;;;;
;;;;;;;;;;
;;;;;;;;;;
;;;;;;;;;;
;;;;;;;;;;
;;;;;;;;;;
;;;;;;;;;;
;;;;;;;;;;
;;;;;;;;;;
;;;;;;;;;;
;;;;;;;;;;
;;;;;;;;;;
;;;;;;;;;;
;;;;;;;;;;
;;;;;;;;;;
;;;;;;;;;;
;;;;;;;;;;
;;;;;;;;;;
;;;;;;;;;;
;;;;;;;;;;
;;;;;;;;;;
;;;;;;;;;;
;;;;;;;;;;
;;;;;;;;;;
;;;;;;;;;;
;;;;;;;;;;
;;;;;;;;;;
;;;;;;;;;;
;;;;;;;;;;
;;;;;;;;;;
;;;;;;;;;;
;;;;;;;;;;
;;;;;;;;;;
;;;;;;;;;;
;;;;;;;;;;
;;;;;;;;;;
;;;;;;;;;;
;;;;;;;;;;
;;;;;;;;;;
;;;;;;;;;;
;;;;;;;;;;
;;;;;;;;;;
;;;;;;;;;;
;;;;;;;;;;
;;;;;;;;;;
;;;;;;;;;;
;;;;;;;;;;
;;;;;;;;;;
;;;;;;;;;;
;;;;;;;;;;
;;;;;;;;;;
;;;;;;;;;;
;;;;;;;;;;
;;;;;;;;;;
;;;;;;;;;;
;;;;;;;;;;
;;;;;;;;;;
;;;;;;;;;;
;;;;;;;;;;
;;;;;;;;;;
;;;;;;;;;;
;;;;;;;;;;
;;;;;;;;;;
;;;;;;;;;;
;;;;;;;;;;
;;;;;;;;;;
;;;;;;;;;;
;;;;;;;;;;
;;;;;;;;;;
;;;;;;;;;;
;;;;;;;;;;
;;;;;;;;;;
;;;;;;;;;;
;;;;;;;;;;
;;;;;;;;;;
;;;;;;;;;;
;;;;;;;;;;
;;;;;;;;;;
;;;;;;;;;;
;;;;;;;;;;
;;;;;;;;;;
;;;;;;;;;;
;;;;;;;;;;
;;;;;;;;;;
;;;;;;;;;;
;;;;;;;;;;
;;;;;;;;;;
;;;;;;;;;;
;;;;;;;;;;
;;;;;;;;;;
;;;;;;;;;;
;;;;;;;;;;
;;;;;;;;;;
;;;;;;;;;;
;;;;;;;;;;
;;;;;;;;;;
;;;;;;;;;;
;;;;;;;;;;
;;;;;;;;;;
;;;;;;;;;;
;;;;;;;;;;
;;;;;;;;;;
;;;;;;;;;;
;;;;;;;;;;
;;;;;;;;;;
;;;;;;;;;;
;;;;;;;;;;
;;;;;;;;;;
;;;;;;;;;;
;;;;;;;;;;
;;;;;;;;;;
;;;;;;;;;;
;;;;;;;;;;
;;;;;;;;;;
;;;;;;;;;;
;;;;;;;;;;
;;;;;;;;;;
;;;;;;;;;;
;;;;;;;;;;
;;;;;;;;;;
;;;;;;;;;;
;;;;;;;;;;
;;;;;;;;;;
;;;;;;;;;;
;;;;;;;;;;
;;;;;;;;;;
;;;;;;;;;;
;;;;;;;;;;
;;;;;;;;;;
;;;;;;;;;;
;;;;;;;;;;
;;;;;;;;;;
;;;;;;;;;;
;;;;;;;;;;
;;;;;;;;;;
;;;;;;;;;;
;;;;;;;;;;
;;;;;;;;;;
;;;;;;;;;;
;;;;;;;;;;
;;;;;;;;;;
;;;;;;;;;;
;;;;;;;;;;
;;;;;;;;;;
;;;;;;;;;;
;;;;;;;;;;
;;;;;;;;;;
;;;;;;;;;;
;;;;;;;;;;
;;;;;;;;;;
;;;;;;;;;;
;;;;;;;;;;
;;;;;;;;;;
;;;;;;;;;;
;;;;;;;;;;
;;;;;;;;;;
;;;;;;;;;;
;;;;;;;;;;
;;;;;;;;;;
;;;;;;;;;;
;;;;;;;;;;
;;;;;;;;;;
;;;;;;;;;;
;;;;;;;;;;
;;;;;;;;;;
;;;;;;;;;;
;;;;;;;;;;
;;;;;;;;;;
;;;;;;;;;;
;;;;;;;;;;
;;;;;;;;;;
;;;;;;;;;;
;;;;;;;;;;
;;;;;;;;;;
;;;;;;;;;;
;;;;;;;;;;
;;;;;;;;;;
;;;;;;;;;;
;;;;;;;;;;
;;;;;;;;;;
;;;;;;;;;;
;;;;;;;;;;
;;;;;;;;;;
;;;;;;;;;;
;;;;;;;;;;
;;;;;;;;;;
;;;;;;;;;;
;;;;;;;;;;
;;;;;;;;;;
;;;;;;;;;;
;;;;;;;;;;
;;;;;;;;;;
;;;;;;;;;;
;;;;;;;;;;
;;;;;;;;;;
;;;;;;;;;;
;;;;;;;;;;
;;;;;;;;;;
;;;;;;;;;;
;;;;;;;;;;
;;;;;;;;;;
;;;;;;;;;;
;;;;;;;;;;
;;;;;;;;;;
;;;;;;;;;;
;;;;;;;;;;
;;;;;;;;;;
;;;;;;;;;;
;;;;;;;;;;
;;;;;;;;;;
;;;;;;;;;;
;;;;;;;;;;
;;;;;;;;;;
;;;;;;;;;;
;;;;;;;;;;
;;;;;;;;;;
;;;;;;;;;;
;;;;;;;;;;
;;;;;;;;;;
;;;;;;;;;;
;;;;;;;;;;
;;;;;;;;;;
;;;;;;;;;;
;;;;;;;;;;
;;;;;;;;;;
;;;;;;;;;;
;;;;;;;;;;
;;;;;;;;;;
;;;;;;;;;;
;;;;;;;;;;
;;;;;;;;;;
;;;;;;;;;;
;;;;;;;;;;
;;;;;;;;;;
;;;;;;;;;;
;;;;;;;;;;
;;;;;;;;;;
;;;;;;;;;;
;;;;;;;;;;
;;;;;;;;;;
;;;;;;;;;;
;;;;;;;;;;
;;;;;;;;;;
;;;;;;;;;;
;;;;;;;;;;
;;;;;;;;;;
;;;;;;;;;;
;;;;;;;;;;
;;;;;;;;;;
;;;;;;;;;;
;;;;;;;;;;
;;;;;;;;;;
;;;;;;;;;;
;;;;;;;;;;
;;;;;;;;;;
;;;;;;;;;;
;;;;;;;;;;
;;;;;;;;;;
;;;;;;;;;;
;;;;;;;;;;
;;;;;;;;;;
;;;;;;;;;;
;;;;;;;;;;
;;;;;;;;;;
;;;;;;;;;;
;;;;;;;;;;
;;;;;;;;;;
;;;;;;;;;;
;;;;;;;;;;
;;;;;;;;;;
;;;;;;;;;;
;;;;;;;;;;
;;;;;;;;;;
;;;;;;;;;;
;;;;;;;;;;
;;;;;;;;;;
;;;;;;;;;;
;;;;;;;;;;
;;;;;;;;;;
;;;;;;;;;;
;;;;;;;;;;
;;;;;;;;;;
;;;;;;;;;;
;;;;;;;;;;
;;;;;;;;;;
;;;;;;;;;;
;;;;;;;;;;
;;;;;;;;;;
;;;;;;;;;;
;;;;;;;;;;
;;;;;;;;;;
;;;;;;;;;;
;;;;;;;;;;
;;;;;;;;;;
;;;;;;;;;;
;;;;;;;;;;
;;;;;;;;;;
;;;;;;;;;;
;;;;;;;;;;
;;;;;;;;;;
;;;;;;;;;;
;;;;;;;;;;
;;;;;;;;;;
;;;;;;;;;;
;;;;;;;;;;
;;;;;;;;;;
;;;;;;;;;;
;;;;;;;;;;
;;;;;;;;;;
;;;;;;;;;;
;;;;;;;;;;
;;;;;;;;;;
;;;;;;;;;;
;;;;;;;;;;
;;;;;;;;;;
;;;;;;;;;;
;;;;;;;;;;
;;;;;;;;;;
;;;;;;;;;;
;;;;;;;;;;
;;;;;;;;;;
;;;;;;;;;;
;;;;;;;;;;
;;;;;;;;;;
;;;;;;;;;;
;;;;;;;;;;
;;;;;;;;;;
;;;;;;;;;;
;;;;;;;;;;
;;;;;;;;;;
;;;;;;;;;;
;;;;;;;;;;
;;;;;;;;;;
;;;;;;;;;;
;;;;;;;;;;
;;;;;;;;;;
;;;;;;;;;;
;;;;;;;;;;
;;;;;;;;;;
;;;;;;;;;;
;;;;;;;;;;
;;;;;;;;;;
;;;;;;;;;;
;;;;;;;;;;
;;;;;;;;;;
;;;;;;;;;;
;;;;;;;;;;
;;;;;;;;;;
;;;;;;;;;;
;;;;;;;;;;
;;;;;;;;;;
;;;;;;;;;;
;;;;;;;;;;
;;;;;;;;;;
;;;;;;;;;;
;;;;;;;;;;
;;;;;;;;;;
;;;;;;;;;;
;;;;;;;;;;
;;;;;;;;;;
;;;;;;;;;;
;;;;;;;;;;
;;;;;;;;;;
;;;;;;;;;;
;;;;;;;;;;
;;;;;;;;;;
;;;;;;;;;;
;;;;;;;;;;
;;;;;;;;;;
;;;;;;;;;;
;;;;;;;;;;
;;;;;;;;;;
;;;;;;;;;;
;;;;;;;;;;
;;;;;;;;;;
;;;;;;;;;;
;;;;;;;;;;
;;;;;;;;;;
;;;;;;;;;;
;;;;;;;;;;
;;;;;;;;;;
;;;;;;;;;;
;;;;;;;;;;
;;;;;;;;;;
;;;;;;;;;;
;;;;;;;;;;
;;;;;;;;;;
;;;;;;;;;;
;;;;;;;;;;
;;;;;;;;;;
;;;;;;;;;;
;;;;;;;;;;
;;;;;;;;;;
;;;;;;;;;;
;;;;;;;;;;
;;;;;;;;;;
;;;;;;;;;;
;;;;;;;;;;
;;;;;;;;;;
;;;;;;;;;;
;;;;;;;;;;
;;;;;;;;;;
;;;;;;;;;;
;;;;;;;;;;
;;;;;;;;;;
;;;;;;;;;;
;;;;;;;;;;
;;;;;;;;;;
;;;;;;;;;;
;;;;;;;;;;
;;;;;;;;;;
;;;;;;;;;;
;;;;;;;;;;
;;;;;;;;;;
;;;;;;;;;;
;;;;;;;;;;
;;;;;;;;;;
;;;;;;;;;;
;;;;;;;;;;
;;;;;;;;;;
;;;;;;;;;;
;;;;;;;;;;
;;;;;;;;;;
;;;;;;;;;;
;;;;;;;;;;
;;;;;;;;;;
;;;;;;;;;;
;;;;;;;;;;
;;;;;;;;;;
;;;;;;;;;;
;;;;;;;;;;
;;;;;;;;;;
;;;;;;;;;;
;;;;;;;;;;
;;;;;;;;;;
;;;;;;;;;;
;;;;;;;;;;
;;;;;;;;;;
;;;;;;;;;;
;;;;;;;;;;
;;;;;;;;;;
;;;;;;;;;;
;;;;;;;;;;
;;;;;;;;;;
;;;;;;;;;;
;;;;;;;;;;
;;;;;;;;;;
;;;;;;;;;;
;;;;;;;;;;
;;;;;;;;;;
;;;;;;;;;;
;;;;;;;;;;
;;;;;;;;;;
;;;;;;;;;;
;;;;;;;;;;
;;;;;;;;;;
;;;;;;;;;;
;;;;;;;;;;
;;;;;;;;;;
;;;;;;;;;;
;;;;;;;;;;
;;;;;;;;;;
;;;;;;;;;;
;;;;;;;;;;
;;;;;;;;;;
;;;;;;;;;;
;;;;;;;;;;
;;;;;;;;;;
;;;;;;;;;;
;;;;;;;;;;
;;;;;;;;;;
;;;;;;;;;;
;;;;;;;;;;
;;;;;;;;;;
;;;;;;;;;;
;;;;;;;;;;
;;;;;;;;;;
;;;;;;;;;;
;;;;;;;;;;
;;;;;;;;;;
;;;;;;;;;;
;;;;;;;;;;
;;;;;;;;;;
;;;;;;;;;;
;;;;;;;;;;
;;;;;;;;;;
;;;;;;;;;;
;;;;;;;;;;
;;;;;;;;;;
;;;;;;;;;;
;;;;;;;;;;
;;;;;;;;;;
;;;;;;;;;;
;;;;;;;;;;
;;;;;;;;;;
;;;;;;;;;;
;;;;;;;;;;
;;;;;;;;;;
;;;;;;;;;;
;;;;;;;;;;
;;;;;;;;;;
;;;;;;;;;;
;;;;;;;;;;
;;;;;;;;;;
;;;;;;;;;;
;;;;;;;;;;
;;;;;;;;;;
;;;;;;;;;;
;;;;;;;;;;
;;;;;;;;;;
;;;;;;;;;;
;;;;;;;;;;
;;;;;;;;;;
;;;;;;;;;;
;;;;;;;;;;
;;;;;;;;;;
;;;;;;;;;;
;;;;;;;;;;
;;;;;;;;;;
;;;;;;;;;;
;;;;;;;;;;
;;;;;;;;;;
;;;;;;;;;;
;;;;;;;;;;
;;;;;;;;;;
;;;;;;;;;;
;;;;;;;;;;
;;;;;;;;;;
;;;;;;;;;;
;;;;;;;;;;
;;;;;;;;;;
;;;;;;;;;;
;;;;;;;;;;
;;;;;;;;;;
;;;;;;;;;;
;;;;;;;;;;
;;;;;;;;;;
;;;;;;;;;;
;;;;;;;;;;
;;;;;;;;;;
;;;;;;;;;;
;;;;;;;;;;
;;;;;;;;;;
;;;;;;;;;;
;;;;;;;;;;
;;;;;;;;;;
;;;;;;;;;;
;;;;;;;;;;
;;;;;;;;;;
;;;;;;;;;;
;;;;;;;;;;
;;;;;;;;;;
;;;;;;;;;;
;;;;;;;;;;
;;;;;;;;;;
;;;;;;;;;;
;;;;;;;;;;
;;;;;;;;;;
;;;;;;;;;;
;;;;;;;;;;
;;;;;;;;;;
;;;;;;;;;;
;;;;;;;;;;
;;;;;;;;;;
;;;;;;;;;;
;;;;;;;;;;
;;;;;;;;;;
;;;;;;;;;;
;;;;;;;;;;
;;;;;;;;;;
;;;;;;;;;;
;;;;;;;;;;
;;;;;;;;;;
;;;;;;;;;;
;;;;;;;;;;
;;;;;;;;;;
;;;;;;;;;;
;;;;;;;;;;
;;;;;;;;;;
;;;;;;;;;;
;;;;;;;;;;
;;;;;;;;;;
;;;;;;;;;;
;;;;;;;;;;
;;;;;;;;;;
;;;;;;;;;;
;;;;;;;;;;
;;;;;;;;;;
;;;;;;;;;;
;;;;;;;;;;
;;;;;;;;;;
;;;;;;;;;;
;;;;;;;;;;
;;;;;;;;;;
;;;;;;;;;;
;;;;;;;;;;
;;;;;;;;;;
;;;;;;;;;;
;;;;;;;;;;
;;;;;;;;;;
;;;;;;;;;;
;;;;;;;;;;
;;;;;;;;;;
;;;;;;;;;;
;;;;;;;;;;
;;;;;;;;;;
;;;;;;;;;;
;;;;;;;;;;
;;;;;;;;;;
;;;;;;;;;;
;;;;;;;;;;
;;;;;;;;;;
;;;;;;;;;;
;;;;;;;;;;
;;;;;;;;;;
;;;;;;;;;;
;;;;;;;;;;
;;;;;;;;;;
;;;;;;;;;;
;;;;;;;;;;
;;;;;;;;;;
;;;;;;;;;;
;;;;;;;;;;
;;;;;;;;;;
;;;;;;;;;;
;;;;;;;;;;
;;;;;;;;;;
;;;;;;;;;;
;;;;;;;;;;
;;;;;;;;;;
;;;;;;;;;;
;;;;;;;;;;
;;;;;;;;;;
;;;;;;;;;;
;;;;;;;;;;
;;;;;;;;;;
;;;;;;;;;;
;;;;;;;;;;
;;;;;;;;;;
;;;;;;;;;;
;;;;;;;;;;
;;;;;;;;;;
;;;;;;;;;;
;;;;;;;;;;
;;;;;;;;;;
;;;;;;;;;;
;;;;;;;;;;
;;;;;;;;;;
;;;;;;;;;;
;;;;;;;;;;
;;;;;;;;;;
;;;;;;;;;;
;;;;;;;;;;
;;;;;;;;;;
;;;;;;;;;;
;;;;;;;;;;
;;;;;;;;;;
;;;;;;;;;;
;;;;;;;;;;
;;;;;;;;;;
;;;;;;;;;;
;;;;;;;;;;
;;;;;;;;;;
;;;;;;;;;;
;;;;;;;;;;
;;;;;;;;;;
;;;;;;;;;;
;;;;;;;;;;
;;;;;;;;;;
;;;;;;;;;;
;;;;;;;;;;
;;;;;;;;;;
;;;;;;;;;;
;;;;;;;;;;
;;;;;;;;;;
;;;;;;;;;;
;;;;;;;;;;
;;;;;;;;;;
;;;;;;;;;;
;;;;;;;;;;
;;;;;;;;;;
;;;;;;;;;;
;;;;;;;;;;
;;;;;;;;;;
;;;;;;;;;;
;;;;;;;;;;
;;;;;;;;;;
;;;;;;;;;;
;;;;;;;;;;
;;;;;;;;;;
;;;;;;;;;;
;;;;;;;;;;
;;;;;;;;;;
;;;;;;;;;;
;;;;;;;;;;
;;;;;;;;;;
;;;;;;;;;;
;;;;;;;;;;
;;;;;;;;;;
;;;;;;;;;;
;;;;;;;;;;
;;;;;;;;;;
;;;;;;;;;;
;;;;;;;;;;
;;;;;;;;;;
;;;;;;;;;;
;;;;;;;;;;
;;;;;;;;;;
;;;;;;;;;;
;;;;;;;;;;
;;;;;;;;;;
;;;;;;;;;;
;;;;;;;;;;
;;;;;;;;;;
;;;;;;;;;;
;;;;;;;;;;
;;;;;;;;;;
;;;;;;;;;;
;;;;;;;;;;
;;;;;;;;;;
;;;;;;;;;;
;;;;;;;;;;
;;;;;;;;;;
;;;;;;;;;;
;;;;;;;;;;
;;;;;;;;;;
;;;;;;;;;;
;;;;;;;;;;
;;;;;;;;;;
;;;;;;;;;;
;;;;;;;;;;
;;;;;;;;;;
;;;;;;;;;;
;;;;;;;;;;
;;;;;;;;;;
;;;;;;;;;;
;;;;;;;;;;
;;;;;;;;;;
;;;;;;;;;;
;;;;;;;;;;
;;;;;;;;;;
;;;;;;;;;;
;;;;;;;;;;
;;;;;;;;;;
;;;;;;;;;;
;;;;;;;;;;
;;;;;;;;;;
;;;;;;;;;;
;;;;;;;;;;
;;;;;;;;;;
;;;;;;;;;;
;;;;;;;;;;
;;;;;;;;;;
;;;;;;;;;;
;;;;;;;;;;
;;;;;;;;;;
;;;;;;;;;;
;;;;;;;;;;
;;;;;;;;;;
;;;;;;;;;;
;;;;;;;;;;
;;;;;;;;;;
;;;;;;;;;;
;;;;;;;;;;
;;;;;;;;;;
;;;;;;;;;;
;;;;;;;;;;
;;;;;;;;;;
;;;;;;;;;;
;;;;;;;;;;
;;;;;;;;;;
;;;;;;;;;;
;;;;;;;;;;
;;;;;;;;;;
;;;;;;;;;;
;;;;;;;;;;
;;;;;;;;;;
;;;;;;;;;;
;;;;;;;;;;
;;;;;;;;;;
;;;;;;;;;;
;;;;;;;;;;
;;;;;;;;;;
;;;;;;;;;;
;;;;;;;;;;
;;;;;;;;;;
;;;;;;;;;;
;;;;;;;;;;
;;;;;;;;;;
;;;;;;;;;;
;;;;;;;;;;
;;;;;;;;;;
;;;;;;;;;;
;;;;;;;;;;
;;;;;;;;;;
;;;;;;;;;;
;;;;;;;;;;
;;;;;;;;;;
;;;;;;;;;;
;;;;;;;;;;
;;;;;;;;;;
;;;;;;;;;;
;;;;;;;;;;
;;;;;;;;;;
;;;;;;;;;;
;;;;;;;;;;
;;;;;;;;;;
;;;;;;;;;;
;;;;;;;;;;
;;;;;;;;;;
;;;;;;;;;;
;;;;;;;;;;
;;;;;;;;;;
;;;;;;;;;;
;;;;;;;;;;
;;;;;;;;;;
;;;;;;;;;;
;;;;;;;;;;
;;;;;;;;;;
;;;;;;;;;;
;;;;;;;;;;
;;;;;;;;;;
;;;;;;;;;;
;;;;;;;;;;
;;;;;;;;;;
;;;;;;;;;;
;;;;;;;;;;
;;;;;;;;;;
;;;;;;;;;;
;;;;;;;;;;
;;;;;;;;;;
;;;;;;;;;;
;;;;;;;;;;
;;;;;;;;;;
;;;;;;;;;;
;;;;;;;;;;
;;;;;;;;;;
;;;;;;;;;;
;;;;;;;;;;
;;;;;;;;;;
;;;;;;;;;;
;;;;;;;;;;
;;;;;;;;;;
;;;;;;;;;;
;;;;;;;;;;
;;;;;;;;;;
;;;;;;;;;;
;;;;;;;;;;
;;;;;;;;;;
;;;;;;;;;;
;;;;;;;;;;
;;;;;;;;;;
;;;;;;;;;;
;;;;;;;;;;
;;;;;;;;;;
;;;;;;;;;;
;;;;;;;;;;
;;;;;;;;;;
;;;;;;;;;;
;;;;;;;;;;
;;;;;;;;;;
;;;;;;;;;;
;;;;;;;;;;
;;;;;;;;;;
;;;;;;;;;;
;;;;;;;;;;
;;;;;;;;;;
;;;;;;;;;;
;;;;;;;;;;
;;;;;;;;;;
;;;;;;;;;;
;;;;;;;;;;
;;;;;;;;;;
;;;;;;;;;;
;;;;;;;;;;
;;;;;;;;;;
;;;;;;;;;;
;;;;;;;;;;
;;;;;;;;;;
;;;;;;;;;;
;;;;;;;;;;
;;;;;;;;;;
;;;;;;;;;;
;;;;;;;;;;
;;;;;;;;;;
;;;;;;;;;;
;;;;;;;;;;
;;;;;;;;;;
;;;;;;;;;;
;;;;;;;;;;
;;;;;;;;;;
;;;;;;;;;;
;;;;;;;;;;
;;;;;;;;;;
;;;;;;;;;;
;;;;;;;;;;
;;;;;;;;;;
;;;;;;;;;;
;;;;;;;;;;
;;;;;;;;;;
;;;;;;;;;;
;;;;;;;;;;
;;;;;;;;;;
;;;;;;;;;;
;;;;;;;;;;
;;;;;;;;;;
;;;;;;;;;;
;;;;;;;;;;
;;;;;;;;;;
;;;;;;;;;;
;;;;;;;;;;
;;;;;;;;;;
;;;;;;;;;;
;;;;;;;;;;
;;;;;;;;;;
;;;;;;;;;;
;;;;;;;;;;
;;;;;;;;;;
;;;;;;;;;;
;;;;;;;;;;
;;;;;;;;;;
;;;;;;;;;;
;;;;;;;;;;
;;;;;;;;;;
;;;;;;;;;;
;;;;;;;;;;
;;;;;;;;;;
;;;;;;;;;;
;;;;;;;;;;
;;;;;;;;;;
;;;;;;;;;;
;;;;;;;;;;
;;;;;;;;;;
;;;;;;;;;;
;;;;;;;;;;
;;;;;;;;;;
;;;;;;;;;;
;;;;;;;;;;
;;;;;;;;;;
;;;;;;;;;;
;;;;;;;;;;
;;;;;;;;;;
;;;;;;;;;;
;;;;;;;;;;
;;;;;;;;;;
;;;;;;;;;;
;;;;;;;;;;
;;;;;;;;;;
;;;;;;;;;;
;;;;;;;;;;
;;;;;;;;;;
;;;;;;;;;;
;;;;;;;;;;
;;;;;;;;;;
;;;;;;;;;;
;;;;;;;;;;
;;;;;;;;;;
;;;;;;;;;;
;;;;;;;;;;
;;;;;;;;;;
;;;;;;;;;;
;;;;;;;;;;
;;;;;;;;;;
;;;;;;;;;;
;;;;;;;;;;
;;;;;;;;;;
;;;;;;;;;;
;;;;;;;;;;
;;;;;;;;;;
;;;;;;;;;;
;;;;;;;;;;
;;;;;;;;;;
;;;;;;;;;;
;;;;;;;;;;
;;;;;;;;;;
;;;;;;;;;;
;;;;;;;;;;
;;;;;;;;;;
;;;;;;;;;;
;;;;;;;;;;
;;;;;;;;;;
;;;;;;;;;;
;;;;;;;;;;
;;;;;;;;;;
;;;;;;;;;;
;;;;;;;;;;
;;;;;;;;;;
;;;;;;;;;;
;;;;;;;;;;
;;;;;;;;;;
;;;;;;;;;;
;;;;;;;;;;
;;;;;;;;;;
;;;;;;;;;;
;;;;;;;;;;
;;;;;;;;;;
;;;;;;;;;;
;;;;;;;;;;
;;;;;;;;;;
;;;;;;;;;;
;;;;;;;;;;
;;;;;;;;;;
;;;;;;;;;;
;;;;;;;;;;
;;;;;;;;;;
;;;;;;;;;;
;;;;;;;;;;
;;;;;;;;;;
;;;;;;;;;;
;;;;;;;;;;
;;;;;;;;;;
;;;;;;;;;;
;;;;;;;;;;
;;;;;;;;;;
;;;;;;;;;;
;;;;;;;;;;
;;;;;;;;;;
;;;;;;;;;;
;;;;;;;;;;
;;;;;;;;;;
;;;;;;;;;;
;;;;;;;;;;
;;;;;;;;;;
;;;;;;;;;;
;;;;;;;;;;
;;;;;;;;;;
;;;;;;;;;;
;;;;;;;;;;
;;;;;;;;;;
;;;;;;;;;;
;;;;;;;;;;
;;;;;;;;;;
;;;;;;;;;;
;;;;;;;;;;
;;;;;;;;;;
;;;;;;;;;;
;;;;;;;;;;
;;;;;;;;;;
;;;;;;;;;;
;;;;;;;;;;
;;;;;;;;;;
;;;;;;;;;;
;;;;;;;;;;
;;;;;;;;;;
;;;;;;;;;;
;;;;;;;;;;
;;;;;;;;;;
;;;;;;;;;;
;;;;;;;;;;
;;;;;;;;;;
;;;;;;;;;;
;;;;;;;;;;
;;;;;;;;;;
;;;;;;;;;;
;;;;;;;;;;
;;;;;;;;;;
;;;;;;;;;;
;;;;;;;;;;
;;;;;;;;;;
;;;;;;;;;;
;;;;;;;;;;
;;;;;;;;;;
;;;;;;;;;;
;;;;;;;;;;
;;;;;;;;;;
;;;;;;;;;;
;;;;;;;;;;
;;;;;;;;;;
;;;;;;;;;;
;;;;;;;;;;
;;;;;;;;;;
;;;;;;;;;;
;;;;;;;;;;
;;;;;;;;;;
;;;;;;;;;;
;;;;;;;;;;
;;;;;;;;;;
;;;;;;;;;;
;;;;;;;;;;
;;;;;;;;;;
;;;;;;;;;;
;;;;;;;;;;
;;;;;;;;;;
;;;;;;;;;;
;;;;;;;;;;
;;;;;;;;;;
;;;;;;;;;;
;;;;;;;;;;
;;;;;;;;;;
;;;;;;;;;;
;;;;;;;;;;
;;;;;;;;;;
;;;;;;;;;;
;;;;;;;;;;
;;;;;;;;;;
;;;;;;;;;;
;;;;;;;;;;
;;;;;;;;;;
;;;;;;;;;;
;;;;;;;;;;
;;;;;;;;;;
;;;;;;;;;;
;;;;;;;;;;
;;;;;;;;;;
;;;;;;;;;;
;;;;;;;;;;
;;;;;;;;;;
;;;;;;;;;;
;;;;;;;;;;
;;;;;;;;;;
;;;;;;;;;;
;;;;;;;;;;
;;;;;;;;;;
;;;;;;;;;;
;;;;;;;;;;
;;;;;;;;;;
;;;;;;;;;;
;;;;;;;;;;
;;;;;;;;;;
;;;;;;;;;;
;;;;;;;;;;
;;;;;;;;;;
;;;;;;;;;;
;;;;;;;;;;
;;;;;;;;;;
;;;;;;;;;;
;;;;;;;;;;
;;;;;;;;;;
;;;;;;;;;;
;;;;;;;;;;
;;;;;;;;;;
;;;;;;;;;;
;;;;;;;;;;
;;;;;;;;;;
;;;;;;;;;;
;;;;;;;;;;
;;;;;;;;;;
;;;;;;;;;;
;;;;;;;;;;
;;;;;;;;;;
;;;;;;;;;;
;;;;;;;;;;
;;;;;;;;;;
;;;;;;;;;;
;;;;;;;;;;
;;;;;;;;;;
;;;;;;;;;;
;;;;;;;;;;
;;;;;;;;;;
;;;;;;;;;;
;;;;;;;;;;
;;;;;;;;;;
;;;;;;;;;;
;;;;;;;;;;
;;;;;;;;;;
;;;;;;;;;;
;;;;;;;;;;
;;;;;;;;;;
;;;;;;;;;;
;;;;;;;;;;
;;;;;;;;;;
;;;;;;;;;;
;;;;;;;;;;
;;;;;;;;;;
;;;;;;;;;;
;;;;;;;;;;
;;;;;;;;;;
;;;;;;;;;;
;;;;;;;;;;
;;;;;;;;;;
;;;;;;;;;;
;;;;;;;;;;
;;;;;;;;;;
;;;;;;;;;;
;;;;;;;;;;
;;;;;;;;;;
;;;;;;;;;;
;;;;;;;;;;
;;;;;;;;;;
;;;;;;;;;;
;;;;;;;;;;
;;;;;;;;;;
;;;;;;;;;;
;;;;;;;;;;
;;;;;;;;;;
;;;;;;;;;;
;;;;;;;;;;
;;;;;;;;;;
;;;;;;;;;;
;;;;;;;;;;
;;;;;;;;;;
;;;;;;;;;;
;;;;;;;;;;
;;;;;;;;;;
;;;;;;;;;;
;;;;;;;;;;
;;;;;;;;;;
;;;;;;;;;;
;;;;;;;;;;
;;;;;;;;;;
;;;;;;;;;;
;;;;;;;;;;
;;;;;;;;;;
;;;;;;;;;;
;;;;;;;;;;
;;;;;;;;;;
;;;;;;;;;;
;;;;;;;;;;
;;;;;;;;;;
;;;;;;;;;;
;;;;;;;;;;
;;;;;;;;;;
;;;;;;;;;;
;;;;;;;;;;
;;;;;;;;;;
;;;;;;;;;;
;;;;;;;;;;
;;;;;;;;;;
;;;;;;;;;;
;;;;;;;;;;
;;;;;;;;;;
;;;;;;;;;;
;;;;;;;;;;
;;;;;;;;;;
;;;;;;;;;;
;;;;;;;;;;
;;;;;;;;;;
;;;;;;;;;;
;;;;;;;;;;
;;;;;;;;;;
;;;;;;;;;;
;;;;;;;;;;
;;;;;;;;;;
;;;;;;;;;;
;;;;;;;;;;
;;;;;;;;;;
;;;;;;;;;;
;;;;;;;;;;
;;;;;;;;;;
;;;;;;;;;;
;;;;;;;;;;
;;;;;;;;;;
;;;;;;;;;;
;;;;;;;;;;
;;;;;;;;;;
;;;;;;;;;;
;;;;;;;;;;
;;;;;;;;;;
;;;;;;;;;;
;;;;;;;;;;
;;;;;;;;;;
;;;;;;;;;;
;;;;;;;;;;
;;;;;;;;;;
;;;;;;;;;;
;;;;;;;;;;
;;;;;;;;;;
;;;;;;;;;;
;;;;;;;;;;
;;;;;;;;;;
;;;;;;;;;;
;;;;;;;;;;
;;;;;;;;;;
;;;;;;;;;;
;;;;;;;;;;
;;;;;;;;;;
;;;;;;;;;;
;;;;;;;;;;
;;;;;;;;;;
;;;;;;;;;;
;;;;;;;;;;
;;;;;;;;;;
;;;;;;;;;;
;;;;;;;;;;
;;;;;;;;;;
;;;;;;;;;;
;;;;;;;;;;
;;;;;;;;;;
;;;;;;;;;;
;;;;;;;;;;
;;;;;;;;;;
;;;;;;;;;;
;;;;;;;;;;
;;;;;;;;;;
;;;;;;;;;;
;;;;;;;;;;
;;;;;;;;;;
;;;;;;;;;;
;;;;;;;;;;
;;;;;;;;;;
;;;;;;;;;;
;;;;;;;;;;
;;;;;;;;;;
;;;;;;;;;;
;;;;;;;;;;
;;;;;;;;;;
;;;;;;;;;;
;;;;;;;;;;
;;;;;;;;;;
;;;;;;;;;;
;;;;;;;;;;
;;;;;;;;;;
;;;;;;;;;;
;;;;;;;;;;
;;;;;;;;;;
;;;;;;;;;;
;;;;;;;;;;
;;;;;;;;;;
;;;;;;;;;;
;;;;;;;;;;
;;;;;;;;;;
;;;;;;;;;;
;;;;;;;;;;
;;;;;;;;;;
;;;;;;;;;;
;;;;;;;;;;
;;;;;;;;;;
;;;;;;;;;;
;;;;;;;;;;
;;;;;;;;;;
;;;;;;;;;;
;;;;;;;;;;
;;;;;;;;;;
;;;;;;;;;;
;;;;;;;;;;
;;;;;;;;;;
;;;;;;;;;;
;;;;;;;;;;
;;;;;;;;;;
;;;;;;;;;;
;;;;;;;;;;
;;;;;;;;;;
;;;;;;;;;;
;;;;;;;;;;
;;;;;;;;;;
;;;;;;;;;;
;;;;;;;;;;
;;;;;;;;;;
;;;;;;;;;;
;;;;;;;;;;
;;;;;;;;;;
;;;;;;;;;;
;;;;;;;;;;
;;;;;;;;;;
;;;;;;;;;;
;;;;;;;;;;
;;;;;;;;;;
;;;;;;;;;;
;;;;;;;;;;
;;;;;;;;;;
;;;;;;;;;;
;;;;;;;;;;
;;;;;;;;;;
;;;;;;;;;;
;;;;;;;;;;
;;;;;;;;;;
;;;;;;;;;;
;;;;;;;;;;
;;;;;;;;;;
;;;;;;;;;;
;;;;;;;;;;
;;;;;;;;;;
;;;;;;;;;;
;;;;;;;;;;
;;;;;;;;;;
;;;;;;;;;;
;;;;;;;;;;
;;;;;;;;;;
;;;;;;;;;;
;;;;;;;;;;
;;;;;;;;;;
;;;;;;;;;;
;;;;;;;;;;
;;;;;;;;;;
;;;;;;;;;;
;;;;;;;;;;
;;;;;;;;;;
;;;;;;;;;;
;;;;;;;;;;
;;;;;;;;;;
;;;;;;;;;;
;;;;;;;;;;
;;;;;;;;;;
;;;;;;;;;;
;;;;;;;;;;
;;;;;;;;;;
;;;;;;;;;;
;;;;;;;;;;
;;;;;;;;;;
;;;;;;;;;;
;;;;;;;;;;
;;;;;;;;;;
;;;;;;;;;;
;;;;;;;;;;
;;;;;;;;;;
;;;;;;;;;;
;;;;;;;;;;
;;;;;;;;;;
;;;;;;;;;;
;;;;;;;;;;
;;;;;;;;;;
;;;;;;;;;;
;;;;;;;;;;
;;;;;;;;;;
;;;;;;;;;;
;;;;;;;;;;
;;;;;;;;;;
;;;;;;;;;;
;;;;;;;;;;
;;;;;;;;;;
;;;;;;;;;;
;;;;;;;;;;
;;;;;;;;;;
;;;;;;;;;;
;;;;;;;;;;
;;;;;;;;;;
;;;;;;;;;;
;;;;;;;;;;
;;;;;;;;;;
;;;;;;;;;;
;;;;;;;;;;
;;;;;;;;;;
;;;;;;;;;;
;;;;;;;;;;
;;;;;;;;;;
;;;;;;;;;;
;;;;;;;;;;
;;;;;;;;;;
;;;;;;;;;;
;;;;;;;;;;
;;;;;;;;;;
;;;;;;;;;;
;;;;;;;;;;
;;;;;;;;;;
;;;;;;;;;;
;;;;;;;;;;
;;;;;;;;;;
;;;;;;;;;;
;;;;;;;;;;
;;;;;;;;;;
;;;;;;;;;;
;;;;;;;;;;
;;;;;;;;;;
;;;;;;;;;;
;;;;;;;;;;
;;;;;;;;;;
;;;;;;;;;;
;;;;;;;;;;
;;;;;;;;;;
;;;;;;;;;;
;;;;;;;;;;
;;;;;;;;;;
;;;;;;;;;;
;;;;;;;;;;
;;;;;;;;;;
;;;;;;;;;;
;;;;;;;;;;
;;;;;;;;;;
;;;;;;;;;;
;;;;;;;;;;
;;;;;;;;;;
;;;;;;;;;;
;;;;;;;;;;
;;;;;;;;;;
;;;;;;;;;;
;;;;;;;;;;
;;;;;;;;;;
;;;;;;;;;;
;;;;;;;;;;
;;;;;;;;;;
;;;;;;;;;;
;;;;;;;;;;
;;;;;;;;;;
;;;;;;;;;;
;;;;;;;;;;
;;;;;;;;;;
;;;;;;;;;;
;;;;;;;;;;
;;;;;;;;;;
;;;;;;;;;;
;;;;;;;;;;
;;;;;;;;;;
;;;;;;;;;;
;;;;;;;;;;
;;;;;;;;;;
;;;;;;;;;;
;;;;;;;;;;
;;;;;;;;;;
;;;;;;;;;;
;;;;;;;;;;
;;;;;;;;;;
;;;;;;;;;;
;;;;;;;;;;
;;;;;;;;;;
;;;;;;;;;;
;;;;;;;;;;
;;;;;;;;;;
;;;;;;;;;;
;;;;;;;;;;
;;;;;;;;;;
;;;;;;;;;;
;;;;;;;;;;
;;;;;;;;;;
;;;;;;;;;;
;;;;;;;;;;
;;;;;;;;;;
;;;;;;;;;;
;;;;;;;;;;
;;;;;;;;;;
;;;;;;;;;;
;;;;;;;;;;
;;;;;;;;;;
;;;;;;;;;;
;;;;;;;;;;
;;;;;;;;;;
;;;;;;;;;;
;;;;;;;;;;
;;;;;;;;;;
;;;;;;;;;;
;;;;;;;;;;
;;;;;;;;;;
;;;;;;;;;;
;;;;;;;;;;
;;;;;;;;;;
;;;;;;;;;;
;;;;;;;;;;
;;;;;;;;;;
;;;;;;;;;;
;;;;;;;;;;
;;;;;;;;;;
;;;;;;;;;;
;;;;;;;;;;
;;;;;;;;;;
;;;;;;;;;;
;;;;;;;;;;
;;;;;;;;;;
;;;;;;;;;;
;;;;;;;;;;
;;;;;;;;;;
;;;;;;;;;;
;;;;;;;;;;
;;;;;;;;;;
;;;;;;;;;;
;;;;;;;;;;
;;;;;;;;;;
;;;;;;;;;;
;;;;;;;;;;
;;;;;;;;;;
;;;;;;;;;;
;;;;;;;;;;
;;;;;;;;;;
;;;;;;;;;;
;;;;;;;;;;
;;;;;;;;;;
;;;;;;;;;;
;;;;;;;;;;
;;;;;;;;;;
;;;;;;;;;;
;;;;;;;;;;
;;;;;;;;;;
;;;;;;;;;;
;;;;;;;;;;
;;;;;;;;;;
;;;;;;;;;;
;;;;;;;;;;
;;;;;;;;;;
;;;;;;;;;;
;;;;;;;;;;
;;;;;;;;;;
;;;;;;;;;;
;;;;;;;;;;
;;;;;;;;;;
;;;;;;;;;;
;;;;;;;;;;
;;;;;;;;;;
;;;;;;;;;;
;;;;;;;;;;
;;;;;;;;;;
;;;;;;;;;;
;;;;;;;;;;
;;;;;;;;;;
;;;;;;;;;;
;;;;;;;;;;
;;;;;;;;;;
;;;;;;;;;;
;;;;;;;;;;
;;;;;;;;;;
;;;;;;;;;;
;;;;;;;;;;
;;;;;;;;;;
;;;;;;;;;;
;;;;;;;;;;
;;;;;;;;;;
;;;;;;;;;;
;;;;;;;;;;
;;;;;;;;;;
;;;;;;;;;;
;;;;;;;;;;
;;;;;;;;;;
;;;;;;;;;;
;;;;;;;;;;
;;;;;;;;;;
;;;;;;;;;;
;;;;;;;;;;
;;;;;;;;;;
;;;;;;;;;;
;;;;;;;;;;
;;;;;;;;;;
;;;;;;;;;;
;;;;;;;;;;
;;;;;;;;;;
;;;;;;;;;;
;;;;;;;;;;
;;;;;;;;;;
;;;;;;;;;;
;;;;;;;;;;
;;;;;;;;;;
;;;;;;;;;;
;;;;;;;;;;
;;;;;;;;;;
;;;;;;;;;;
;;;;;;;;;;
;;;;;;;;;;
;;;;;;;;;;
;;;;;;;;;;
;;;;;;;;;;
;;;;;;;;;;
;;;;;;;;;;
;;;;;;;;;;
;;;;;;;;;;
;;;;;;;;;;
;;;;;;;;;;
;;;;;;;;;;
;;;;;;;;;;
;;;;;;;;;;
;;;;;;;;;;
;;;;;;;;;;
;;;;;;;;;;
;;;;;;;;;;
;;;;;;;;;;
;;;;;;;;;;
;;;;;;;;;;
;;;;;;;;;;
;;;;;;;;;;
;;;;;;;;;;
;;;;;;;;;;
;;;;;;;;;;
;;;;;;;;;;
;;;;;;;;;;
;;;;;;;;;;
;;;;;;;;;;
;;;;;;;;;;
;;;;;;;;;;
;;;;;;;;;;
;;;;;;;;;;
;;;;;;;;;;
;;;;;;;;;;
;;;;;;;;;;
;;;;;;;;;;
;;;;;;;;;;
;;;;;;;;;;
;;;;;;;;;;
;;;;;;;;;;
;;;;;;;;;;
;;;;;;;;;;
;;;;;;;;;;
;;;;;;;;;;
;;;;;;;;;;
;;;;;;;;;;
;;;;;;;;;;
;;;;;;;;;;
;;;;;;;;;;
;;;;;;;;;;
;;;;;;;;;;
;;;;;;;;;;
;;;;;;;;;;
;;;;;;;;;;
;;;;;;;;;;
;;;;;;;;;;
;;;;;;;;;;
;;;;;;;;;;
;;;;;;;;;;
;;;;;;;;;;
;;;;;;;;;;
;;;;;;;;;;
;;;;;;;;;;
;;;;;;;;;;
;;;;;;;;;;
;;;;;;;;;;
;;;;;;;;;;
;;;;;;;;;;
;;;;;;;;;;
;;;;;;;;;;
;;;;;;;;;;
;;;;;;;;;;
;;;;;;;;;;
;;;;;;;;;;
;;;;;;;;;;
;;;;;;;;;;
;;;;;;;;;;
;;;;;;;;;;
;;;;;;;;;;
;;;;;;;;;;
;;;;;;;;;;
;;;;;;;;;;
;;;;;;;;;;
;;;;;;;;;;
;;;;;;;;;;
;;;;;;;;;;
;;;;;;;;;;
;;;;;;;;;;
;;;;;;;;;;
;;;;;;;;;;
;;;;;;;;;;
;;;;;;;;;;
;;;;;;;;;;
;;;;;;;;;;
;;;;;;;;;;
;;;;;;;;;;
;;;;;;;;;;
;;;;;;;;;;
;;;;;;;;;;
;;;;;;;;;;
;;;;;;;;;;
;;;;;;;;;;
;;;;;;;;;;
;;;;;;;;;;
;;;;;;;;;;
;;;;;;;;;;
;;;;;;;;;;
;;;;;;;;;;
;;;;;;;;;;
;;;;;;;;;;
;;;;;;;;;;
;;;;;;;;;;
;;;;;;;;;;
;;;;;;;;;;
;;;;;;;;;;
;;;;;;;;;;
;;;;;;;;;;
;;;;;;;;;;
;;;;;;;;;;
;;;;;;;;;;
;;;;;;;;;;
;;;;;;;;;;
;;;;;;;;;;
;;;;;;;;;;
;;;;;;;;;;
;;;;;;;;;;
;;;;;;;;;;
;;;;;;;;;;
;;;;;;;;;;
;;;;;;;;;;
;;;;;;;;;;
;;;;;;;;;;
;;;;;;;;;;
;;;;;;;;;;
;;;;;;;;;;
;;;;;;;;;;
;;;;;;;;;;
;;;;;;;;;;
;;;;;;;;;;
;;;;;;;;;;
;;;;;;;;;;
;;;;;;;;;;
;;;;;;;;;;
;;;;;;;;;;
;;;;;;;;;;
;;;;;;;;;;
;;;;;;;;;;
;;;;;;;;;;
;;;;;;;;;;
;;;;;;;;;;
;;;;;;;;;;
;;;;;;;;;;
;;;;;;;;;;
;;;;;;;;;;
;;;;;;;;;;
;;;;;;;;;;
;;;;;;;;;;
;;;;;;;;;;
;;;;;;;;;;
;;;;;;;;;;
;;;;;;;;;;
;;;;;;;;;;
;;;;;;;;;;
;;;;;;;;;;
;;;;;;;;;;
;;;;;;;;;;
;;;;;;;;;;
;;;;;;;;;;
;;;;;;;;;;
;;;;;;;;;;
;;;;;;;;;;
;;;;;;;;;;
;;;;;;;;;;
;;;;;;;;;;
;;;;;;;;;;
;;;;;;;;;;
;;;;;;;;;;
;;;;;;;;;;
;;;;;;;;;;
;;;;;;;;;;
;;;;;;;;;;
;;;;;;;;;;
;;;;;;;;;;
;;;;;;;;;;
;;;;;;;;;;
;;;;;;;;;;
;;;;;;;;;;
;;;;;;;;;;
;;;;;;;;;;
;;;;;;;;;;
;;;;;;;;;;
;;;;;;;;;;
;;;;;;;;;;
;;;;;;;;;;
;;;;;;;;;;
;;;;;;;;;;
;;;;;;;;;;
;;;;;;;;;;
;;;;;;;;;;
;;;;;;;;;;
;;;;;;;;;;
;;;;;;;;;;
;;;;;;;;;;
;;;;;;;;;;
;;;;;;;;;;
;;;;;;;;;;
;;;;;;;;;;
;;;;;;;;;;
;;;;;;;;;;
;;;;;;;;;;
;;;;;;;;;;
;;;;;;;;;;
;;;;;;;;;;
;;;;;;;;;;
;;;;;;;;;;
;;;;;;;;;;
;;;;;;;;;;
;;;;;;;;;;
;;;;;;;;;;
;;;;;;;;;;
;;;;;;;;;;
;;;;;;;;;;
;;;;;;;;;;
;;;;;;;;;;
;;;;;;;;;;
;;;;;;;;;;
;;;;;;;;;;
;;;;;;;;;;
;;;;;;;;;;
;;;;;;;;;;
;;;;;;;;;;
;;;;;;;;;;
;;;;;;;;;;
;;;;;;;;;;
;;;;;;;;;;
;;;;;;;;;;
;;;;;;;;;;
;;;;;;;;;;
;;;;;;;;;;
;;;;;;;;;;
;;;;;;;;;;
;;;;;;;;;;
;;;;;;;;;;
;;;;;;;;;;
;;;;;;;;;;
;;;;;;;;;;
;;;;;;;;;;
;;;;;;;;;;
;;;;;;;;;;
;;;;;;;;;;
;;;;;;;;;;
;;;;;;;;;;
;;;;;;;;;;
;;;;;;;;;;
;;;;;;;;;;
;;;;;;;;;;
;;;;;;;;;;
;;;;;;;;;;
;;;;;;;;;;
;;;;;;;;;;
;;;;;;;;;;
;;;;;;;;;;
;;;;;;;;;;
;;;;;;;;;;
;;;;;;;;;;
;;;;;;;;;;
;;;;;;;;;;
;;;;;;;;;;
;;;;;;;;;;
;;;;;;;;;;
;;;;;;;;;;
;;;;;;;;;;
;;;;;;;;;;
;;;;;;;;;;
;;;;;;;;;;
;;;;;;;;;;
;;;;;;;;;;
;;;;;;;;;;
;;;;;;;;;;
;;;;;;;;;;
;;;;;;;;;;
;;;;;;;;;;
;;;;;;;;;;
;;;;;;;;;;
;;;;;;;;;;
;;;;;;;;;;
;;;;;;;;;;
;;;;;;;;;;
;;;;;;;;;;
;;;;;;;;;;
;;;;;;;;;;
;;;;;;;;;;
;;;;;;;;;;
;;;;;;;;;;
;;;;;;;;;;
;;;;;;;;;;
;;;;;;;;;;
;;;;;;;;;;
;;;;;;;;;;
;;;;;;;;;;
;;;;;;;;;;
;;;;;;;;;;
;;;;;;;;;;
;;;;;;;;;;
;;;;;;;;;;
;;;;;;;;;;
;;;;;;;;;;
;;;;;;;;;;
;;;;;;;;;;
;;;;;;;;;;
;;;;;;;;;;
;;;;;;;;;;
;;;;;;;;;;
;;;;;;;;;;
;;;;;;;;;;
;;;;;;;;;;
;;;;;;;;;;
;;;;;;;;;;
;;;;;;;;;;
;;;;;;;;;;
;;;;;;;;;;
;;;;;;;;;;
;;;;;;;;;;
;;;;;;;;;;
;;;;;;;;;;
;;;;;;;;;;
;;;;;;;;;;
;;;;;;;;;;
;;;;;;;;;;
;;;;;;;;;;
;;;;;;;;;;
;;;;;;;;;;
;;;;;;;;;;
;;;;;;;;;;
;;;;;;;;;;
;;;;;;;;;;
;;;;;;;;;;
;;;;;;;;;;
;;;;;;;;;;
;;;;;;;;;;
;;;;;;;;;;
;;;;;;;;;;
;;;;;;;;;;
;;;;;;;;;;
;;;;;;;;;;
;;;;;;;;;;
;;;;;;;;;;
;;;;;;;;;;
;;;;;;;;;;
;;;;;;;;;;
;;;;;;;;;;
;;;;;;;;;;
;;;;;;;;;;
;;;;;;;;;;
;;;;;;;;;;
;;;;;;;;;;
;;;;;;;;;;
;;;;;;;;;;
;;;;;;;;;;
;;;;;;;;;;
;;;;;;;;;;
;;;;;;;;;;
;;;;;;;;;;
;;;;;;;;;;
;;;;;;;;;;
;;;;;;;;;;
;;;;;;;;;;
;;;;;;;;;;
;;;;;;;;;;
;;;;;;;;;;
;;;;;;;;;;
;;;;;;;;;;
;;;;;;;;;;
;;;;;;;;;;
;;;;;;;;;;
;;;;;;;;;;
;;;;;;;;;;
;;;;;;;;;;
;;;;;;;;;;
;;;;;;;;;;
;;;;;;;;;;
;;;;;;;;;;
;;;;;;;;;;
;;;;;;;;;;
;;;;;;;;;;
;;;;;;;;;;
;;;;;;;;;;
;;;;;;;;;;
;;;;;;;;;;
;;;;;;;;;;
;;;;;;;;;;
;;;;;;;;;;
;;;;;;;;;;
;;;;;;;;;;
;;;;;;;;;;
;;;;;;;;;;
;;;;;;;;;;
;;;;;;;;;;
;;;;;;;;;;
;;;;;;;;;;
;;;;;;;;;;
;;;;;;;;;;
;;;;;;;;;;
;;;;;;;;;;
;;;;;;;;;;
;;;;;;;;;;
;;;;;;;;;;
;;;;;;;;;;
;;;;;;;;;;
;;;;;;;;;;
;;;;;;;;;;
;;;;;;;;;;
;;;;;;;;;;
;;;;;;;;;;
;;;;;;;;;;
;;;;;;;;;;
;;;;;;;;;;
;;;;;;;;;;
;;;;;;;;;;
;;;;;;;;;;
;;;;;;;;;;
;;;;;;;;;;
;;;;;;;;;;
;;;;;;;;;;
;;;;;;;;;;
;;;;;;;;;;
;;;;;;;;;;
;;;;;;;;;;
;;;;;;;;;;
;;;;;;;;;;
;;;;;;;;;;
;;;;;;;;;;
;;;;;;;;;;
;;;;;;;;;;
;;;;;;;;;;
;;;;;;;;;;
;;;;;;;;;;
;;;;;;;;;;
;;;;;;;;;;
;;;;;;;;;;
;;;;;;;;;;
;;;;;;;;;;
;;;;;;;;;;
;;;;;;;;;;
;;;;;;;;;;
;;;;;;;;;;
;;;;;;;;;;
;;;;;;;;;;
;;;;;;;;;;
;;;;;;;;;;
;;;;;;;;;;
;;;;;;;;;;
;;;;;;;;;;
;;;;;;;;;;
;;;;;;;;;;
;;;;;;;;;;
;;;;;;;;;;
;;;;;;;;;;
;;;;;;;;;;
;;;;;;;;;;
;;;;;;;;;;
;;;;;;;;;;
;;;;;;;;;;
;;;;;;;;;;
;;;;;;;;;;
;;;;;;;;;;
;;;;;;;;;;
;;;;;;;;;;
;;;;;;;;;;
;;;;;;;;;;
;;;;;;;;;;
;;;;;;;;;;
;;;;;;;;;;
;;;;;;;;;;
;;;;;;;;;;
;;;;;;;;;;
;;;;;;;;;;
;;;;;;;;;;
;;;;;;;;;;
;;;;;;;;;;
;;;;;;;;;;
;;;;;;;;;;
;;;;;;;;;;
;;;;;;;;;;
;;;;;;;;;;
;;;;;;;;;;
;;;;;;;;;;
;;;;;;;;;;
;;;;;;;;;;
;;;;;;;;;;
;;;;;;;;;;
;;;;;;;;;;
;;;;;;;;;;
;;;;;;;;;;
;;;;;;;;;;
;;;;;;;;;;
;;;;;;;;;;
;;;;;;;;;;
;;;;;;;;;;
;;;;;;;;;;
;;;;;;;;;;
;;;;;;;;;;
;;;;;;;;;;
;;;;;;;;;;
;;;;;;;;;;
;;;;;;;;;;
;;;;;;;;;;
;;;;;;;;;;
;;;;;;;;;;
;;;;;;;;;;
;;;;;;;;;;
;;;;;;;;;;
;;;;;;;;;;
;;;;;;;;;;
;;;;;;;;;;
;;;;;;;;;;
;;;;;;;;;;
;;;;;;;;;;
;;;;;;;;;;
;;;;;;;;;;
;;;;;;;;;;
;;;;;;;;;;
;;;;;;;;;;
;;;;;;;;;;
;;;;;;;;;;
;;;;;;;;;;
;;;;;;;;;;
;;;;;;;;;;
;;;;;;;;;;
;;;;;;;;;;
;;;;;;;;;;
;;;;;;;;;;
;;;;;;;;;;
;;;;;;;;;;
;;;;;;;;;;
;;;;;;;;;;
;;;;;;;;;;
;;;;;;;;;;
;;;;;;;;;;
;;;;;;;;;;
;;;;;;;;;;
;;;;;;;;;;
;;;;;;;;;;
;;;;;;;;;;
;;;;;;;;;;
;;;;;;;;;;
;;;;;;;;;;
;;;;;;;;;;
;;;;;;;;;;
;;;;;;;;;;
;;;;;;;;;;
;;;;;;;;;;
;;;;;;;;;;
;;;;;;;;;;
;;;;;;;;;;
;;;;;;;;;;
;;;;;;;;;;
;;;;;;;;;;
;;;;;;;;;;
;;;;;;;;;;
;;;;;;;;;;
;;;;;;;;;;
;;;;;;;;;;
;;;;;;;;;;
;;;;;;;;;;
;;;;;;;;;;
;;;;;;;;;;
;;;;;;;;;;
;;;;;;;;;;
;;;;;;;;;;
;;;;;;;;;;
;;;;;;;;;;
;;;;;;;;;;
;;;;;;;;;;
;;;;;;;;;;
;;;;;;;;;;
;;;;;;;;;;
;;;;;;;;;;
;;;;;;;;;;
;;;;;;;;;;
;;;;;;;;;;
;;;;;;;;;;
;;;;;;;;;;
;;;;;;;;;;
;;;;;;;;;;
;;;;;;;;;;
;;;;;;;;;;
;;;;;;;;;;
;;;;;;;;;;
;;;;;;;;;;
;;;;;;;;;;
;;;;;;;;;;
;;;;;;;;;;
;;;;;;;;;;
;;;;;;;;;;
;;;;;;;;;;
;;;;;;;;;;
;;;;;;;;;;
;;;;;;;;;;
;;;;;;;;;;
;;;;;;;;;;
;;;;;;;;;;
;;;;;;;;;;
;;;;;;;;;;
;;;;;;;;;;
;;;;;;;;;;
;;;;;;;;;;
;;;;;;;;;;
;;;;;;;;;;
;;;;;;;;;;
;;;;;;;;;;
;;;;;;;;;;
;;;;;;;;;;
;;;;;;;;;;
;;;;;;;;;;
;;;;;;;;;;
;;;;;;;;;;
;;;;;;;;;;
;;;;;;;;;;
;;;;;;;;;;
;;;;;;;;;;
;;;;;;;;;;
;;;;;;;;;;
;;;;;;;;;;
;;;;;;;;;;
;;;;;;;;;;
;;;;;;;;;;
;;;;;;;;;;
;;;;;;;;;;
;;;;;;;;;;
;;;;;;;;;;
;;;;;;;;;;
;;;;;;;;;;
;;;;;;;;;;
;;;;;;;;;;
;;;;;;;;;;
;;;;;;;;;;
;;;;;;;;;;
;;;;;;;;;;
;;;;;;;;;;
;;;;;;;;;;
;;;;;;;;;;
;;;;;;;;;;
;;;;;;;;;;
;;;;;;;;;;
;;;;;;;;;;
;;;;;;;;;;
;;;;;;;;;;
;;;;;;;;;;
;;;;;;;;;;
;;;;;;;;;;
;;;;;;;;;;
;;;;;;;;;;
;;;;;;;;;;
;;;;;;;;;;
;;;;;;;;;;
;;;;;;;;;;
;;;;;;;;;;
;;;;;;;;;;
;;;;;;;;;;
;;;;;;;;;;
;;;;;;;;;;
;;;;;;;;;;
;;;;;;;;;;
;;;;;;;;;;
;;;;;;;;;;
;;;;;;;;;;
;;;;;;;;;;
;;;;;;;;;;
;;;;;;;;;;
;;;;;;;;;;
;;;;;;;;;;
;;;;;;;;;;
;;;;;;;;;;
;;;;;;;;;;
;;;;;;;;;;
;;;;;;;;;;
;;;;;;;;;;
;;;;;;;;;;
;;;;;;;;;;
;;;;;;;;;;
;;;;;;;;;;
;;;;;;;;;;
;;;;;;;;;;
;;;;;;;;;;
;;;;;;;;;;
;;;;;;;;;;
;;;;;;;;;;
;;;;;;;;;;
;;;;;;;;;;
;;;;;;;;;;
;;;;;;;;;;
;;;;;;;;;;
;;;;;;;;;;
;;;;;;;;;;
;;;;;;;;;;
;;;;;;;;;;
;;;;;;;;;;
;;;;;;;;;;
;;;;;;;;;;
;;;;;;;;;;
;;;;;;;;;;
;;;;;;;;;;
;;;;;;;;;;
;;;;;;;;;;
;;;;;;;;;;
;;;;;;;;;;
;;;;;;;;;;
;;;;;;;;;;
;;;;;;;;;;
;;;;;;;;;;
;;;;;;;;;;
;;;;;;;;;;
;;;;;;;;;;
;;;;;;;;;;
;;;;;;;;;;
;;;;;;;;;;
;;;;;;;;;;
;;;;;;;;;;
;;;;;;;;;;
;;;;;;;;;;
;;;;;;;;;;
;;;;;;;;;;
;;;;;;;;;;
;;;;;;;;;;
;;;;;;;;;;
;;;;;;;;;;
;;;;;;;;;;
;;;;;;;;;;
;;;;;;;;;;
;;;;;;;;;;
;;;;;;;;;;
;;;;;;;;;;
;;;;;;;;;;
;;;;;;;;;;
;;;;;;;;;;
;;;;;;;;;;
;;;;;;;;;;
;;;;;;;;;;
;;;;;;;;;;
;;;;;;;;;;
;;;;;;;;;;
;;;;;;;;;;
;;;;;;;;;;
;;;;;;;;;;
;;;;;;;;;;
;;;;;;;;;;
;;;;;;;;;;
;;;;;;;;;;
;;;;;;;;;;
;;;;;;;;;;
;;;;;;;;;;
;;;;;;;;;;
;;;;;;;;;;
;;;;;;;;;;
;;;;;;;;;;
;;;;;;;;;;
;;;;;;;;;;
;;;;;;;;;;
;;;;;;;;;;
;;;;;;;;;;
;;;;;;;;;;
;;;;;;;;;;
;;;;;;;;;;
;;;;;;;;;;
;;;;;;;;;;
;;;;;;;;;;
;;;;;;;;;;
;;;;;;;;;;
;;;;;;;;;;
;;;;;;;;;;
;;;;;;;;;;
;;;;;;;;;;
;;;;;;;;;;
;;;;;;;;;;
;;;;;;;;;;
;;;;;;;;;;
;;;;;;;;;;
;;;;;;;;;;
;;;;;;;;;;
;;;;;;;;;;
;;;;;;;;;;
;;;;;;;;;;
;;;;;;;;;;
;;;;;;;;;;
;;;;;;;;;;
;;;;;;;;;;
;;;;;;;;;;
;;;;;;;;;;
;;;;;;;;;;
;;;;;;;;;;
;;;;;;;;;;
;;;;;;;;;;
;;;;;;;;;;
;;;;;;;;;;
;;;;;;;;;;
;;;;;;;;;;
;;;;;;;;;;
;;;;;;;;;;
;;;;;;;;;;
;;;;;;;;;;
;;;;;;;;;;
;;;;;;;;;;
;;;;;;;;;;
;;;;;;;;;;
;;;;;;;;;;
;;;;;;;;;;
;;;;;;;;;;
;;;;;;;;;;
;;;;;;;;;;
;;;;;;;;;;
;;;;;;;;;;
;;;;;;;;;;
;;;;;;;;;;
;;;;;;;;;;
;;;;;;;;;;
;;;;;;;;;;
;;;;;;;;;;
;;;;;;;;;;
;;;;;;;;;;
;;;;;;;;;;
;;;;;;;;;;
;;;;;;;;;;
;;;;;;;;;;
;;;;;;;;;;
;;;;;;;;;;
;;;;;;;;;;
;;;;;;;;;;
;;;;;;;;;;
;;;;;;;;;;
;;;;;;;;;;
;;;;;;;;;;
;;;;;;;;;;
;;;;;;;;;;
;;;;;;;;;;
;;;;;;;;;;
;;;;;;;;;;
;;;;;;;;;;
;;;;;;;;;;
;;;;;;;;;;
;;;;;;;;;;
;;;;;;;;;;
;;;;;;;;;;
;;;;;;;;;;
;;;;;;;;;;
;;;;;;;;;;
;;;;;;;;;;
;;;;;;;;;;
;;;;;;;;;;
;;;;;;;;;;
;;;;;;;;;;
;;;;;;;;;;
;;;;;;;;;;
;;;;;;;;;;
;;;;;;;;;;
;;;;;;;;;;
;;;;;;;;;;
;;;;;;;;;;
;;;;;;;;;;
;;;;;;;;;;
;;;;;;;;;;
;;;;;;;;;;
;;;;;;;;;;
;;;;;;;;;;
;;;;;;;;;;
;;;;;;;;;;
;;;;;;;;;;
;;;;;;;;;;
;;;;;;;;;;
;;;;;;;;;;
;;;;;;;;;;
;;;;;;;;;;
;;;;;;;;;;
;;;;;;;;;;
;;;;;;;;;;
;;;;;;;;;;
;;;;;;;;;;
;;;;;;;;;;
;;;;;;;;;;
;;;;;;;;;;
;;;;;;;;;;
;;;;;;;;;;
;;;;;;;;;;
;;;;;;;;;;
;;;;;;;;;;
;;;;;;;;;;
;;;;;;;;;;
;;;;;;;;;;
;;;;;;;;;;
;;;;;;;;;;
;;;;;;;;;;
;;;;;;;;;;
;;;;;;;;;;
;;;;;;;;;;
;;;;;;;;;;
;;;;;;;;;;
;;;;;;;;;;
;;;;;;;;;;
;;;;;;;;;;
;;;;;;;;;;
;;;;;;;;;;
;;;;;;;;;;
;;;;;;;;;;
;;;;;;;;;;
;;;;;;;;;;
;;;;;;;;;;
;;;;;;;;;;
;;;;;;;;;;
;;;;;;;;;;
;;;;;;;;;;
;;;;;;;;;;
;;;;;;;;;;
;;;;;;;;;;
;;;;;;;;;;
;;;;;;;;;;
;;;;;;;;;;
;;;;;;;;;;
;;;;;;;;;;
;;;;;;;;;;
;;;;;;;;;;
;;;;;;;;;;
;;;;;;;;;;
;;;;;;;;;;
;;;;;;;;;;
;;;;;;;;;;
;;;;;;;;;;
;;;;;;;;;;
;;;;;;;;;;
;;;;;;;;;;
;;;;;;;;;;
;;;;;;;;;;
;;;;;;;;;;
;;;;;;;;;;
;;;;;;;;;;
;;;;;;;;;;
;;;;;;;;;;
;;;;;;;;;;
;;;;;;;;;;
;;;;;;;;;;
;;;;;;;;;;
;;;;;;;;;;
;;;;;;;;;;
;;;;;;;;;;
;;;;;;;;;;
;;;;;;;;;;
;;;;;;;;;;
;;;;;;;;;;
;;;;;;;;;;
;;;;;;;;;;
;;;;;;;;;;
;;;;;;;;;;
;;;;;;;;;;
;;;;;;;;;;
;;;;;;;;;;
;;;;;;;;;;
;;;;;;;;;;
;;;;;;;;;;
;;;;;;;;;;
;;;;;;;;;;
;;;;;;;;;;
;;;;;;;;;;
;;;;;;;;;;
;;;;;;;;;;
;;;;;;;;;;
;;;;;;;;;;
;;;;;;;;;;
;;;;;;;;;;
;;;;;;;;;;
;;;;;;;;;;
;;;;;;;;;;
;;;;;;;;;;
;;;;;;;;;;
;;;;;;;;;;
;;;;;;;;;;
;;;;;;;;;;
;;;;;;;;;;
;;;;;;;;;;
;;;;;;;;;;
;;;;;;;;;;
;;;;;;;;;;
;;;;;;;;;;
;;;;;;;;;;
;;;;;;;;;;
;;;;;;;;;;
;;;;;;;;;;
;;;;;;;;;;
;;;;;;;;;;
;;;;;;;;;;
;;;;;;;;;;
;;;;;;;;;;
;;;;;;;;;;
;;;;;;;;;;
;;;;;;;;;;
;;;;;;;;;;
;;;;;;;;;;
;;;;;;;;;;
;;;;;;;;;;
;;;;;;;;;;
;;;;;;;;;;
;;;;;;;;;;
;;;;;;;;;;
;;;;;;;;;;
;;;;;;;;;;
;;;;;;;;;;
;;;;;;;;;;
;;;;;;;;;;
;;;;;;;;;;
;;;;;;;;;;
;;;;;;;;;;
;;;;;;;;;;
;;;;;;;;;;
;;;;;;;;;;
;;;;;;;;;;
;;;;;;;;;;
;;;;;;;;;;
;;;;;;;;;;
;;;;;;;;;;
;;;;;;;;;;
;;;;;;;;;;
;;;;;;;;;;
;;;;;;;;;;
;;;;;;;;;;
;;;;;;;;;;
;;;;;;;;;;
;;;;;;;;;;
;;;;;;;;;;
;;;;;;;;;;
;;;;;;;;;;
;;;;;;;;;;
;;;;;;;;;;
;;;;;;;;;;
;;;;;;;;;;
;;;;;;;;;;
;;;;;;;;;;
;;;;;;;;;;
;;;;;;;;;;
;;;;;;;;;;
;;;;;;;;;;
;;;;;;;;;;
;;;;;;;;;;
;;;;;;;;;;
;;;;;;;;;;
;;;;;;;;;;
;;;;;;;;;;
;;;;;;;;;;
;;;;;;;;;;
;;;;;;;;;;
;;;;;;;;;;
;;;;;;;;;;
;;;;;;;;;;
;;;;;;;;;;
;;;;;;;;;;
;;;;;;;;;;
;;;;;;;;;;
;;;;;;;;;;
;;;;;;;;;;
;;;;;;;;;;
;;;;;;;;;;
;;;;;;;;;;
;;;;;;;;;;
;;;;;;;;;;
;;;;;;;;;;
;;;;;;;;;;
;;;;;;;;;;
;;;;;;;;;;
;;;;;;;;;;
;;;;;;;;;;
;;;;;;;;;;
;;;;;;;;;;
;;;;;;;;;;
;;;;;;;;;;
;;;;;;;;;;
;;;;;;;;;;
;;;;;;;;;;
;;;;;;;;;;
;;;;;;;;;;
;;;;;;;;;;
;;;;;;;;;;
;;;;;;;;;;
;;;;;;;;;;
;;;;;;;;;;
;;;;;;;;;;
;;;;;;;;;;
;;;;;;;;;;
;;;;;;;;;;
;;;;;;;;;;
;;;;;;;;;;
;;;;;;;;;;
;;;;;;;;;;
;;;;;;;;;;
;;;;;;;;;;
;;;;;;;;;;
;;;;;;;;;;
;;;;;;;;;;
;;;;;;;;;;
;;;;;;;;;;
;;;;;;;;;;
;;;;;;;;;;
;;;;;;;;;;
;;;;;;;;;;
;;;;;;;;;;
;;;;;;;;;;
;;;;;;;;;;
;;;;;;;;;;
;;;;;;;;;;
;;;;;;;;;;
;;;;;;;;;;
;;;;;;;;;;
;;;;;;;;;;
;;;;;;;;;;
;;;;;;;;;;
;;;;;;;;;;
;;;;;;;;;;
;;;;;;;;;;
;;;;;;;;;;
;;;;;;;;;;
;;;;;;;;;;
;;;;;;;;;;
;;;;;;;;;;
;;;;;;;;;;
;;;;;;;;;;
;;;;;;;;;;
;;;;;;;;;;
;;;;;;;;;;
;;;;;;;;;;
;;;;;;;;;;
;;;;;;;;;;
;;;;;;;;;;
;;;;;;;;;;
;;;;;;;;;;
;;;;;;;;;;
;;;;;;;;;;
;;;;;;;;;;
;;;;;;;;;;
;;;;;;;;;;
;;;;;;;;;;
;;;;;;;;;;
;;;;;;;;;;
;;;;;;;;;;
;;;;;;;;;;
;;;;;;;;;;
;;;;;;;;;;
;;;;;;;;;;
;;;;;;;;;;
;;;;;;;;;;
;;;;;;;;;;
;;;;;;;;;;
;;;;;;;;;;
;;;;;;;;;;
;;;;;;;;;;
;;;;;;;;;;
;;;;;;;;;;
;;;;;;;;;;
;;;;;;;;;;
;;;;;;;;;;
;;;;;;;;;;
;;;;;;;;;;
;;;;;;;;;;
;;;;;;;;;;
;;;;;;;;;;
;;;;;;;;;;
;;;;;;;;;;
;;;;;;;;;;
;;;;;;;;;;
;;;;;;;;;;
;;;;;;;;;;
;;;;;;;;;;
;;;;;;;;;;
;;;;;;;;;;
;;;;;;;;;;
;;;;;;;;;;
;;;;;;;;;;
;;;;;;;;;;
;;;;;;;;;;
;;;;;;;;;;
;;;;;;;;;;
;;;;;;;;;;
;;;;;;;;;;
;;;;;;;;;;
;;;;;;;;;;
;;;;;;;;;;
;;;;;;;;;;
;;;;;;;;;;
;;;;;;;;;;
;;;;;;;;;;
;;;;;;;;;;
;;;;;;;;;;
;;;;;;;;;;
;;;;;;;;;;
;;;;;;;;;;
;;;;;;;;;;
;;;;;;;;;;
;;;;;;;;;;
;;;;;;;;;;
;;;;;;;;;;
;;;;;;;;;;
;;;;;;;;;;
;;;;;;;;;;
;;;;;;;;;;
;;;;;;;;;;
;;;;;;;;;;
;;;;;;;;;;
;;;;;;;;;;
;;;;;;;;;;
;;;;;;;;;;
;;;;;;;;;;
;;;;;;;;;;
;;;;;;;;;;
