UID_EQUIP;CTO_NAME;MODELO;ARMARIO;ENDERECO;MUNICIPIO;LATITUDE;LONGITUDE;TIPO_CTO;SP;SS;NOME_OLT;NOME_PORTA_OLT
EQP0000000026322187;I01G0598;CTO - PAD TELEFONICA - B;SCGRB_G1I01;RUA SAO MIGUEL GAROPABA CENTRO 88495000 SC 221;GAROPABA;-28.029468500;-48.623202800;G0;SCGRB-I01SP75;SCGRB-I01SP75-SS5;BR-SCGRB01-OLT01-NK;1/1/5/11
EQP0000000026322187;I01G0598;CTO - PAD TELEFONICA - B;SCGRB_G1I01;RUA SAO MIGUEL GAROPABA CENTRO 88495000 SC 221;GAROPABA;-28.029468500;-48.623202800;G0;SCGRB-I01SP75;SCGRB-I01SP75-SS6;BR-SCGRB01-OLT01-NK;1/1/5/11
EQP0000000027036417;I01G0172;CTO - PAD TELEFONICA - B;SCGRB_G1I01;RUA PREFEITO JOAO ORESTES DE ARAUJO GAROPABA CENTRO 88495000 SC 1151;GAROPABA;-28.032217200;-48.622056000;G0;SCGRB-I01SP22;SCGRB-I01SP22-SS3;BR-SCGRB01-OLT01-NK;1/1/2/6
EQP0000000027036417;I01G0172;CTO - PAD TELEFONICA - B;SCGRB_G1I01;RUA PREFEITO JOAO ORESTES DE ARAUJO GAROPABA CENTRO 88495000 SC 1151;GAROPABA;-28.032217200;-48.622056000;G0;SCGRB-I01SP22;SCGRB-I01SP22-SS4;BR-SCGRB01-OLT01-NK;1/1/2/6
EQP0000000027401834;I01G0684;CTO - PAD TELEFONICA - B;SCGRB_G1I01;RUA PREFEITO JOAO ORESTES DE ARAUJO GAROPABA CENTRO 88495000 SC 549;GAROPABA;-28.027591900;-48.620550300;G0;SCGRB-I01SP86;SCGRB-I01SP86-SS3;BR-SCGRB01-OLT01-NK;1/1/6/6
EQP0000000027401834;I01G0684;CTO - PAD TELEFONICA - B;SCGRB_G1I01;RUA PREFEITO JOAO ORESTES DE ARAUJO GAROPABA CENTRO 88495000 SC 549;GAROPABA;-28.027591900;-48.620550300;G0;SCGRB-I01SP86;SCGRB-I01SP86-SS4;BR-SCGRB01-OLT01-NK;1/1/6/6
EQP0000000027411445;I01G0702;CTO - PAD TELEFONICA - B;SCGRB_G1I01;RODOVIA JOVINO PIUCCO GAROPABA AREIAS MACACU 88495000 SC 322;GAROPABA;-28.027774000;-48.623336300;G0;SCGRB-I01SP88;SCGRB-I01SP88-SS5;BR-SCGRB01-OLT01-NK;1/1/6/8
EQP0000000027411445;I01G0702;CTO - PAD TELEFONICA - B;SCGRB_G1I01;RODOVIA JOVINO PIUCCO GAROPABA AREIAS MACACU 88495000 SC 322;GAROPABA;-28.027774000;-48.623336300;G0;SCGRB-I01SP88;SCGRB-I01SP88-SS6;BR-SCGRB01-OLT01-NK;1/1/6/8
EQP0000000027375309;I01G0666;CTO - PAD TELEFONICA - B;SCGRB_G1I01;RUA CEZAR GAZOLA LOPES GAROPABA CENTRO 88495000 SC 55;GAROPABA;-28.023527600;-48.619772700;G0;SCGRB-I01SP84;SCGRB-I01SP84-SS1;BR-SCGRB01-OLT01-NK;1/1/6/4
EQP0000000027375309;I01G0666;CTO - PAD TELEFONICA - B;SCGRB_G1I01;RUA CEZAR GAZOLA LOPES GAROPABA CENTRO 88495000 SC 55;GAROPABA;-28.023527600;-48.619772700;G0;SCGRB-I01SP84;SCGRB-I01SP84-SS2;BR-SCGRB01-OLT01-NK;1/1/6/4
EQP0000000026706398;I01G0390;CTO - PAD TELEFONICA - B;SCGRB_G1I01;AVENIDA BATISTA PACHECO PEREIRA GAROPABA CENTRO 88495000 SC 409;GAROPABA;-28.030194200;-48.617144500;G0;SCGRB-I01SP49;SCGRB-I01SP49-SS5;BR-SCGRB01-OLT01-NK;1/1/4/1
EQP0000000026706398;I01G0390;CTO - PAD TELEFONICA - B;SCGRB_G1I01;AVENIDA BATISTA PACHECO PEREIRA GAROPABA CENTRO 88495000 SC 409;GAROPABA;-28.030194200;-48.617144500;G0;SCGRB-I01SP49;SCGRB-I01SP49-SS6;BR-SCGRB01-OLT01-NK;1/1/4/1
EQP0000000027382943;I01G0676;CTO - PAD TELEFONICA - B;SCGRB_G1I01;RUA FRANCISCO PACHECO DE SOUZA GAROPABA CENTRO 88495000 SC 595;GAROPABA;-28.026037100;-48.625639600;G0;SCGRB-I01SP85;SCGRB-I01SP85-SS3;BR-SCGRB01-OLT01-NK;1/1/6/5
EQP0000000027382943;I01G0676;CTO - PAD TELEFONICA - B;SCGRB_G1I01;RUA FRANCISCO PACHECO DE SOUZA GAROPABA CENTRO 88495000 SC 595;GAROPABA;-28.026037100;-48.625639600;G0;SCGRB-I01SP85;SCGRB-I01SP85-SS4;BR-SCGRB01-OLT01-NK;1/1/6/5
EQP0000000027428784;I01G0714;CTO - PAD TELEFONICA - B;SCGRB_G1I01;RUA ANANIAS GUSTAVO NASCIMENTO (CENTRO) GAROPABA CENTRO 88495000 SC 488;GAROPABA;-28.027217100;-48.623151200;G0;SCGRB-I01SP90;SCGRB-I01SP90-SS1;BR-SCGRB01-OLT01-NK;1/1/6/10
EQP0000000027428784;I01G0714;CTO - PAD TELEFONICA - B;SCGRB_G1I01;RUA ANANIAS GUSTAVO NASCIMENTO (CENTRO) GAROPABA CENTRO 88495000 SC 488;GAROPABA;-28.027217100;-48.623151200;G0;SCGRB-I01SP90;SCGRB-I01SP90-SS2;BR-SCGRB01-OLT01-NK;1/1/6/10
EQP0000000019593352;I01G0368;CTO - PAD TEL-B-70/30;SCGRB_G1I01;RUA JOSE CUSTODIO PEREIRA GAROPABA CENTRO 88495000 SC 271;GAROPABA;-28.031743900;-48.617643600;G0;SCGRB-I01SP46;SCGRB-I01SP46-SS7;BR-SCGRB01-OLT01-NK;1/1/3/14
EQP0000000019593352;I01G0368;CTO - PAD TEL-B-70/30;SCGRB_G1I01;RUA JOSE CUSTODIO PEREIRA GAROPABA CENTRO 88495000 SC 271;GAROPABA;-28.031743900;-48.617643600;G0;SCGRB-I01SP46;SCGRB-I01SP46-SS8;BR-SCGRB01-OLT01-NK;1/1/3/14
EQP0000000027264973;I01G0644;CTO - PAD TELEFONICA - B;SCGRB_G1I01;AVENIDA DOS PESCADORES GAROPABA CENTRO 88495000 SC 51;GAROPABA;-28.023584000;-48.617487400;G0;SCGRB-I01SP81;SCGRB-I01SP81-SS3;BR-SCGRB01-OLT01-NK;1/1/6/1
EQP0000000027264973;I01G0644;CTO - PAD TELEFONICA - B;SCGRB_G1I01;AVENIDA DOS PESCADORES GAROPABA CENTRO 88495000 SC 51;GAROPABA;-28.023584000;-48.617487400;G0;SCGRB-I01SP81;SCGRB-I01SP81-SS4;BR-SCGRB01-OLT01-NK;1/1/6/1
EQP0000000027426738;I01G0716;CTO - PAD TELEFONICA - B;SCGRB_G1I01;RUA ANANIAS GUSTAVO NASCIMENTO (CENTRO) GAROPABA CENTRO 88495000 SC 488;GAROPABA;-28.026868800;-48.625586300;G0;SCGRB-I01SP90;SCGRB-I01SP90-SS3;BR-SCGRB01-OLT01-NK;1/1/6/10
EQP0000000027426738;I01G0716;CTO - PAD TELEFONICA - B;SCGRB_G1I01;RUA ANANIAS GUSTAVO NASCIMENTO (CENTRO) GAROPABA CENTRO 88495000 SC 488;GAROPABA;-28.026868800;-48.625586300;G0;SCGRB-I01SP90;SCGRB-I01SP90-SS4;BR-SCGRB01-OLT01-NK;1/1/6/10
EQP0000000027385399;I01G0688;CTO - PAD TELEFONICA - B;SCGRB_G1I01;RUA FRANCISCO PACHECO DE SOUZA GAROPABA CENTRO 88495000 SC 205;GAROPABA;-28.026598100;-48.621593400;G0;SCGRB-I01SP86;SCGRB-I01SP86-SS7;BR-SCGRB01-OLT01-NK;1/1/6/6
EQP0000000027385399;I01G0688;CTO - PAD TELEFONICA - B;SCGRB_G1I01;RUA FRANCISCO PACHECO DE SOUZA GAROPABA CENTRO 88495000 SC 205;GAROPABA;-28.026598100;-48.621593400;G0;SCGRB-I01SP86;SCGRB-I01SP86-SS8;BR-SCGRB01-OLT01-NK;1/1/6/6
EQP0000000019814470;I01G0626;CTO - PAD TELEFONICA - B;SCGRB_G1I01;TRAVESSA CONEGO CESAR ROSSI GAROPABA CENTRO 88495000 SC 54;GAROPABA;-28.024010600;-48.614271600;G0;SCGRB-I01SP79;SCGRB-I01SP79-SS1;BR-SCGRB01-OLT01-NK;1/1/5/15
EQP0000000019814470;I01G0626;CTO - PAD TELEFONICA - B;SCGRB_G1I01;TRAVESSA CONEGO CESAR ROSSI GAROPABA CENTRO 88495000 SC 54;GAROPABA;-28.024010600;-48.614271600;G0;SCGRB-I01SP79;SCGRB-I01SP79-SS2;BR-SCGRB01-OLT01-NK;1/1/5/15
EQP0000000027088421;I01G0182;CTO - PAD TELEFONICA - B;SCGRB_G1I01;RUA BOM JESUS GAROPABA CENTRO 88495000 SC 345;GAROPABA;-28.033711500;-48.626495300;G0;SCGRB-I01SP23;SCGRB-I01SP23-SS5;BR-SCGRB01-OLT01-NK;1/1/2/7
EQP0000000027088421;I01G0182;CTO - PAD TELEFONICA - B;SCGRB_G1I01;RUA BOM JESUS GAROPABA CENTRO 88495000 SC 345;GAROPABA;-28.033711500;-48.626495300;G0;SCGRB-I01SP23;SCGRB-I01SP23-SS6;BR-SCGRB01-OLT01-NK;1/1/2/7
EQP0000000027095155;I01G0190;CTO - PAD TELEFONICA - B;SCGRB_G1I01;RUA VICE PREFEITO JOAO NICOMEU ESLENTES GAROPABA PINGUIRITO 88495000 SC 1190;GAROPABA;-28.033613000;-48.625383100;G0;SCGRB-I01SP24;SCGRB-I01SP24-SS5;BR-SCGRB01-OLT01-NK;1/1/2/8
EQP0000000027095155;I01G0190;CTO - PAD TELEFONICA - B;SCGRB_G1I01;RUA VICE PREFEITO JOAO NICOMEU ESLENTES GAROPABA PINGUIRITO 88495000 SC 1190;GAROPABA;-28.033613000;-48.625383100;G0;SCGRB-I01SP24;SCGRB-I01SP24-SS6;BR-SCGRB01-OLT01-NK;1/1/2/8
EQP0000000008390747;I01G0097;CTO SPLITTER 1 8;SCGRB_G1I01;RUA OLAVIO PACHECO DE SOUZA GAROPABA AREIAS DE PALHOCINHA 88495000 SC SN;GAROPABA;-28.044498800;-48.637438300;G0;SCGRB-I01SP13;SCGRB-I01SP13-SS1;BR-SCGRB01-OLT01-NK;1/1/1/13
EQP0000000027366387;I01G0652;CTO - PAD TELEFONICA - B;SCGRB_G1I01;RUA LAURO MULLER GAROPABA CENTRO 88495000 SC 87_CS2;GAROPABA;-28.023194500;-48.618954900;G0;SCGRB-I01SP82;SCGRB-I01SP82-SS3;BR-SCGRB01-OLT01-NK;1/1/6/2
EQP0000000027366387;I01G0652;CTO - PAD TELEFONICA - B;SCGRB_G1I01;RUA LAURO MULLER GAROPABA CENTRO 88495000 SC 87_CS2;GAROPABA;-28.023194500;-48.618954900;G0;SCGRB-I01SP82;SCGRB-I01SP82-SS4;BR-SCGRB01-OLT01-NK;1/1/6/2
EQP0000000019598924;I01G0362;CTO - PAD TELEFONICA - B;SCGRB_G1I01;RUA JOAQUINA ABREU ARAUJO GAROPABA CENTRO 88495000 SC 57;GAROPABA;-28.031277000;-48.614821700;G0;SCGRB-I01SP46;SCGRB-I01SP46-SS1;BR-SCGRB01-OLT01-NK;1/1/3/14
EQP0000000019598924;I01G0362;CTO - PAD TELEFONICA - B;SCGRB_G1I01;RUA JOAQUINA ABREU ARAUJO GAROPABA CENTRO 88495000 SC 57;GAROPABA;-28.031277000;-48.614821700;G0;SCGRB-I01SP46;SCGRB-I01SP46-SS2;BR-SCGRB01-OLT01-NK;1/1/3/14
EQP0000000019596147;I01G0366;CTO - PAD TEL-B-70/30;SCGRB_G1I01;RUA BERNARDINO MANOEL RODRIGUES GAROPABA CENTRO 88495000 SC 693;GAROPABA;-28.032732800;-48.616680600;G0;SCGRB-I01SP46;SCGRB-I01SP46-SS5;BR-SCGRB01-OLT01-NK;1/1/3/14
EQP0000000019596147;I01G0366;CTO - PAD TEL-B-70/30;SCGRB_G1I01;RUA BERNARDINO MANOEL RODRIGUES GAROPABA CENTRO 88495000 SC 693;GAROPABA;-28.032732800;-48.616680600;G0;SCGRB-I01SP46;SCGRB-I01SP46-SS6;BR-SCGRB01-OLT01-NK;1/1/3/14
EQP0000000019598160;I01G0364;CTO - PAD TEL-B-60/40;SCGRB_G1I01;RUA JOAQUINA ABREU ARAUJO GAROPABA CENTRO 88495000 SC 201;GAROPABA;-28.032414500;-48.615658700;G0;SCGRB-I01SP46;SCGRB-I01SP46-SS3;BR-SCGRB01-OLT01-NK;1/1/3/14
EQP0000000019598160;I01G0364;CTO - PAD TEL-B-60/40;SCGRB_G1I01;RUA JOAQUINA ABREU ARAUJO GAROPABA CENTRO 88495000 SC 201;GAROPABA;-28.032414500;-48.615658700;G0;SCGRB-I01SP46;SCGRB-I01SP46-SS4;BR-SCGRB01-OLT01-NK;1/1/3/14
EQP0000000019813222;I01G0630;CTO - PAD TEL-B-70/30;SCGRB_G1I01;RUA ADERBAL RAMOS DA SILVA GAROPABA CENTRO 88495000 SC 80;GAROPABA;-28.024608500;-48.615764200;G0;SCGRB-I01SP79;SCGRB-I01SP79-SS5;BR-SCGRB01-OLT01-NK;1/1/5/15
EQP0000000019813222;I01G0630;CTO - PAD TEL-B-70/30;SCGRB_G1I01;RUA ADERBAL RAMOS DA SILVA GAROPABA CENTRO 88495000 SC 80;GAROPABA;-28.024608500;-48.615764200;G0;SCGRB-I01SP79;SCGRB-I01SP79-SS6;BR-SCGRB01-OLT01-NK;1/1/5/15
EQP0000000027358933;I01G0654;CTO - PAD TELEFONICA - B;SCGRB_G1I01;RUA LAURO MULLER GAROPABA CENTRO 88495000 SC 160;GAROPABA;-28.024166100;-48.619127900;G0;SCGRB-I01SP82;SCGRB-I01SP82-SS5;BR-SCGRB01-OLT01-NK;1/1/6/2
EQP0000000027358933;I01G0654;CTO - PAD TELEFONICA - B;SCGRB_G1I01;RUA LAURO MULLER GAROPABA CENTRO 88495000 SC 160;GAROPABA;-28.024166100;-48.619127900;G0;SCGRB-I01SP82;SCGRB-I01SP82-SS6;BR-SCGRB01-OLT01-NK;1/1/6/2
EQP0000000027383980;I01G0674;CTO - PAD TELEFONICA - B;SCGRB_G1I01;RUA ROZALINA DE AGUIAR LENTZ GAROPABA CENTRO 88495000 SC 420_CS1;GAROPABA;-28.024726000;-48.625629400;G0;SCGRB-I01SP85;SCGRB-I01SP85-SS1;BR-SCGRB01-OLT01-NK;1/1/6/5
EQP0000000027383980;I01G0674;CTO - PAD TELEFONICA - B;SCGRB_G1I01;RUA ROZALINA DE AGUIAR LENTZ GAROPABA CENTRO 88495000 SC 420_CS1;GAROPABA;-28.024726000;-48.625629400;G0;SCGRB-I01SP85;SCGRB-I01SP85-SS2;BR-SCGRB01-OLT01-NK;1/1/6/5
EQP0000000027368751;I01G0672;CTO - PAD TELEFONICA - B;SCGRB_G1I01;RUA TRINTA DE DEZEMBRO GAROPABA CENTRO 88495000 SC 152;GAROPABA;-28.025757600;-48.620974200;G0;SCGRB-I01SP84;SCGRB-I01SP84-SS7;BR-SCGRB01-OLT01-NK;1/1/6/4
EQP0000000027368751;I01G0672;CTO - PAD TELEFONICA - B;SCGRB_G1I01;RUA TRINTA DE DEZEMBRO GAROPABA CENTRO 88495000 SC 152;GAROPABA;-28.025757600;-48.620974200;G0;SCGRB-I01SP84;SCGRB-I01SP84-SS8;BR-SCGRB01-OLT01-NK;1/1/6/4
EQP0000000027097031;I01G0186;CTO - PAD TELEFONICA - B;SCGRB_G1I01;RUA PROJETADA GAROPABA CENTRO 88495000 SC 64;GAROPABA;-28.034776800;-48.626796900;G0;SCGRB-I01SP24;SCGRB-I01SP24-SS1;BR-SCGRB01-OLT01-NK;1/1/2/8
EQP0000000027097031;I01G0186;CTO - PAD TELEFONICA - B;SCGRB_G1I01;RUA PROJETADA GAROPABA CENTRO 88495000 SC 64;GAROPABA;-28.034776800;-48.626796900;G0;SCGRB-I01SP24;SCGRB-I01SP24-SS2;BR-SCGRB01-OLT01-NK;1/1/2/8
EQP0000000026706769;I01G0388;CTO - PAD TELEFONICA - B;SCGRB_G1I01;RUA ISMAEL LOBO GAROPABA CENTRO 88495000 SC 207;GAROPABA;-28.029424200;-48.617378900;G0;SCGRB-I01SP49;SCGRB-I01SP49-SS3;BR-SCGRB01-OLT01-NK;1/1/4/1
EQP0000000026706769;I01G0388;CTO - PAD TELEFONICA - B;SCGRB_G1I01;RUA ISMAEL LOBO GAROPABA CENTRO 88495000 SC 207;GAROPABA;-28.029424200;-48.617378900;G0;SCGRB-I01SP49;SCGRB-I01SP49-SS4;BR-SCGRB01-OLT01-NK;1/1/4/1
EQP0000000027373457;I01G0668;CTO - PAD TELEFONICA - B;SCGRB_G1I01;RUA CEZAR GAZOLA LOPES GAROPABA CENTRO 88495000 SC 121;GAROPABA;-28.023334500;-48.621091300;G0;SCGRB-I01SP84;SCGRB-I01SP84-SS3;BR-SCGRB01-OLT01-NK;1/1/6/4
EQP0000000027373457;I01G0668;CTO - PAD TELEFONICA - B;SCGRB_G1I01;RUA CEZAR GAZOLA LOPES GAROPABA CENTRO 88495000 SC 121;GAROPABA;-28.023334500;-48.621091300;G0;SCGRB-I01SP84;SCGRB-I01SP84-SS4;BR-SCGRB01-OLT01-NK;1/1/6/4
EQP0000000027098378;I01G0176;CTO - PAD TELEFONICA - B;SCGRB_G1I01;RUA PREFEITO JOAO ORESTES DE ARAUJO GAROPABA CENTRO 88495000 SC 804;GAROPABA;-28.031828700;-48.621989400;G0;SCGRB-I01SP22;SCGRB-I01SP22-SS7;BR-SCGRB01-OLT01-NK;1/1/2/6
EQP0000000027098378;I01G0176;CTO - PAD TELEFONICA - B;SCGRB_G1I01;RUA PREFEITO JOAO ORESTES DE ARAUJO GAROPABA CENTRO 88495000 SC 804;GAROPABA;-28.031828700;-48.621989400;G0;SCGRB-I01SP22;SCGRB-I01SP22-SS8;BR-SCGRB01-OLT01-NK;1/1/2/6
EQP0000000027371267;I01G0670;CTO - PAD TELEFONICA - B;SCGRB_G1I01;RUA NEREU RAMOS GAROPABA CENTRO 88495000 SC 25;GAROPABA;-28.024918900;-48.621654800;G0;SCGRB-I01SP84;SCGRB-I01SP84-SS5;BR-SCGRB01-OLT01-NK;1/1/6/4
EQP0000000027371267;I01G0670;CTO - PAD TELEFONICA - B;SCGRB_G1I01;RUA NEREU RAMOS GAROPABA CENTRO 88495000 SC 25;GAROPABA;-28.024918900;-48.621654800;G0;SCGRB-I01SP84;SCGRB-I01SP84-SS6;BR-SCGRB01-OLT01-NK;1/1/6/4
EQP0000000026389535;I01G0596;CTO - PAD TELEFONICA - B;SCGRB_G1I01;RUA PREFEITO JOAO ORESTES DE ARAUJO GAROPABA CENTRO 88495000 SC 260;GAROPABA;-28.030369200;-48.621330400;G0;SCGRB-I01SP75;SCGRB-I01SP75-SS3;BR-SCGRB01-OLT01-NK;1/1/5/11
EQP0000000026389535;I01G0596;CTO - PAD TELEFONICA - B;SCGRB_G1I01;RUA PREFEITO JOAO ORESTES DE ARAUJO GAROPABA CENTRO 88495000 SC 260;GAROPABA;-28.030369200;-48.621330400;G0;SCGRB-I01SP75;SCGRB-I01SP75-SS4;BR-SCGRB01-OLT01-NK;1/1/5/11
EQP0000000027096147;I01G0188;CTO - PAD TELEFONICA - B;SCGRB_G1I01;RUA VICE PREFEITO JOAO NICOMEU ESLENTES GAROPABA PINGUIRITO 88495000 SC 45;GAROPABA;-28.034552300;-48.625512500;G0;SCGRB-I01SP24;SCGRB-I01SP24-SS3;BR-SCGRB01-OLT01-NK;1/1/2/8
EQP0000000027096147;I01G0188;CTO - PAD TELEFONICA - B;SCGRB_G1I01;RUA VICE PREFEITO JOAO NICOMEU ESLENTES GAROPABA PINGUIRITO 88495000 SC 45;GAROPABA;-28.034552300;-48.625512500;G0;SCGRB-I01SP24;SCGRB-I01SP24-SS4;BR-SCGRB01-OLT01-NK;1/1/2/8
EQP0000000026692918;I01G0372;CTO - PAD TELEFONICA - B;SCGRB_G1I01;RUA BERNARDINO MANOEL RODRIGUES GAROPABA CENTRO 88495000 SC 88;GAROPABA;-28.030264400;-48.614868800;G0;SCGRB-I01SP47;SCGRB-I01SP47-SS3;BR-SCGRB01-OLT01-NK;1/1/3/15
EQP0000000026692918;I01G0372;CTO - PAD TELEFONICA - B;SCGRB_G1I01;RUA BERNARDINO MANOEL RODRIGUES GAROPABA CENTRO 88495000 SC 88;GAROPABA;-28.030264400;-48.614868800;G0;SCGRB-I01SP47;SCGRB-I01SP47-SS4;BR-SCGRB01-OLT01-NK;1/1/3/15
EQP0000000027228187;I01G0648;CTO - PAD TELEFONICA - B;SCGRB_G1I01;RUA NEREU RAMOS GAROPABA CENTRO 88495000 SC 275;GAROPABA;-28.025302600;-48.618950000;G0;SCGRB-I01SP81;SCGRB-I01SP81-SS7;BR-SCGRB01-OLT01-NK;1/1/6/1
EQP0000000027228187;I01G0648;CTO - PAD TELEFONICA - B;SCGRB_G1I01;RUA NEREU RAMOS GAROPABA CENTRO 88495000 SC 275;GAROPABA;-28.025302600;-48.618950000;G0;SCGRB-I01SP81;SCGRB-I01SP81-SS8;BR-SCGRB01-OLT01-NK;1/1/6/1
EQP0000000026222644;I01G0600;CTO - PAD TELEFONICA - B;SCGRB_G1I01;RUA SAO MIGUEL GAROPABA CENTRO 88495000 SC 401;GAROPABA;-28.029221100;-48.625030900;G0;SCGRB-I01SP75;SCGRB-I01SP75-SS7;BR-SCGRB01-OLT01-NK;1/1/5/11
EQP0000000026222644;I01G0600;CTO - PAD TELEFONICA - B;SCGRB_G1I01;RUA SAO MIGUEL GAROPABA CENTRO 88495000 SC 401;GAROPABA;-28.029221100;-48.625030900;G0;SCGRB-I01SP75;SCGRB-I01SP75-SS8;BR-SCGRB01-OLT01-NK;1/1/5/11
EQP0000000027087185;I01G0184;CTO - PAD TELEFONICA - B;SCGRB_G1I01;RUA PINGUIRITO GAROPABA CENTRO 88495000 SC 371;GAROPABA;-28.033175900;-48.626498900;G0;SCGRB-I01SP23;SCGRB-I01SP23-SS7;BR-SCGRB01-OLT01-NK;1/1/2/7
EQP0000000027087185;I01G0184;CTO - PAD TELEFONICA - B;SCGRB_G1I01;RUA PINGUIRITO GAROPABA CENTRO 88495000 SC 371;GAROPABA;-28.033175900;-48.626498900;G0;SCGRB-I01SP23;SCGRB-I01SP23-SS8;BR-SCGRB01-OLT01-NK;1/1/2/7
EQP0000000026705753;I01G0392;CTO - PAD TELEFONICA - B;SCGRB_G1I01;AVENIDA BATISTA PACHECO PEREIRA GAROPABA CENTRO 88495000 SC 505;GAROPABA;-28.031515200;-48.618102500;G0;SCGRB-I01SP49;SCGRB-I01SP49-SS7;BR-SCGRB01-OLT01-NK;1/1/4/1
EQP0000000026705753;I01G0392;CTO - PAD TELEFONICA - B;SCGRB_G1I01;AVENIDA BATISTA PACHECO PEREIRA GAROPABA CENTRO 88495000 SC 505;GAROPABA;-28.031515200;-48.618102500;G0;SCGRB-I01SP49;SCGRB-I01SP49-SS8;BR-SCGRB01-OLT01-NK;1/1/4/1
EQP0000000027093755;I01G0192;CTO - PAD TELEFONICA - B;SCGRB_G1I01;RUA PINGUIRITO GAROPABA CENTRO 88495000 SC 96;GAROPABA;-28.033544800;-48.623894400;G0;SCGRB-I01SP24;SCGRB-I01SP24-SS7;BR-SCGRB01-OLT01-NK;1/1/2/8
EQP0000000027093755;I01G0192;CTO - PAD TELEFONICA - B;SCGRB_G1I01;RUA PINGUIRITO GAROPABA CENTRO 88495000 SC 96;GAROPABA;-28.033544800;-48.623894400;G0;SCGRB-I01SP24;SCGRB-I01SP24-SS8;BR-SCGRB01-OLT01-NK;1/1/2/8
EQP0000000026430203;I01G0594;CTO - PAD TELEFONICA - B;SCGRB_G1I01;RUA PREFEITO JOAO ORESTES DE ARAUJO GAROPABA CENTRO 88495000 SC 727;GAROPABA;-28.029228500;-48.620845500;G0;SCGRB-I01SP75;SCGRB-I01SP75-SS1;BR-SCGRB01-OLT01-NK;1/1/5/11
EQP0000000026430203;I01G0594;CTO - PAD TELEFONICA - B;SCGRB_G1I01;RUA PREFEITO JOAO ORESTES DE ARAUJO GAROPABA CENTRO 88495000 SC 727;GAROPABA;-28.029228500;-48.620845500;G0;SCGRB-I01SP75;SCGRB-I01SP75-SS2;BR-SCGRB01-OLT01-NK;1/1/5/11
EQP0000000026693561;I01G0370;CTO - PAD TELEFONICA - B;SCGRB_G1I01;RUA BERNARDINO MANOEL RODRIGUES GAROPABA CENTRO 88495000 SC 144;GAROPABA;-28.028058700;-48.614040300;G0;SCGRB-I01SP47;SCGRB-I01SP47-SS1;BR-SCGRB01-OLT01-NK;1/1/3/15
EQP0000000026693561;I01G0370;CTO - PAD TELEFONICA - B;SCGRB_G1I01;RUA BERNARDINO MANOEL RODRIGUES GAROPABA CENTRO 88495000 SC 144;GAROPABA;-28.028058700;-48.614040300;G0;SCGRB-I01SP47;SCGRB-I01SP47-SS2;BR-SCGRB01-OLT01-NK;1/1/3/15
EQP0000000027403456;I01G0682;CTO - PAD TELEFONICA - B;SCGRB_G1I01;RUA FRANCISCO PACHECO DE SOUZA GAROPABA CENTRO 88495000 SC 78;GAROPABA;-28.026949400;-48.618984000;G0;SCGRB-I01SP86;SCGRB-I01SP86-SS1;BR-SCGRB01-OLT01-NK;1/1/6/6
EQP0000000027403456;I01G0682;CTO - PAD TELEFONICA - B;SCGRB_G1I01;RUA FRANCISCO PACHECO DE SOUZA GAROPABA CENTRO 88495000 SC 78;GAROPABA;-28.026949400;-48.618984000;G0;SCGRB-I01SP86;SCGRB-I01SP86-SS2;BR-SCGRB01-OLT01-NK;1/1/6/6
EQP0000000008351667;I01G0205;CTO SPLITTER 1 8;SCGRB_G1I01;RUA LAJEADO GAROPABA CENTRO 88495000 SC 109;GAROPABA;-28.033114700;-48.623894600;G0;SCGRB-I01SP26;SCGRB-I01SP26-SS5;BR-SCGRB01-OLT01-NK;1/1/2/10
EQP0000000008636669;I01G0067;CTO SPLITTER 1 8;SCGRB_G1I01;RUA SOL POENTE GAROPABA CENTRO 88495000 SC 172;GAROPABA;-28.050061100;-48.646486300;G0;SCGRB-I01SP9;SCGRB-I01SP9-SS3;BR-SCGRB01-OLT01-NK;1/1/1/9
EQP0000000008136179;I01G0032;CTO SPLITTER 1 8;SCGRB_G1I01;RUA HILARIO FERNANDES PACHECO GAROPABA CENTRO 88495000 SC 155;GAROPABA;-28.051585700;-48.644950400;G0;SCGRB-I01SP4;SCGRB-I01SP4-SS8;BR-SCGRB01-OLT01-NK;1/1/1/4
EQP0000000008099803;I01G0418;CTO SPLITTER 1 8;SCGRB_G1I01;RUA PREFEITO JOAO ORESTES DE ARAUJO GAROPABA CENTRO 88495000 SC 641;GAROPABA;-28.028195400;-48.620446700;G0;SCGRB-I01SP53;SCGRB-I01SP53-SS2;BR-SCGRB01-OLT01-NK;1/1/4/5
EQP0000000008716982;I01G0245;CTO SPLITTER 1 8;SCGRB_G1I01;RUA DO TRAVESSAO GAROPABA AMBROSIO 88495000 SC 221;GAROPABA;-28.033111600;-48.638780400;G0;SCGRB-I01SP31;SCGRB-I01SP31-SS5;BR-SCGRB01-OLT01-NK;1/1/2/15
EQP0000000008285996;I01G0712;CTO SPLITTER 1 8;SCGRB_G1I01;RUA ISMAEL LOBO GAROPABA CENTRO 88495000 SC 318;GAROPABA;-28.028475200;-48.624052000;G0;SCGRB-I01SP89;SCGRB-I01SP89-SS8;BR-SCGRB01-OLT01-NK;1/1/6/9
EQP0000000008298312;I01G0020;CTO SPLITTER 1 8;SCGRB_G1I01;RUA RAUL PEREIRA GAROPABA CENTRO 88495000 SC 121;GAROPABA;-28.053833400;-48.650161500;G0;SCGRB-I01SP3;SCGRB-I01SP3-SS4;BR-SCGRB01-OLT01-NK;1/1/1/3
EQP0000000014741511;I01G0299;CTO SPLITTER 1 8;SCGRB_G1I01;RUA WILLIAM GONCALVES BATISTA GAROPABA CENTRO 88495000 SC SN;GAROPABA;-28.023972700;-48.639955300;G0;SCGRB-I01SP38;SCGRB-I01SP38-SS3;BR-SCGRB01-OLT01-NK;1/1/3/6
EQP0000000008567562;I01G0085;CTO SPLITTER 1 8;SCGRB_G1I01;RODOVIA SC 434 GAROPABA CENTRO 88495000 SC 4120;GAROPABA;-28.048791400;-48.639762200;G0;SCGRB-I01SP11;SCGRB-I01SP11-SS5;BR-SCGRB01-OLT01-NK;1/1/1/11
EQP0000000014723464;I01G0296;CTO SPLITTER 1 8;SCGRB_G1I01;RUA MARIO DA JABICA GAROPABA CENTRO 88495000 SC 220;GAROPABA;-28.026174500;-48.638463000;G0;SCGRB-I01SP37;SCGRB-I01SP37-SS8;BR-SCGRB01-OLT01-NK;1/1/3/5
EQP0000000008770378;I01G0166;CTO SPLITTER 1 8;SCGRB_G1I01;RUA DONA ESTELINA GAROPABA CENTRO 88495000 SC 31;GAROPABA;-28.034144500;-48.622542300;G0;SCGRB-I01SP21;SCGRB-I01SP21-SS6;BR-SCGRB01-OLT01-NK;1/1/2/5
EQP0000000008348629;I01G0334;CTO SPLITTER 1 8;SCGRB_G1I01;RODOVIA DOS ACORES GAROPABA AMBROSIO DE DENTRO 88495000 SC 607;GAROPABA;-28.029524700;-48.634105800;G0;SCGRB-I01SP42;SCGRB-I01SP42-SS6;BR-SCGRB01-OLT01-NK;1/1/3/10
EQP0000000008352858;I01G0222;CTO SPLITTER 1 8;SCGRB_G1I01;RUA RIO GRANDE DO SUL GAROPABA CENTRO 88495000 SC 455;GAROPABA;-28.032168900;-48.627356500;G0;SCGRB-I01SP28;SCGRB-I01SP28-SS6;BR-SCGRB01-OLT01-NK;1/1/2/12
EQP0000000008514912;I01G0564;CTO SPLITTER 1 8;SCGRB_G1I01;RODOVIA JOVINO PIUCCO GAROPABA AREIAS MACACU 88495000 SC 976;GAROPABA;-28.025280700;-48.627428600;G0;SCGRB-I01SP71;SCGRB-I01SP71-SS4;BR-SCGRB01-OLT01-NK;1/1/5/7
EQP0000000008669019;I01G0575;CTO SPLITTER 1 8;SCGRB_G1I01;RUA NERI INACIO DA SILVA GAROPABA CENTRO 88495000 SC 852;GAROPABA;-28.026116300;-48.629682900;G0;SCGRB-I01SP72;SCGRB-I01SP72-SS7;BR-SCGRB01-OLT01-NK;1/1/5/8
EQP0000000008780272;I01G0060;CTO SPLITTER 1 8;SCGRB_G1I01;RUA IVO JOAQUIM CARDOSO GAROPABA CENTRO 88495000 SC 203;GAROPABA;-28.045779400;-48.646597200;G0;SCGRB-I01SP8;SCGRB-I01SP8-SS4;BR-SCGRB01-OLT01-NK;1/1/1/8
EQP0000000008127373;I01G0011;CTO SPLITTER 1 8;SCGRB_G1I01;RUA MANOEL FRANCISCO PEREIRA GAROPABA CENTRO 88495000 SC 184;GAROPABA;-28.051848000;-48.650760600;G0;SCGRB-I01SP2;SCGRB-I01SP2-SS3;BR-SCGRB01-OLT01-NK;1/1/1/2
EQP0000000008097038;I01G0423;CTO SPLITTER 1 8;SCGRB_G1I01;RUA SANTA RITA GAROPABA CENTRO 88495000 SC 200;GAROPABA;-28.029391000;-48.619574500;G0;SCGRB-I01SP53;SCGRB-I01SP53-SS7;BR-SCGRB01-OLT01-NK;1/1/4/5
EQP0000000008352099;I01G0215;CTO SPLITTER 1 8;SCGRB_G1I01;RUA JOSINA AMELIA DA SILVEIRA GAROPABA CENTRO 88495000 SC 245;GAROPABA;-28.031690000;-48.624453400;G0;SCGRB-I01SP27;SCGRB-I01SP27-SS7;BR-SCGRB01-OLT01-NK;1/1/2/11
EQP0000000008295267;I01G0021;CTO SPLITTER 1 8;SCGRB_G1I01;RUA VINTE E CINCO DE DEZEMBRO GAROPABA CENTRO 88495000 SC 145;GAROPABA;-28.052593400;-48.649257600;G0;SCGRB-I01SP3;SCGRB-I01SP3-SS5;BR-SCGRB01-OLT01-NK;1/1/1/3
EQP0000000008717260;I01G0242;CTO SPLITTER 1 8;SCGRB_G1I01;RUA INACIA MARIA DE ABREU GAROPABA CENTRO 88495000 SC 142;GAROPABA;-28.031438100;-48.640136800;G0;SCGRB-I01SP31;SCGRB-I01SP31-SS2;BR-SCGRB01-OLT01-NK;1/1/2/15
EQP0000000008738074;I01G0253;CTO SPLITTER 1 8;SCGRB_G1I01;RUA BRAULIO ARAUJO DA SILVA GAROPABA CENTRO 88495000 SC 110;GAROPABA;-28.035696000;-48.640657500;G0;SCGRB-I01SP32;SCGRB-I01SP32-SS5;BR-SCGRB01-OLT01-NK;1/1/2/16
EQP0000000008295379;I01G0022;CTO SPLITTER 1 8;SCGRB_G1I01;RUA VINTE E CINCO DE DEZEMBRO GAROPABA CENTRO 88495000 SC SN;GAROPABA;-28.053061500;-48.647942200;G0;SCGRB-I01SP3;SCGRB-I01SP3-SS6;BR-SCGRB01-OLT01-NK;1/1/1/3
EQP0000000038487775;I01GP393;MINI CDOE 1:2 + 1:8 PRECON SELADA 70/30;SCGRB_G1I01;RUA MARQUES GUIMARAES GAROPABA CENTRO 88495000 SC 435;GAROPABA;-28.027599600;-48.617857900;GP;SCGRB-I01SP50;SCGRB-I01SP50-SS1;BR-SCGRB01-OLT01-NK;1/1/4/2
EQP0000000014327361;I01G0267;CTO SPLITTER 1 8;SCGRB_G1I01;RUA GALEAO GAROPABA CENTRO 88495000 SC 17;GAROPABA;-28.032546800;-48.631338500;G0;SCGRB-I01SP34;SCGRB-I01SP34-SS3;BR-SCGRB01-OLT01-NK;1/1/3/2
EQP0000000008353272;I01G0624;CTO SPLITTER 1 8;SCGRB_G1I01;RUA ADERBAL RAMOS DA SILVA GAROPABA CENTRO 88495000 SC 304;GAROPABA;-28.024617100;-48.614356600;G0;SCGRB-I01SP78;SCGRB-I01SP78-SS8;BR-SCGRB01-OLT01-NK;1/1/5/14
EQP0000000014724298;I01G0294;CTO SPLITTER 1 8;SCGRB_G1I01;RUA MARIO DA JABICA GAROPABA CENTRO 88495000 SC SN;GAROPABA;-28.025999700;-48.639588100;G0;SCGRB-I01SP37;SCGRB-I01SP37-SS6;BR-SCGRB01-OLT01-NK;1/1/3/5
EQP0000000008348458;I01G0333;CTO SPLITTER 1 8;SCGRB_G1I01;RODOVIA DOS ACORES GAROPABA AMBROSIO DE DENTRO 88495000 SC 497;GAROPABA;-28.029268400;-48.633089100;G0;SCGRB-I01SP42;SCGRB-I01SP42-SS5;BR-SCGRB01-OLT01-NK;1/1/3/10
EQP0000000008758048;I01G0155;CTO SPLITTER 1 8;SCGRB_G1I01;RODOVIA SC 434 GAROPABA CENTRO 88495000 SC 1443;GAROPABA;-28.037783500;-48.623429700;G0;SCGRB-I01SP20;SCGRB-I01SP20-SS3;BR-SCGRB01-OLT01-NK;1/1/2/4
EQP0000000008577149;I01G0449;CTO SPLITTER 1 8;SCGRB_G1I01;RUA JOAO JOSE DE SOUZA GAROPABA AREIAS DE MACACU 88495000 SC SN;GAROPABA;-28.009279400;-48.642129400;G0;SCGRB-I01SP57;SCGRB-I01SP57-SS1;BR-SCGRB01-OLT01-NK;1/1/4/9
EQP0000000008107411;I01G0440;CTO SPLITTER 1 8;SCGRB_G1I01;RUA JOAO LINO DA SILVA NETO GAROPABA CENTRO 88495000 SC 651;GAROPABA;-28.030176900;-48.621956600;G0;SCGRB-I01SP55;SCGRB-I01SP55-SS8;BR-SCGRB01-OLT01-NK;1/1/4/7
EQP0000000008635932;I01G0068;CTO SPLITTER 1 8;SCGRB_G1I01;RUA SOL POENTE GAROPABA CENTRO 88495000 SC 155;GAROPABA;-28.049769000;-48.648095300;G0;SCGRB-I01SP9;SCGRB-I01SP9-SS4;BR-SCGRB01-OLT01-NK;1/1/1/9
EQP0000000008488466;I01G0467;CTO SPLITTER 1 8;SCGRB_G1I01;RODOVIA JOVINO PIUCCO GAROPABA AREIAS MACACU 88495000 SC 3370;GAROPABA;-28.011064400;-48.636930100;G0;SCGRB-I01SP59;SCGRB-I01SP59-SS3;BR-SCGRB01-OLT01-NK;1/1/4/11
EQP0000000014664150;I01G0282;CTO SPLITTER 1 8;SCGRB_G1I01;BECO SERVIDAO CASAN GAROPABA CENTRO 88495000 SC SN;GAROPABA;-28.026266400;-48.645673300;G0;SCGRB-I01SP36;SCGRB-I01SP36-SS2;BR-SCGRB01-OLT01-NK;1/1/3/4
EQP0000000008353553;I01G0218;CTO SPLITTER 1 8;SCGRB_G1I01;RUA FREDOLINO HERMINIO DO NASCIMENTO GAROPABA CENTRO 88495000 SC 30;GAROPABA;-28.033789000;-48.628773700;G0;SCGRB-I01SP28;SCGRB-I01SP28-SS2;BR-SCGRB01-OLT01-NK;1/1/2/12
EQP0000000008257415;I01G0316;CTO SPLITTER 1 8;SCGRB_G1I01;RUA ILHA DO FAIAL GAROPABA CENTRO 88495000 SC 171;GAROPABA;-28.027322600;-48.637439900;G0;SCGRB-I01SP40;SCGRB-I01SP40-SS4;BR-SCGRB01-OLT01-NK;1/1/3/8
EQP0000000008697020;I01G0608;CTO SPLITTER 1 8;SCGRB_G1I01;RUA ALTA FREITAS NAUCK GAROPABA CENTRO 88495000 SC 845;GAROPABA;-28.028652100;-48.625394100;G0;SCGRB-I01SP76;SCGRB-I01SP76-SS8;BR-SCGRB01-OLT01-NK;1/1/5/12
EQP0000000008132455;I01G0424;CTO SPLITTER 1 8;SCGRB_G1I01;RUA SANTA RITA GAROPABA CENTRO 88495000 SC 363;GAROPABA;-28.030499100;-48.619761900;G0;SCGRB-I01SP53;SCGRB-I01SP53-SS8;BR-SCGRB01-OLT01-NK;1/1/4/5
EQP0000000008699582;I01G0054;CTO SPLITTER 1 8;SCGRB_G1I01;RUA DIAMANTE GAROPABA CENTRO 88495000 SC 66;GAROPABA;-28.047990600;-48.644928900;G0;SCGRB-I01SP7;SCGRB-I01SP7-SS6;BR-SCGRB01-OLT01-NK;1/1/1/7
EQP0000000008348377;I01G0336;CTO SPLITTER 1 8;SCGRB_G1I01;RODOVIA DOS ACORES GAROPABA AMBROSIO DE DENTRO 88495000 SC 794;GAROPABA;-28.029037900;-48.635447700;G0;SCGRB-I01SP42;SCGRB-I01SP42-SS8;BR-SCGRB01-OLT01-NK;1/1/3/10
EQP0000000008566067;I01G0087;CTO SPLITTER 1 8;SCGRB_G1I01;RUA PEDRO MIGUEL LINHARES GAROPABA CENTRO 88495000 SC 190;GAROPABA;-28.048213600;-48.641088300;G0;SCGRB-I01SP11;SCGRB-I01SP11-SS7;BR-SCGRB01-OLT01-NK;1/1/1/11
EQP0000000008374332;I01G0111;CTO SPLITTER 1 8;SCGRB_G1I01;RUA MIL E TREZENTOS GAROPABA CENTRO 88495000 SC 308;GAROPABA;-28.045525500;-48.634397800;G0;SCGRB-I01SP14;SCGRB-I01SP14-SS7;BR-SCGRB01-OLT01-NK;1/1/1/14
EQP0000000008698226;I01G0603;CTO SPLITTER 1 8;SCGRB_G1I01;RUA ISMAEL LOBO GAROPABA CENTRO 88495000 SC 912;GAROPABA;-28.027595300;-48.630121600;G0;SCGRB-I01SP76;SCGRB-I01SP76-SS3;BR-SCGRB01-OLT01-NK;1/1/5/12
EQP0000000008653818;I01G0080;CTO SPLITTER 1 8;SCGRB_G1I01;RUA JOAO CARDOSO GAROPABA CENTRO 88495000 SC SN;GAROPABA;-28.049514000;-48.644412800;G0;SCGRB-I01SP10;SCGRB-I01SP10-SS8;BR-SCGRB01-OLT01-NK;1/1/1/10
EQP0000000008451555;I01G0240;CTO SPLITTER 1 8;SCGRB_G1I01;RUA FERNANDA PACHECO DA SILVA GAROPABA CENTRO 88495000 SC 90;GAROPABA;-28.032066100;-48.639618800;G0;SCGRB-I01SP30;SCGRB-I01SP30-SS8;BR-SCGRB01-OLT01-NK;1/1/2/14
EQP0000000008108633;I01G0436;CTO SPLITTER 1 8;SCGRB_G1I01;RUA VICTOR CARLOS NAUCK GAROPABA CENTRO 88495000 SC 1052;GAROPABA;-28.030324000;-48.625527900;G0;SCGRB-I01SP55;SCGRB-I01SP55-SS4;BR-SCGRB01-OLT01-NK;1/1/4/7
EQP0000000019813894;I01G0628;CTO - PAD TEL-B-60/40;SCGRB_G1I01;RUA MANOEL DE ARAUJO GAROPABA CENTRO 88495000 SC 15;GAROPABA;-28.023673800;-48.616093800;G0;SCGRB-I01SP79;SCGRB-I01SP79-SS3;BR-SCGRB01-OLT01-NK;1/1/5/15
EQP0000000019813894;I01G0628;CTO - PAD TEL-B-60/40;SCGRB_G1I01;RUA MANOEL DE ARAUJO GAROPABA CENTRO 88495000 SC 15;GAROPABA;-28.023673800;-48.616093800;G0;SCGRB-I01SP79;SCGRB-I01SP79-SS4;BR-SCGRB01-OLT01-NK;1/1/5/15
EQP0000000008655956;I01G0076;CTO SPLITTER 1 8;SCGRB_G1I01;RUA JADE GAROPABA AMBROSIO 88495000 SC 100;GAROPABA;-28.048083800;-48.647852700;G0;SCGRB-I01SP10;SCGRB-I01SP10-SS4;BR-SCGRB01-OLT01-NK;1/1/1/10
EQP0000000008404979;I01G0095;CTO SPLITTER 1 8;SCGRB_G1I01;RODOVIA SC 434 GAROPABA CENTRO 88495000 SC 3452;GAROPABA;-28.047534200;-48.636521000;G0;SCGRB-I01SP12;SCGRB-I01SP12-SS7;BR-SCGRB01-OLT01-NK;1/1/1/12
EQP0000000027190634;I01G0340;CTO - PAD TELEFONICA - B;SCGRB_G1I01;RUA LUIZ PAULO GONCALVES PINTO GAROPABA CENTRO 88495000 SC 144;GAROPABA;-28.029890500;-48.632393500;G0;SCGRB-I01SP43;SCGRB-I01SP43-SS3;BR-SCGRB01-OLT01-NK;1/1/3/11
EQP0000000027190634;I01G0340;CTO - PAD TELEFONICA - B;SCGRB_G1I01;RUA LUIZ PAULO GONCALVES PINTO GAROPABA CENTRO 88495000 SC 144;GAROPABA;-28.029890500;-48.632393500;G0;SCGRB-I01SP43;SCGRB-I01SP43-SS4;BR-SCGRB01-OLT01-NK;1/1/3/11
EQP0000000008389021;I01G0103;CTO SPLITTER 1 8;SCGRB_G1I01;RUA JOAO JOB FURTADO GAROPABA CENTRO 88495000 SC 127;GAROPABA;-28.046351500;-48.637500900;G0;SCGRB-I01SP13;SCGRB-I01SP13-SS7;BR-SCGRB01-OLT01-NK;1/1/1/13
EQP0000000008698148;I01G0604;CTO SPLITTER 1 8;SCGRB_G1I01;RUA ISMAEL LOBO GAROPABA CENTRO 88495000 SC 816;GAROPABA;-28.027825300;-48.628587400;G0;SCGRB-I01SP76;SCGRB-I01SP76-SS4;BR-SCGRB01-OLT01-NK;1/1/5/12
EQP0000000008503083;I01G0133;CTO SPLITTER 1 8;SCGRB_G1I01;RUA DELEGADO FRONTINO MARTINS GAROPABA CENTRO 88495000 SC 7;GAROPABA;-28.048089000;-48.625328900;G0;SCGRB-I01SP17;SCGRB-I01SP17-SS5;BR-SCGRB01-OLT01-NK;1/1/2/1
EQP0000000014663369;I01G0287;CTO SPLITTER 1 8;SCGRB_G1I01;RODOVIA DOS ACORES GAROPABA AMBROSIO DE DENTRO 88495000 SC SN;GAROPABA;-28.025354500;-48.641543000;G0;SCGRB-I01SP36;SCGRB-I01SP36-SS7;BR-SCGRB01-OLT01-NK;1/1/3/4
EQP0000000014490305;I01G0280;CTO SPLITTER 1 8;SCGRB_G1I01;RUA LUIZ PAULO GONCALVES PINTO GAROPABA CENTRO 88495000 SC SN;GAROPABA;-28.030426800;-48.633346900;G0;SCGRB-I01SP35;SCGRB-I01SP35-SS8;BR-SCGRB01-OLT01-NK;1/1/3/3
EQP0000000008108026;I01G0439;CTO SPLITTER 1 8;SCGRB_G1I01;RUA VICTOR CARLOS NAUCK GAROPABA CENTRO 88495000 SC 747;GAROPABA;-28.030715000;-48.622511900;G0;SCGRB-I01SP55;SCGRB-I01SP55-SS7;BR-SCGRB01-OLT01-NK;1/1/4/7
EQP0000000008103822;I01G0415;CTO SPLITTER 1 8;SCGRB_G1I01;RUA SANTA RITA GAROPABA CENTRO 88495000 SC 424;GAROPABA;-28.031366500;-48.619904700;G0;SCGRB-I01SP52;SCGRB-I01SP52-SS7;BR-SCGRB01-OLT01-NK;1/1/4/4
EQP0000000008503312;I01G0131;CTO SPLITTER 1 8;SCGRB_G1I01;RUA DELEGADO FRONTINO MARTINS GAROPABA CENTRO 88495000 SC 292;GAROPABA;-28.044449600;-48.622710800;G0;SCGRB-I01SP17;SCGRB-I01SP17-SS3;BR-SCGRB01-OLT01-NK;1/1/2/1
EQP0000000008121731;I01G0013;CTO SPLITTER 1 8;SCGRB_G1I01;RUA NICOLAU FERNANDES DE SOUZA GAROPABA CENTRO 88495000 SC 117;GAROPABA;-28.050573600;-48.651586500;G0;SCGRB-I01SP2;SCGRB-I01SP2-SS5;BR-SCGRB01-OLT01-NK;1/1/1/2
EQP0000000008577392;I01G0451;CTO SPLITTER 1 8;SCGRB_G1I01;RUA SEM NOME 78 GAROPABA CENTRO 88495000 SC SN;GAROPABA;-28.008571500;-48.641724400;G0;SCGRB-I01SP57;SCGRB-I01SP57-SS3;BR-SCGRB01-OLT01-NK;1/1/4/9
EQP0000000008501121;I01G0547;CTO SPLITTER 1 8;SCGRB_G1I01;RUA OLIVIO DUARTE DE SENA GAROPABA CENTRO 88495000 SC 259;GAROPABA;-28.022325900;-48.622954500;G0;SCGRB-I01SP69;SCGRB-I01SP69-SS3;BR-SCGRB01-OLT01-NK;1/1/5/5
EQP0000000008514766;I01G0566;CTO SPLITTER 1 8;SCGRB_G1I01;RUA MANOEL GEREMIAS DE PAULA GAROPABA CENTRO 88495000 SC 592;GAROPABA;-28.026500200;-48.628809800;G0;SCGRB-I01SP71;SCGRB-I01SP71-SS6;BR-SCGRB01-OLT01-NK;1/1/5/7
EQP0000000008138451;I01G0031;CTO SPLITTER 1 8;SCGRB_G1I01;RUA ADALBERTO FERNANDES PACHECO GAROPABA CENTRO 88495000 SC 86;GAROPABA;-28.050959700;-48.643018600;G0;SCGRB-I01SP4;SCGRB-I01SP4-SS7;BR-SCGRB01-OLT01-NK;1/1/1/4
EQP0000000008099531;I01G0419;CTO SPLITTER 1 8;SCGRB_G1I01;RUA PROFESSOR ANTONIO JOSE BOTELHO GAROPABA CENTRO 88495000 SC 350;GAROPABA;-28.028078800;-48.619589300;G0;SCGRB-I01SP53;SCGRB-I01SP53-SS3;BR-SCGRB01-OLT01-NK;1/1/4/5
EQP0000000008568206;I01G0084;CTO SPLITTER 1 8;SCGRB_G1I01;RUA MANOEL ROMAO PACHECO GAROPABA CENTRO 88495000 SC 171;GAROPABA;-28.049756000;-48.644879500;G0;SCGRB-I01SP11;SCGRB-I01SP11-SS4;BR-SCGRB01-OLT01-NK;1/1/1/11
EQP0000000008236018;I01G0312;CTO SPLITTER 1 8;SCGRB_G1I01;RODOVIA DOS ACORES GAROPABA AMBROSIO DE DENTRO 88495000 SC SN;GAROPABA;-28.028692900;-48.637701300;G0;SCGRB-I01SP39;SCGRB-I01SP39-SS8;BR-SCGRB01-OLT01-NK;1/1/3/7
EQP0000000014327268;I01G0268;CTO SPLITTER 1 8;SCGRB_G1I01;RUA LAJEADO GAROPABA CENTRO 88495000 SC 828;GAROPABA;-28.032091200;-48.630968000;G0;SCGRB-I01SP34;SCGRB-I01SP34-SS4;BR-SCGRB01-OLT01-NK;1/1/3/2
EQP0000000008460158;I01G0118;CTO SPLITTER 1 8;SCGRB_G1I01;RUA SEM NOME 43 GAROPABA CENTRO 88495000 SC SN;GAROPABA;-28.047603800;-48.634573700;G0;SCGRB-I01SP15;SCGRB-I01SP15-SS6;BR-SCGRB01-OLT01-NK;1/1/1/15
EQP0000000008292527;I01G0024;CTO SPLITTER 1 8;SCGRB_G1I01;RODOVIA SC 434 GAROPABA CENTRO 88495000 SC 4234;GAROPABA;-28.051452900;-48.646431000;G0;SCGRB-I01SP3;SCGRB-I01SP3-SS8;BR-SCGRB01-OLT01-NK;1/1/1/3
EQP0000000008757291;I01G0160;CTO SPLITTER 1 8;SCGRB_G1I01;RODOVIA SC 434 GAROPABA CENTRO 88495000 SC 1118;GAROPABA;-28.034007300;-48.622920600;G0;SCGRB-I01SP20;SCGRB-I01SP20-SS8;BR-SCGRB01-OLT01-NK;1/1/2/4
EQP0000000008142576;I01G0040;CTO SPLITTER 1 8;SCGRB_G1I01;RODOVIA SC 434 GAROPABA CENTRO 88495000 SC 4039;GAROPABA;-28.050687600;-48.644383700;G0;SCGRB-I01SP5;SCGRB-I01SP5-SS8;BR-SCGRB01-OLT01-NK;1/1/1/5
EQP0000000025258943;I01G0636;CTO - PAD TELEFONICA - B;SCGRB_G1I01;RUA TRINTA DE DEZEMBRO GAROPABA CENTRO 88495000 SC 156;GAROPABA;-28.026202500;-48.617889500;G0;SCGRB-I01SP80;SCGRB-I01SP80-SS3;BR-SCGRB01-OLT01-NK;1/1/5/16
EQP0000000025258943;I01G0636;CTO - PAD TELEFONICA - B;SCGRB_G1I01;RUA TRINTA DE DEZEMBRO GAROPABA CENTRO 88495000 SC 156;GAROPABA;-28.026202500;-48.617889500;G0;SCGRB-I01SP80;SCGRB-I01SP80-SS4;BR-SCGRB01-OLT01-NK;1/1/5/16
EQP0000000008138599;I01G0030;CTO SPLITTER 1 8;SCGRB_G1I01;RUA ANA MARIA DE JESUS GAROPABA CENTRO 88495000 SC 25;GAROPABA;-28.051168800;-48.642234700;G0;SCGRB-I01SP4;SCGRB-I01SP4-SS6;BR-SCGRB01-OLT01-NK;1/1/1/4
EQP0000000008100495;I01G0408;CTO SPLITTER 1 8;SCGRB_G1I01;RUA SEBASTIAO MESSIAS DE SOUZA GAROPABA CENTRO 88495000 SC 516;GAROPABA;-28.031551300;-48.619297700;G0;SCGRB-I01SP51;SCGRB-I01SP51-SS8;BR-SCGRB01-OLT01-NK;1/1/4/3
EQP0000000008713846;I01G0050;CTO SPLITTER 1 8;SCGRB_G1I01;RUA PEDRO MIGUEL LINHARES GAROPABA CENTRO 88495000 SC 360;GAROPABA;-28.047211100;-48.643138800;G0;SCGRB-I01SP7;SCGRB-I01SP7-SS2;BR-SCGRB01-OLT01-NK;1/1/1/7
EQP0000000008493781;I01G0538;CTO SPLITTER 1 8;SCGRB_G1I01;RODOVIA JOVINO PIUCCO GAROPABA AREIAS MACACU 88495000 SC 1387;GAROPABA;-28.021632700;-48.627318800;G0;SCGRB-I01SP68;SCGRB-I01SP68-SS2;BR-SCGRB01-OLT01-NK;1/1/5/4
EQP0000000008103635;I01G0416;CTO SPLITTER 1 8;SCGRB_G1I01;RUA VICTOR CARLOS NAUCK GAROPABA CENTRO 88495000 SC 604;GAROPABA;-28.030829300;-48.620656800;G0;SCGRB-I01SP52;SCGRB-I01SP52-SS8;BR-SCGRB01-OLT01-NK;1/1/4/4
EQP0000000008488897;I01G0466;CTO SPLITTER 1 8;SCGRB_G1I01;RUA CAMILO DE JESUS GAROPABA CENTRO 88495000 SC 270;GAROPABA;-28.009985700;-48.636948700;G0;SCGRB-I01SP59;SCGRB-I01SP59-SS2;BR-SCGRB01-OLT01-NK;1/1/4/11
EQP0000000008405375;I01G0094;CTO SPLITTER 1 8;SCGRB_G1I01;RODOVIA SC 434 GAROPABA CENTRO 88495000 SC 2006;GAROPABA;-28.048323300;-48.638554900;G0;SCGRB-I01SP12;SCGRB-I01SP12-SS6;BR-SCGRB01-OLT01-NK;1/1/1/12
EQP0000000008502790;I01G0135;CTO SPLITTER 1 8;SCGRB_G1I01;AVENIDA CENTRAL FERRUGEM GAROPABA CENTRO 88495000 SC 773;GAROPABA;-28.050612700;-48.625142700;G0;SCGRB-I01SP17;SCGRB-I01SP17-SS7;BR-SCGRB01-OLT01-NK;1/1/2/1
EQP0000000008697977;I01G0056;CTO SPLITTER 1 8;SCGRB_G1I01;RUA AGUA MARINHA GAROPABA CENTRO 88495000 SC 150;GAROPABA;-28.047179700;-48.645949000;G0;SCGRB-I01SP7;SCGRB-I01SP7-SS8;BR-SCGRB01-OLT01-NK;1/1/1/7
EQP0000000008140807;I01G0027;CTO SPLITTER 1 8;SCGRB_G1I01;RUA EMENEGILDA MARTINS PACHECO GAROPABA CENTRO 88495000 SC SN;GAROPABA;-28.052380900;-48.645355300;G0;SCGRB-I01SP4;SCGRB-I01SP4-SS3;BR-SCGRB01-OLT01-NK;1/1/1/4
EQP0000000008779452;I01G0063;CTO SPLITTER 1 8;SCGRB_G1I01;RUA CORAL GAROPABA CENTRO 88495000 SC 346;GAROPABA;-28.046380200;-48.647371500;G0;SCGRB-I01SP8;SCGRB-I01SP8-SS7;BR-SCGRB01-OLT01-NK;1/1/1/8
EQP0000000008352168;I01G0210;CTO SPLITTER 1 8;SCGRB_G1I01;RUA ALVARO ERNESTO DOS SANTOS GAROPABA JARDIM PANORAMICO 88495000 SC 437;GAROPABA;-28.030995800;-48.626383000;G0;SCGRB-I01SP27;SCGRB-I01SP27-SS2;BR-SCGRB01-OLT01-NK;1/1/2/11
EQP0000000038535140;I01GP442;MINI CDOE 1:2 + 1:8 PRECON SELADA 70/30;SCGRB_G1I01;RUA PREFEITO JOAO ORESTES DE ARAUJO GAROPABA CENTRO 88495000 SC 761;GAROPABA;-28.029571000;-48.620770100;GP;SCGRB-I01SP56;SCGRB-I01SP56-SS2;BR-SCGRB01-OLT01-NK;1/1/4/8
EQP0000000008351696;I01G0204;CTO SPLITTER 1 8;SCGRB_G1I01;RUA RIO GRANDE DO SUL GAROPABA CENTRO 88495000 SC 138;GAROPABA;-28.032606300;-48.623387800;G0;SCGRB-I01SP26;SCGRB-I01SP26-SS4;BR-SCGRB01-OLT01-NK;1/1/2/10
EQP0000000007947876;I01G0358;CTO SPLITTER 1 8;SCGRB_G1I01;RUA SEM NOME 39 GAROPABA CENTRO 88495000 SC SN;GAROPABA;-28.034457200;-48.618009500;G0;SCGRB-I01SP45;SCGRB-I01SP45-SS6;BR-SCGRB01-OLT01-NK;1/1/3/13
EQP0000000008708946;I01G0584;CTO SPLITTER 1 8;SCGRB_G1I01;RUA NEREU RAMOS GAROPABA CENTRO 88495000 SC 954;GAROPABA;-28.023569800;-48.629454500;G0;SCGRB-I01SP73;SCGRB-I01SP73-SS8;BR-SCGRB01-OLT01-NK;1/1/5/9
EQP0000000008407303;I01G0227;CTO SPLITTER 1 8;SCGRB_G1I01;RUA JAMILTO MANOEL GEREMIAS GAROPABA CENTRO 88495000 SC 84;GAROPABA;-28.033186200;-48.634091700;G0;SCGRB-I01SP29;SCGRB-I01SP29-SS3;BR-SCGRB01-OLT01-NK;1/1/2/13
EQP0000000008351750;I01G0206;CTO SPLITTER 1 8;SCGRB_G1I01;RUA LAJEADO GAROPABA CENTRO 88495000 SC 245;GAROPABA;-28.032958100;-48.625097800;G0;SCGRB-I01SP26;SCGRB-I01SP26-SS6;BR-SCGRB01-OLT01-NK;1/1/2/10
EQP0000000008286893;I01G0709;CTO SPLITTER 1 8;SCGRB_G1I01;RUA ISMAEL LOBO GAROPABA CENTRO 88495000 SC 138;GAROPABA;-28.028756200;-48.622085000;G0;SCGRB-I01SP89;SCGRB-I01SP89-SS5;BR-SCGRB01-OLT01-NK;1/1/6/9
EQP0000000008353391;I01G0621;CTO SPLITTER 1 8;SCGRB_G1I01;RUA SAO JOAQUIM GAROPABA CENTRO 88495000 SC 149;GAROPABA;-28.022506900;-48.613246800;G0;SCGRB-I01SP78;SCGRB-I01SP78-SS5;BR-SCGRB01-OLT01-NK;1/1/5/14
EQP0000000014491398;I01G0274;CTO SPLITTER 1 8;SCGRB_G1I01;RUA PINGUIRITO GAROPABA CENTRO 88495000 SC 1444;GAROPABA;-28.031718400;-48.637214000;G0;SCGRB-I01SP35;SCGRB-I01SP35-SS2;BR-SCGRB01-OLT01-NK;1/1/3/3
EQP0000000008097978;I01G0422;CTO SPLITTER 1 8;SCGRB_G1I01;RUA ISMAEL LOBO GAROPABA CENTRO 88495000 SC 30;GAROPABA;-28.029334500;-48.620134200;G0;SCGRB-I01SP53;SCGRB-I01SP53-SS6;BR-SCGRB01-OLT01-NK;1/1/4/5
EQP0000000008566723;I01G0086;CTO SPLITTER 1 8;SCGRB_G1I01;RODOVIA SC 434 GAROPABA CENTRO 88495000 SC 3760;GAROPABA;-28.049285100;-48.641062600;G0;SCGRB-I01SP11;SCGRB-I01SP11-SS6;BR-SCGRB01-OLT01-NK;1/1/1/11
EQP0000000008352773;I01G0223;CTO SPLITTER 1 8;SCGRB_G1I01;TRAVESSA DAS GAIVOTAS GAROPABA CENTRO 88495000 SC 53;GAROPABA;-28.031472600;-48.628315100;G0;SCGRB-I01SP28;SCGRB-I01SP28-SS7;BR-SCGRB01-OLT01-NK;1/1/2/12
EQP0000000014491511;I01G0273;CTO SPLITTER 1 8;SCGRB_G1I01;RUA JAMILTO MANOEL GEREMIAS GAROPABA CENTRO 88495000 SC 42;GAROPABA;-28.032388400;-48.635893300;G0;SCGRB-I01SP35;SCGRB-I01SP35-SS1;BR-SCGRB01-OLT01-NK;1/1/3/3
EQP0000000008700325;I01G0053;CTO SPLITTER 1 8;SCGRB_G1I01;RUA DOS BRILHANTES GAROPABA AREIAS DE PALHOCINHA 88495000 SC SN1;GAROPABA;-28.048093700;-48.643460100;G0;SCGRB-I01SP7;SCGRB-I01SP7-SS5;BR-SCGRB01-OLT01-NK;1/1/1/7
EQP0000000008102100;I01G0402;CTO SPLITTER 1 8;SCGRB_G1I01;RUA RIO GRANDE DO SUL GAROPABA CENTRO 88495000 SC 261;GAROPABA;-28.033127100;-48.619743700;G0;SCGRB-I01SP51;SCGRB-I01SP51-SS2;BR-SCGRB01-OLT01-NK;1/1/4/3
EQP0000000008576807;I01G0459;CTO SPLITTER 1 8;SCGRB_G1I01;RUA MANOEL AMORIM GAROPABA CENTRO 88495000 SC 136;GAROPABA;-28.010277200;-48.641287100;G0;SCGRB-I01SP58;SCGRB-I01SP58-SS3;BR-SCGRB01-OLT01-NK;1/1/4/10
EQP0000000008578786;I01G0454;CTO SPLITTER 1 8;SCGRB_G1I01;RUA PEDRO MANOEL DE LIMA GAROPABA CENTRO 88495000 SC SN;GAROPABA;-28.005832400;-48.641393200;G0;SCGRB-I01SP57;SCGRB-I01SP57-SS6;BR-SCGRB01-OLT01-NK;1/1/4/9
EQP0000000008714001;I01G0049;CTO SPLITTER 1 8;SCGRB_G1I01;RUA PEDRO MIGUEL LINHARES GAROPABA CENTRO 88495000 SC 210;GAROPABA;-28.047938000;-48.641866800;G0;SCGRB-I01SP7;SCGRB-I01SP7-SS1;BR-SCGRB01-OLT01-NK;1/1/1/7
EQP0000000008352717;I01G0224;CTO SPLITTER 1 8;SCGRB_G1I01;RUA JOSINA AMELIA DA SILVEIRA GAROPABA CENTRO 88495000 SC 524;GAROPABA;-28.031285600;-48.627359000;G0;SCGRB-I01SP28;SCGRB-I01SP28-SS8;BR-SCGRB01-OLT01-NK;1/1/2/12
EQP0000000008108429;I01G0437;CTO SPLITTER 1 8;SCGRB_G1I01;RUA ENEAS FARACO GUIMARAES GAROPABA CENTRO 88495000 SC 597;GAROPABA;-28.030205000;-48.623843600;G0;SCGRB-I01SP55;SCGRB-I01SP55-SS5;BR-SCGRB01-OLT01-NK;1/1/4/7
EQP0000000008269845;I01G0326;CTO SPLITTER 1 8;SCGRB_G1I01;RUA ILHA DE SAO JORGE GAROPABA CENTRO 88495000 SC 137;GAROPABA;-28.028338200;-48.633124100;G0;SCGRB-I01SP41;SCGRB-I01SP41-SS6;BR-SCGRB01-OLT01-NK;1/1/3/9
EQP0000000008388603;I01G0104;CTO SPLITTER 1 8;SCGRB_G1I01;RUA JOAQUIM MANOEL SERAFIM GAROPABA CENTRO 88495000 SC 110;GAROPABA;-28.046519600;-48.634506400;G0;SCGRB-I01SP13;SCGRB-I01SP13-SS8;BR-SCGRB01-OLT01-NK;1/1/1/13
EQP0000000014741094;I01G0302;CTO SPLITTER 1 8;SCGRB_G1I01;RUA SEM NOME 22 GAROPABA CENTRO 88495000 SC SN;GAROPABA;-28.024093400;-48.641872400;G0;SCGRB-I01SP38;SCGRB-I01SP38-SS6;BR-SCGRB01-OLT01-NK;1/1/3/6
EQP0000000008515794;I01G0562;CTO SPLITTER 1 8;SCGRB_G1I01;RUA VIUVA MARIA ANTONIA DOS SANTOS GAROPABA CENTRO 88495000 SC 477;GAROPABA;-28.023943400;-48.626503700;G0;SCGRB-I01SP71;SCGRB-I01SP71-SS2;BR-SCGRB01-OLT01-NK;1/1/5/7
EQP0000000008656851;I01G0074;CTO SPLITTER 1 8;SCGRB_G1I01;RUA DIAMANTE GAROPABA CENTRO 88495000 SC 269;GAROPABA;-28.047459800;-48.647619100;G0;SCGRB-I01SP10;SCGRB-I01SP10-SS2;BR-SCGRB01-OLT01-NK;1/1/1/10
EQP0000000008348487;I01G0332;CTO SPLITTER 1 8;SCGRB_G1I01;RUA SEM NOME 60 GAROPABA CENTRO 88495000 SC SN;GAROPABA;-28.028958700;-48.632207900;G0;SCGRB-I01SP42;SCGRB-I01SP42-SS4;BR-SCGRB01-OLT01-NK;1/1/3/10
EQP0000000008723221;I01G0256;CTO SPLITTER 1 8;SCGRB_G1I01;RUA NICOLAU MANOEL DE ABREU GAROPABA CENTRO 88495000 SC 148;GAROPABA;-28.034663600;-48.639949700;G0;SCGRB-I01SP32;SCGRB-I01SP32-SS8;BR-SCGRB01-OLT01-NK;1/1/2/16
EQP0000000008348404;I01G0335;CTO SPLITTER 1 8;SCGRB_G1I01;RUA SEM NOME 64 GAROPABA CENTRO 88495000 SC LT6;GAROPABA;-28.029240200;-48.635325700;G0;SCGRB-I01SP42;SCGRB-I01SP42-SS7;BR-SCGRB01-OLT01-NK;1/1/3/10
EQP0000000008717355;I01G0241;CTO SPLITTER 1 8;SCGRB_G1I01;RUA LAJEADO GAROPABA CENTRO 88495000 SC 2689;GAROPABA;-28.030964800;-48.639416000;G0;SCGRB-I01SP31;SCGRB-I01SP31-SS1;BR-SCGRB01-OLT01-NK;1/1/2/15
EQP0000000008578954;I01G0452;CTO SPLITTER 1 8;SCGRB_G1I01;RUA PEDRO MANOEL DE LIMA GAROPABA CENTRO 88495000 SC SN;GAROPABA;-28.005622900;-48.642561600;G0;SCGRB-I01SP57;SCGRB-I01SP57-SS4;BR-SCGRB01-OLT01-NK;1/1/4/9
EQP0000000008705589;I01G0051;CTO SPLITTER 1 8;SCGRB_G1I01;RUA ESMERALDA GAROPABA AREIAS DE PALHOCINHA 88495000 SC 96;GAROPABA;-28.047388700;-48.643741900;G0;SCGRB-I01SP7;SCGRB-I01SP7-SS3;BR-SCGRB01-OLT01-NK;1/1/1/7
EQP0000000019815250;I01G0640;CTO - PAD TEL-B-70/30;SCGRB_G1I01;RUA NEREU RAMOS GAROPABA CENTRO 88495000 SC 105;GAROPABA;-28.025505400;-48.617072600;G0;SCGRB-I01SP80;SCGRB-I01SP80-SS7;BR-SCGRB01-OLT01-NK;1/1/5/16
EQP0000000019815250;I01G0640;CTO - PAD TEL-B-70/30;SCGRB_G1I01;RUA NEREU RAMOS GAROPABA CENTRO 88495000 SC 105;GAROPABA;-28.025505400;-48.617072600;G0;SCGRB-I01SP80;SCGRB-I01SP80-SS8;BR-SCGRB01-OLT01-NK;1/1/5/16
EQP0000000008108922;I01G0434;CTO SPLITTER 1 8;SCGRB_G1I01;RUA VICTOR CARLOS NAUCK GAROPABA CENTRO 88495000 SC 1325;GAROPABA;-28.029989400;-48.628095300;G0;SCGRB-I01SP55;SCGRB-I01SP55-SS1;BR-SCGRB01-OLT01-NK;1/1/4/7
EQP0000000008780061;I01G0061;CTO SPLITTER 1 8;SCGRB_G1I01;RUA IVO JOAQUIM CARDOSO GAROPABA CENTRO 88495000 SC 102;GAROPABA;-28.046141900;-48.644297000;G0;SCGRB-I01SP8;SCGRB-I01SP8-SS5;BR-SCGRB01-OLT01-NK;1/1/1/8
EQP0000000008668896;I01G0576;CTO SPLITTER 1 8;SCGRB_G1I01;RUA NERI INACIO DA SILVA GAROPABA CENTRO 88495000 SC 210;GAROPABA;-28.024953300;-48.629474300;G0;SCGRB-I01SP72;SCGRB-I01SP72-SS8;BR-SCGRB01-OLT01-NK;1/1/5/8
EQP0000000008352236;I01G0211;CTO SPLITTER 1 8;SCGRB_G1I01;RUA ALVARO ERNESTO DOS SANTOS GAROPABA JARDIM PANORAMICO 88495000 SC 311;GAROPABA;-28.031180000;-48.624922400;G0;SCGRB-I01SP27;SCGRB-I01SP27-SS3;BR-SCGRB01-OLT01-NK;1/1/2/11
EQP0000000008351638;I01G0208;CTO SPLITTER 1 8;SCGRB_G1I01;RUA ALTA FREITAS NAUCK GAROPABA CENTRO 88495000 SC 1217;GAROPABA;-28.031881400;-48.626181600;G0;SCGRB-I01SP26;SCGRB-I01SP26-SS8;BR-SCGRB01-OLT01-NK;1/1/2/10
EQP0000000008515059;I01G0563;CTO SPLITTER 1 8;SCGRB_G1I01;RUA VIUVA MARIA ANTONIA DOS SANTOS GAROPABA CENTRO 88495000 SC 478;GAROPABA;-28.024943900;-48.626678000;G0;SCGRB-I01SP71;SCGRB-I01SP71-SS3;BR-SCGRB01-OLT01-NK;1/1/5/7
EQP0000000008351206;I01G0207;CTO SPLITTER 1 8;SCGRB_G1I01;RUA RIO GRANDE DO SUL GAROPABA CENTRO 88495000 SC SN;GAROPABA;-28.032382200;-48.625660300;G0;SCGRB-I01SP26;SCGRB-I01SP26-SS7;BR-SCGRB01-OLT01-NK;1/1/2/10
EQP0000000008099162;I01G0420;CTO SPLITTER 1 8;SCGRB_G1I01;RUA MARQUES GUIMARAES GAROPABA CENTRO 88495000 SC SN;GAROPABA;-28.027081800;-48.617632300;G0;SCGRB-I01SP53;SCGRB-I01SP53-SS4;BR-SCGRB01-OLT01-NK;1/1/4/5
EQP0000000014740706;I01G0304;CTO SPLITTER 1 8;SCGRB_G1I01;RUA WILLIAM GONCALVES BATISTA GAROPABA CENTRO 88495000 SC SN;GAROPABA;-28.024965100;-48.640565900;G0;SCGRB-I01SP38;SCGRB-I01SP38-SS8;BR-SCGRB01-OLT01-NK;1/1/3/6
EQP0000000008108777;I01G0435;CTO SPLITTER 1 8;SCGRB_G1I01;RUA VICTOR CARLOS NAUCK GAROPABA CENTRO 88495000 SC 1185;GAROPABA;-28.030156600;-48.626834300;G0;SCGRB-I01SP55;SCGRB-I01SP55-SS3;BR-SCGRB01-OLT01-NK;1/1/4/7
EQP0000000014663770;I01G0284;CTO SPLITTER 1 8;SCGRB_G1I01;RUA SEM NOME 28 GAROPABA CENTRO 88495000 SC SN;GAROPABA;-28.025751000;-48.643509100;G0;SCGRB-I01SP36;SCGRB-I01SP36-SS4;BR-SCGRB01-OLT01-NK;1/1/3/4
EQP0000000014663197;I01G0288;CTO SPLITTER 1 8;SCGRB_G1I01;RODOVIA DOS ACORES GAROPABA AMBROSIO DE DENTRO 88495000 SC 1280;GAROPABA;-28.026494400;-48.640234600;G0;SCGRB-I01SP36;SCGRB-I01SP36-SS8;BR-SCGRB01-OLT01-NK;1/1/3/4
EQP0000000008737344;I01GPT255;CTO SPLITTER 1 8;SCGRB_G1I01;RUA NICOLAU MANOEL DE ABREU GAROPABA CENTRO 88495000 SC SN;GAROPABA;-28.035389600;-48.639701900;GPT;SCGRB-I01SP32;SCGRB-I01SP32-SS7;BR-SCGRB01-OLT01-NK;1/1/2/16
EQP0000000008104532;I01G0410;CTO SPLITTER 1 8;SCGRB_G1I01;RUA MANOEL NESTOR LUIZ GAROPABA CENTRO 88495000 SC 49;GAROPABA;-28.032353100;-48.621158100;G0;SCGRB-I01SP52;SCGRB-I01SP52-SS2;BR-SCGRB01-OLT01-NK;1/1/4/4
EQP0000000008548174;I01G0143;CTO SPLITTER 1 8;SCGRB_G1I01;RUA LIDIO EZEQUIEL PACHECO GAROPABA CENTRO 88495000 SC 74;GAROPABA;-28.047131700;-48.626980000;G0;SCGRB-I01SP18;SCGRB-I01SP18-SS7;BR-SCGRB01-OLT01-NK;1/1/2/2
EQP0000000008709083;I01G0580;CTO SPLITTER 1 8;SCGRB_G1I01;RUA BALEIA FRANCA GAROPABA CENTRO 88495000 SC 2500_CS1;GAROPABA;-28.023155700;-48.636569600;G0;SCGRB-I01SP73;SCGRB-I01SP73-SS4;BR-SCGRB01-OLT01-NK;1/1/5/9
EQP0000000008237064;I01G0311;CTO SPLITTER 1 8;SCGRB_G1I01;RODOVIA DOS ACORES GAROPABA AMBROSIO DE DENTRO 88495000 SC 1150;GAROPABA;-28.028453900;-48.638869800;G0;SCGRB-I01SP39;SCGRB-I01SP39-SS7;BR-SCGRB01-OLT01-NK;1/1/3/7
EQP0000000008513797;I01G0559;CTO SPLITTER 1 8;SCGRB_G1I01;RODOVIA JOVINO PIUCCO GAROPABA AREIAS MACACU 88495000 SC 1121;GAROPABA;-28.023367000;-48.627389800;G0;SCGRB-I01SP70;SCGRB-I01SP70-SS7;BR-SCGRB01-OLT01-NK;1/1/5/6
EQP0000000008254431;I01G0319;CTO SPLITTER 1 8;SCGRB_G1I01;RUA ILHA SANTA MARIA GAROPABA AMBROSIO 88495000 SC 101;GAROPABA;-28.026418200;-48.635965500;G0;SCGRB-I01SP40;SCGRB-I01SP40-SS7;BR-SCGRB01-OLT01-NK;1/1/3/8
EQP0000000008779749;I01G0062;CTO SPLITTER 1 8;SCGRB_G1I01;RUA CORAL GAROPABA CENTRO 88495000 SC 71;GAROPABA;-28.046800200;-48.644955600;G0;SCGRB-I01SP8;SCGRB-I01SP8-SS6;BR-SCGRB01-OLT01-NK;1/1/1/8
EQP0000000008098358;I01G0421;CTO SPLITTER 1 8;SCGRB_G1I01;RUA SANTA RITA GAROPABA CENTRO 88495000 SC 100;GAROPABA;-28.028108600;-48.619194600;G0;SCGRB-I01SP53;SCGRB-I01SP53-SS5;BR-SCGRB01-OLT01-NK;1/1/4/5
EQP0000000008656417;I01G0075;CTO SPLITTER 1 8;SCGRB_G1I01;RUA IVO JOAQUIM CARDOSO GAROPABA CENTRO 88495000 SC 565;GAROPABA;-28.047517100;-48.648710100;G0;SCGRB-I01SP10;SCGRB-I01SP10-SS3;BR-SCGRB01-OLT01-NK;1/1/1/10
EQP0000000008104350;I01G0413;CTO SPLITTER 1 8;SCGRB_G1I01;RUA SANTA RITA GAROPABA CENTRO 88495000 SC 575;GAROPABA;-28.032649100;-48.620138900;G0;SCGRB-I01SP52;SCGRB-I01SP52-SS5;BR-SCGRB01-OLT01-NK;1/1/4/4
EQP0000000008560696;I01GPT148;CTO SPLITTER 1 8;SCGRB_G1I01;RODOVIA SC 434 GAROPABA CENTRO 88495000 SC 3226 CS 15;GAROPABA;-28.044388700;-48.628876200;GPT;SCGRB-I01SP19;SCGRB-I01SP19-SS4;BR-SCGRB01-OLT01-NK;1/1/2/3
EQP0000000008716870;I01G0248;CTO SPLITTER 1 8;SCGRB_G1I01;RUA SEM NOME 12 GAROPABA CENTRO 88495000 SC SN;GAROPABA;-28.033787900;-48.639214700;G0;SCGRB-I01SP31;SCGRB-I01SP31-SS8;BR-SCGRB01-OLT01-NK;1/1/2/15
EQP0000000008709010;I01G0582;CTO SPLITTER 1 8;SCGRB_G1I01;RUA NEREU RAMOS GAROPABA CENTRO 88495000 SC 1465;GAROPABA;-28.023400400;-48.630688500;G0;SCGRB-I01SP73;SCGRB-I01SP73-SS6;BR-SCGRB01-OLT01-NK;1/1/5/9
EQP0000000014664224;I01G0281;CTO SPLITTER 1 8;SCGRB_G1I01;BECO SERVIDAO CASAN GAROPABA CENTRO 88495000 SC SN;GAROPABA;-28.026594200;-48.643555100;G0;SCGRB-I01SP36;SCGRB-I01SP36-SS1;BR-SCGRB01-OLT01-NK;1/1/3/4
EQP0000000008408966;I01G0091;CTO SPLITTER 1 8;SCGRB_G1I01;RUA OLAVIO PACHECO DE SOUZA GAROPABA AREIAS DE PALHOCINHA 88495000 SC 200;GAROPABA;-28.046267200;-48.638514300;G0;SCGRB-I01SP12;SCGRB-I01SP12-SS3;BR-SCGRB01-OLT01-NK;1/1/1/12
EQP0000000008657737;I01G0073;CTO SPLITTER 1 8;SCGRB_G1I01;RUA IVO JOAQUIM CARDOSO GAROPABA CENTRO 88495000 SC 590;GAROPABA;-28.048366900;-48.648855000;G0;SCGRB-I01SP10;SCGRB-I01SP10-SS1;BR-SCGRB01-OLT01-NK;1/1/1/10
EQP0000000008497798;I01G0552;CTO SPLITTER 1 8;SCGRB_G1I01;RUA GEOVANE LUIS PIUCO GAROPABA FERRAZ 88495000 SC 637;GAROPABA;-28.021208200;-48.626846600;G0;SCGRB-I01SP69;SCGRB-I01SP69-SS8;BR-SCGRB01-OLT01-NK;1/1/5/5
EQP0000000008717015;I01G0244;CTO SPLITTER 1 8;SCGRB_G1I01;RUA ANTOLINO ANSELMO CONSTANTE GAROPABA CENTRO 88495000 SC 56;GAROPABA;-28.032619500;-48.639438200;G0;SCGRB-I01SP31;SCGRB-I01SP31-SS4;BR-SCGRB01-OLT01-NK;1/1/2/15
EQP0000000008301016;I01G0017;CTO SPLITTER 1 8;SCGRB_G1I01;RUA JOSE IGNACIO PEREIRA GAROPABA AREIAS DA PALHOCINHA 88495000 SC SN1;GAROPABA;-28.055179200;-48.650809400;G0;SCGRB-I01SP3;SCGRB-I01SP3-SS1;BR-SCGRB01-OLT01-NK;1/1/1/3
EQP0000000014490939;I01G0277;CTO SPLITTER 1 8;SCGRB_G1I01;RUA LAJEADO GAROPABA CENTRO 88495000 SC 1528;GAROPABA;-28.031124800;-48.638025400;G0;SCGRB-I01SP35;SCGRB-I01SP35-SS5;BR-SCGRB01-OLT01-NK;1/1/3/3
EQP0000000008654296;I01G0079;CTO SPLITTER 1 8;SCGRB_G1I01;RUA RITA DE CASSIA CARVALHO MELLO GAROPABA CENTRO 88495000 SC 200;GAROPABA;-28.049029100;-48.643899100;G0;SCGRB-I01SP10;SCGRB-I01SP10-SS7;BR-SCGRB01-OLT01-NK;1/1/1/10
EQP0000000008122284;I01G0012;CTO SPLITTER 1 8;SCGRB_G1I01;RUA ROBERTO PEREIRA GAROPABA CENTRO 88495000 SC 26;GAROPABA;-28.051232900;-48.650603700;G0;SCGRB-I01SP2;SCGRB-I01SP2-SS4;BR-SCGRB01-OLT01-NK;1/1/1/2
EQP0000000008022998;I01G0383;CTO SPLITTER 1 8;SCGRB_G1I01;RUA JOSE CUSTODIO PEREIRA GAROPABA CENTRO 88495000 SC 328;GAROPABA;-28.030136800;-48.616462300;G0;SCGRB-I01SP48;SCGRB-I01SP48-SS7;BR-SCGRB01-OLT01-NK;1/1/3/16
EQP0000000008697950;I01G0605;CTO SPLITTER 1 8;SCGRB_G1I01;RUA ISMAEL LOBO GAROPABA CENTRO 88495000 SC 421;GAROPABA;-28.028008400;-48.627338400;G0;SCGRB-I01SP76;SCGRB-I01SP76-SS5;BR-SCGRB01-OLT01-NK;1/1/5/12
EQP0000000014724037;I01G0295;CTO SPLITTER 1 8;SCGRB_G1I01;RUA DAS CORUJAS GAROPABA CENTRO 88495000 SC 93;GAROPABA;-28.025235900;-48.638696900;G0;SCGRB-I01SP37;SCGRB-I01SP37-SS7;BR-SCGRB01-OLT01-NK;1/1/3/5
EQP0000000007947163;I01G0360;CTO SPLITTER 1 8;SCGRB_G1I01;RUA JOSE CUSTODIO PEREIRA GAROPABA CENTRO 88495000 SC 729;GAROPABA;-28.032614000;-48.618281700;G0;SCGRB-I01SP45;SCGRB-I01SP45-SS8;BR-SCGRB01-OLT01-NK;1/1/3/13
EQP0000000014327241;I01G0269;CTO SPLITTER 1 8;SCGRB_G1I01;RUA SETEMBRO DOS SANTOS GAROPABA CENTRO 88495000 SC SN;GAROPABA;-28.032231300;-48.629964200;G0;SCGRB-I01SP34;SCGRB-I01SP34-SS5;BR-SCGRB01-OLT01-NK;1/1/3/2
EQP0000000008100739;I01G0407;CTO SPLITTER 1 8;SCGRB_G1I01;RUA SEBASTIAO MESSIAS DE SOUZA GAROPABA CENTRO 88495000 SC 78;GAROPABA;-28.030160400;-48.619059700;G0;SCGRB-I01SP51;SCGRB-I01SP51-SS7;BR-SCGRB01-OLT01-NK;1/1/4/3
EQP0000000008258990;I01G0314;CTO SPLITTER 1 8;SCGRB_G1I01;RUA ILHA DO FAIAL GAROPABA CENTRO 88495000 SC 78;GAROPABA;-28.027637200;-48.638827400;G0;SCGRB-I01SP40;SCGRB-I01SP40-SS2;BR-SCGRB01-OLT01-NK;1/1/3/8
EQP0000000025258025;I01G0638;CTO - PAD TELEFONICA - B;SCGRB_G1I01;RUA TRINTA DE DEZEMBRO GAROPABA CENTRO 88495000 SC 20;GAROPABA;-28.026431900;-48.616349700;G0;SCGRB-I01SP80;SCGRB-I01SP80-SS5;BR-SCGRB01-OLT01-NK;1/1/5/16
EQP0000000025258025;I01G0638;CTO - PAD TELEFONICA - B;SCGRB_G1I01;RUA TRINTA DE DEZEMBRO GAROPABA CENTRO 88495000 SC 20;GAROPABA;-28.026431900;-48.616349700;G0;SCGRB-I01SP80;SCGRB-I01SP80-SS6;BR-SCGRB01-OLT01-NK;1/1/5/16
EQP0000000027406839;I01G0704;CTO - PAD TELEFONICA - B;SCGRB_G1I01;RODOVIA JOVINO PIUCCO GAROPABA AREIAS MACACU 88495000 SC 450;GAROPABA;-28.027634100;-48.624302300;G0;SCGRB-I01SP88;SCGRB-I01SP88-SS7;BR-SCGRB01-OLT01-NK;1/1/6/8
EQP0000000027406839;I01G0704;CTO - PAD TELEFONICA - B;SCGRB_G1I01;RODOVIA JOVINO PIUCCO GAROPABA AREIAS MACACU 88495000 SC 450;GAROPABA;-28.027634100;-48.624302300;G0;SCGRB-I01SP88;SCGRB-I01SP88-SS8;BR-SCGRB01-OLT01-NK;1/1/6/8
EQP0000000008355754;I01G0532;CTO SPLITTER 1 8;SCGRB_G1I01;RUA CARIBE GAROPABA CENTRO 88495000 SC 47;GAROPABA;-28.019699300;-48.628011600;G0;SCGRB-I01SP67;SCGRB-I01SP67-SS4;BR-SCGRB01-OLT01-NK;1/1/5/3
EQP0000000008355604;I01G0535;CTO SPLITTER 1 8;SCGRB_G1I01;RUA ANSELMO ARAUJO DE AMORIM GAROPABA FERRAZ 88495000 SC 845;GAROPABA;-28.020715000;-48.628998900;G0;SCGRB-I01SP67;SCGRB-I01SP67-SS7;BR-SCGRB01-OLT01-NK;1/1/5/3
EQP0000000014491185;I01G0275;CTO SPLITTER 1 8;SCGRB_G1I01;RUA PINGUIRITO GAROPABA CENTRO 88495000 SC SN;GAROPABA;-28.032176600;-48.633909900;G0;SCGRB-I01SP35;SCGRB-I01SP35-SS3;BR-SCGRB01-OLT01-NK;1/1/3/3
EQP0000000008549234;I01G0140;CTO SPLITTER 1 8;SCGRB_G1I01;RUA PAULINO FURTADO GAROPABA CENTRO 88495000 SC 26;GAROPABA;-28.047107300;-48.629548400;G0;SCGRB-I01SP18;SCGRB-I01SP18-SS4;BR-SCGRB01-OLT01-NK;1/1/2/2
EQP0000000038487497;I01GP394;MINI CDOE 1:2 + 1:8 PRECON SELADA 70/30;SCGRB_G1I01;RUA MARQUES GUIMARAES GAROPABA CENTRO 88495000 SC 435;GAROPABA;-28.027599600;-48.617857900;GP;SCGRB-I01SP50;SCGRB-I01SP50-SS2;BR-SCGRB01-OLT01-NK;1/1/4/2
EQP0000000008408301;I01G0225;CTO SPLITTER 1 8;SCGRB_G1I01;RUA DEPUTADO EPITACIO BITTENCOURT GAROPABA CENTRO 88495000 SC 213;GAROPABA;-28.034086300;-48.632302700;G0;SCGRB-I01SP29;SCGRB-I01SP29-SS1;BR-SCGRB01-OLT01-NK;1/1/2/13
EQP0000000008271275;I01G0323;CTO SPLITTER 1 8;SCGRB_G1I01;RUA ILHA DO CORVO GAROPABA CENTRO 88495000 SC 203;GAROPABA;-28.027511000;-48.634357000;G0;SCGRB-I01SP41;SCGRB-I01SP41-SS3;BR-SCGRB01-OLT01-NK;1/1/3/9
EQP0000000014724919;I01G0290;CTO SPLITTER 1 8;SCGRB_G1I01;RUA SEM NOME 25 GAROPABA CENTRO 88495000 SC SN;GAROPABA;-28.022880200;-48.644535200;G0;SCGRB-I01SP37;SCGRB-I01SP37-SS2;BR-SCGRB01-OLT01-NK;1/1/3/5
EQP0000000019812217;I01G0632;CTO - PAD TEL-B-70/30;SCGRB_G1I01;RUA ADERBAL RAMOS DA SILVA GAROPABA CENTRO 88495000 SC 18;GAROPABA;-28.024577900;-48.616968400;G0;SCGRB-I01SP79;SCGRB-I01SP79-SS7;BR-SCGRB01-OLT01-NK;1/1/5/15
EQP0000000019812217;I01G0632;CTO - PAD TEL-B-70/30;SCGRB_G1I01;RUA ADERBAL RAMOS DA SILVA GAROPABA CENTRO 88495000 SC 18;GAROPABA;-28.024577900;-48.616968400;G0;SCGRB-I01SP79;SCGRB-I01SP79-SS8;BR-SCGRB01-OLT01-NK;1/1/5/15
EQP0000000008709049;I01G0581;CTO SPLITTER 1 8;SCGRB_G1I01;RUA NEREU RAMOS GAROPABA CENTRO 88495000 SC 1184;GAROPABA;-28.023223000;-48.631972000;G0;SCGRB-I01SP73;SCGRB-I01SP73-SS5;BR-SCGRB01-OLT01-NK;1/1/5/9
EQP0000000008758339;I01G0154;CTO SPLITTER 1 8;SCGRB_G1I01;RODOVIA SC 434 GAROPABA CENTRO 88495000 SC 1681;GAROPABA;-28.040073300;-48.623493200;G0;SCGRB-I01SP20;SCGRB-I01SP20-SS2;BR-SCGRB01-OLT01-NK;1/1/2/4
EQP0000000008353418;I01G0622;CTO SPLITTER 1 8;SCGRB_G1I01;RUA ADERBAL RAMOS DA SILVA GAROPABA CENTRO 88495000 SC 471;GAROPABA;-28.024875300;-48.612498800;G0;SCGRB-I01SP78;SCGRB-I01SP78-SS6;BR-SCGRB01-OLT01-NK;1/1/5/14
EQP0000000008697216;I01G0607;CTO SPLITTER 1 8;SCGRB_G1I01;RUA ISMAEL LOBO GAROPABA CENTRO 88495000 SC 506;GAROPABA;-28.028176500;-48.626162900;G0;SCGRB-I01SP76;SCGRB-I01SP76-SS7;BR-SCGRB01-OLT01-NK;1/1/5/12
EQP0000000008128023;I01G0010;CTO SPLITTER 1 8;SCGRB_G1I01;RUA MANOEL FRANCISCO PEREIRA GAROPABA CENTRO 88495000 SC SN;GAROPABA;-28.051703500;-48.652075400;G0;SCGRB-I01SP2;SCGRB-I01SP2-SS2;BR-SCGRB01-OLT01-NK;1/1/1/2
EQP0000000008460952;I01G0116;CTO SPLITTER 1 8;SCGRB_G1I01;RUA JOB INACIO FURTADO GAROPABA CENTRO 88495000 SC 59;GAROPABA;-28.046958800;-48.632662000;G0;SCGRB-I01SP15;SCGRB-I01SP15-SS4;BR-SCGRB01-OLT01-NK;1/1/1/15
EQP0000000008454020;I01G0235;CTO SPLITTER 1 8;SCGRB_G1I01;RUA MARCOS BERNARDINO RODRIGUES GAROPABA CENTRO 88495000 SC 356;GAROPABA;-28.029915900;-48.641928400;G0;SCGRB-I01SP30;SCGRB-I01SP30-SS3;BR-SCGRB01-OLT01-NK;1/1/2/14
EQP0000000014327430;I01G0266;CTO SPLITTER 1 8;SCGRB_G1I01;RUA GALEAO GAROPABA CENTRO 88495000 SC 121;GAROPABA;-28.033265700;-48.631602200;G0;SCGRB-I01SP34;SCGRB-I01SP34-SS2;BR-SCGRB01-OLT01-NK;1/1/3/2
EQP0000000026154280;I01G0586;CTO - PAD TELEFONICA - B;SCGRB_G1I01;RODOVIA DOS ACORES GAROPABA AMBROSIO DE DENTRO 88495000 SC 295;GAROPABA;-28.028930300;-48.631257100;G0;SCGRB-I01SP74;SCGRB-I01SP74-SS1;BR-SCGRB01-OLT01-NK;1/1/5/10
EQP0000000026154280;I01G0586;CTO - PAD TELEFONICA - B;SCGRB_G1I01;RODOVIA DOS ACORES GAROPABA AMBROSIO DE DENTRO 88495000 SC 295;GAROPABA;-28.028930300;-48.631257100;G0;SCGRB-I01SP74;SCGRB-I01SP74-SS2;BR-SCGRB01-OLT01-NK;1/1/5/10
EQP0000000008633973;I01G0071;CTO SPLITTER 1 8;SCGRB_G1I01;RUA JOAO CARDOSO GAROPABA CENTRO 88495000 SC 444;GAROPABA;-28.049115700;-48.646834700;G0;SCGRB-I01SP9;SCGRB-I01SP9-SS7;BR-SCGRB01-OLT01-NK;1/1/1/9
EQP0000000027420588;I01G0700;CTO - PAD TELEFONICA - B;SCGRB_G1I01;RODOVIA JOVINO PIUCCO GAROPABA AREIAS MACACU 88495000 SC 230;GAROPABA;-28.027940300;-48.622177000;G0;SCGRB-I01SP88;SCGRB-I01SP88-SS3;BR-SCGRB01-OLT01-NK;1/1/6/8
EQP0000000027420588;I01G0700;CTO - PAD TELEFONICA - B;SCGRB_G1I01;RODOVIA JOVINO PIUCCO GAROPABA AREIAS MACACU 88495000 SC 230;GAROPABA;-28.027940300;-48.622177000;G0;SCGRB-I01SP88;SCGRB-I01SP88-SS4;BR-SCGRB01-OLT01-NK;1/1/6/8
EQP0000000008578411;I01G0455;CTO SPLITTER 1 8;SCGRB_G1I01;RUA SEM NOME 74 GAROPABA CENTRO 88495000 SC SN;GAROPABA;-28.006980100;-48.641250600;G0;SCGRB-I01SP57;SCGRB-I01SP57-SS7;BR-SCGRB01-OLT01-NK;1/1/4/9
EQP0000000008352296;I01G0213;CTO SPLITTER 1 8;SCGRB_G1I01;RUA ALVARO ERNESTO DOS SANTOS GAROPABA JARDIM PANORAMICO 88495000 SC 79;GAROPABA;-28.031503500;-48.622611900;G0;SCGRB-I01SP27;SCGRB-I01SP27-SS5;BR-SCGRB01-OLT01-NK;1/1/2/11
EQP0000000008389771;I01G0100;CTO SPLITTER 1 8;SCGRB_G1I01;RUA SERVIDAO PMG 298 GAROPABA AREIAS DE PALHOCINHA 88495000 SC SN;GAROPABA;-28.045316900;-48.636652300;G0;SCGRB-I01SP13;SCGRB-I01SP13-SS4;BR-SCGRB01-OLT01-NK;1/1/1/13
EQP0000000008024348;I01G0381;CTO SPLITTER 1 8;SCGRB_G1I01;RUA TOMAZIA FAUSTINA DA CONCEICAO GAROPABA CENTRO 88495000 SC 238;GAROPABA;-28.029559100;-48.615305200;G0;SCGRB-I01SP48;SCGRB-I01SP48-SS5;BR-SCGRB01-OLT01-NK;1/1/3/16
EQP0000000008101380;I01G0405;CTO SPLITTER 1 8;SCGRB_G1I01;RUA TEODORO OLAVIO PACHECO GAROPABA CENTRO 88495000 SC 140;GAROPABA;-28.030890400;-48.618509600;G0;SCGRB-I01SP51;SCGRB-I01SP51-SS5;BR-SCGRB01-OLT01-NK;1/1/4/3
EQP0000000008405444;I01G0232;CTO SPLITTER 1 8;SCGRB_G1I01;RUA DO TRAVESSAO GAROPABA AMBROSIO 88495000 SC 305;GAROPABA;-28.033951000;-48.638538000;G0;SCGRB-I01SP29;SCGRB-I01SP29-SS8;BR-SCGRB01-OLT01-NK;1/1/2/13
EQP0000000014491035;I01G0276;CTO SPLITTER 1 8;SCGRB_G1I01;RUA LAJEADO GAROPABA CENTRO 88495000 SC 1392;GAROPABA;-28.031333700;-48.636542900;G0;SCGRB-I01SP35;SCGRB-I01SP35-SS4;BR-SCGRB01-OLT01-NK;1/1/3/3
EQP0000000008294017;I01G0023;CTO SPLITTER 1 8;SCGRB_G1I01;RODOVIA SC 434 GAROPABA CENTRO 88495000 SC SN1;GAROPABA;-28.051725100;-48.647096900;G0;SCGRB-I01SP3;SCGRB-I01SP3-SS7;BR-SCGRB01-OLT01-NK;1/1/1/3
EQP0000000008780777;I01G0058;CTO SPLITTER 1 8;SCGRB_G1I01;RUA SEM NOME 47 GAROPABA CENTRO 88495000 SC SN;GAROPABA;-28.044730300;-48.645429600;G0;SCGRB-I01SP8;SCGRB-I01SP8-SS2;BR-SCGRB01-OLT01-NK;1/1/1/8
EQP0000000008389494;I01G0101;CTO SPLITTER 1 8;SCGRB_G1I01;RUA JOAQUIM MANOEL SERAFIM GAROPABA CENTRO 88495000 SC 125;GAROPABA;-28.046046500;-48.635810300;G0;SCGRB-I01SP13;SCGRB-I01SP13-SS5;BR-SCGRB01-OLT01-NK;1/1/1/13
EQP0000000008109282;I01G0002;CTO SPLITTER 1 8;SCGRB_G1I01;RODOVIA SC 434 GAROPABA CENTRO 88495000 SC 98;GAROPABA;-28.057053000;-48.657026800;G0;SCGRB-I01SP1;SCGRB-I01SP1-SS2;BR-SCGRB01-OLT01-NK;1/1/1/1
EQP0000000014663679;I01G0285;CTO SPLITTER 1 8;SCGRB_G1I01;RODOVIA DOS ACORES GAROPABA AMBROSIO DE DENTRO 88495000 SC SN;GAROPABA;-28.025590500;-48.644929700;G0;SCGRB-I01SP36;SCGRB-I01SP36-SS5;BR-SCGRB01-OLT01-NK;1/1/3/4
EQP0000000008568785;I01G0083;CTO SPLITTER 1 8;SCGRB_G1I01;RODOVIA SC 434 GAROPABA CENTRO 88495000 SC 4033;GAROPABA;-28.050463300;-48.644154000;G0;SCGRB-I01SP11;SCGRB-I01SP11-SS3;BR-SCGRB01-OLT01-NK;1/1/1/11
EQP0000000008138794;I01G0029;CTO SPLITTER 1 8;SCGRB_G1I01;RUA HILARIO FERNANDES PACHECO GAROPABA CENTRO 88495000 SC 417;GAROPABA;-28.051971600;-48.642598300;G0;SCGRB-I01SP4;SCGRB-I01SP4-SS5;BR-SCGRB01-OLT01-NK;1/1/1/4
EQP0000000008023121;I01G0382;CTO SPLITTER 1 8;SCGRB_G1I01;RUA SIMPLICIO RODAO DO NASCIMENTO GAROPABA JARDIM PANORAMICO 88495000 SC 176;GAROPABA;-28.030385600;-48.615861200;G0;SCGRB-I01SP48;SCGRB-I01SP48-SS6;BR-SCGRB01-OLT01-NK;1/1/3/16
EQP0000000008698723;I01G0055;CTO SPLITTER 1 8;SCGRB_G1I01;RUA DIAMANTE GAROPABA CENTRO 88495000 SC 95;GAROPABA;-28.047758600;-48.646198000;G0;SCGRB-I01SP7;SCGRB-I01SP7-SS7;BR-SCGRB01-OLT01-NK;1/1/1/7
EQP0000000008453608;I01G0237;CTO SPLITTER 1 8;SCGRB_G1I01;RUA LAJEADO GAROPABA CENTRO 88495000 SC 1930;GAROPABA;-28.030593300;-48.641990600;G0;SCGRB-I01SP30;SCGRB-I01SP30-SS5;BR-SCGRB01-OLT01-NK;1/1/2/14
EQP0000000008576579;I01G0458;CTO SPLITTER 1 8;SCGRB_G1I01;RUA MANOEL AMORIM GAROPABA CENTRO 88495000 SC SN;GAROPABA;-28.012926100;-48.641859400;G0;SCGRB-I01SP58;SCGRB-I01SP58-SS2;BR-SCGRB01-OLT01-NK;1/1/4/10
EQP0000000008490673;I01G0473;CTO SPLITTER 1 8;SCGRB_G1I01;RUA DAS AMENDOEIRAS GAROPABA CENTRO 88495000 SC 531;GAROPABA;-28.018286600;-48.626506700;G0;SCGRB-I01SP60;SCGRB-I01SP60-SS1;BR-SCGRB01-OLT01-NK;1/1/4/12
EQP0000000008716944;I01G0246;CTO SPLITTER 1 8;SCGRB_G1I01;RUA SEM NOME 11 GAROPABA CENTRO 88495000 SC SN;GAROPABA;-28.033109900;-48.640265000;G0;SCGRB-I01SP31;SCGRB-I01SP31-SS6;BR-SCGRB01-OLT01-NK;1/1/2/15
EQP0000000008780682;I01G0059;CTO SPLITTER 1 8;SCGRB_G1I01;RUA SEM NOME 48 GAROPABA CENTRO 88495000 SC 310;GAROPABA;-28.045090500;-48.646801000;G0;SCGRB-I01SP8;SCGRB-I01SP8-SS3;BR-SCGRB01-OLT01-NK;1/1/1/8
EQP0000000014724835;I01G0291;CTO SPLITTER 1 8;SCGRB_G1I01;RUA SEM NOME 24 GAROPABA CENTRO 88495000 SC SN;GAROPABA;-28.023773300;-48.644966000;G0;SCGRB-I01SP37;SCGRB-I01SP37-SS3;BR-SCGRB01-OLT01-NK;1/1/3/5
EQP0000000008513528;I01G0560;CTO SPLITTER 1 8;SCGRB_G1I01;RUA NEREU RAMOS GAROPABA CENTRO 88495000 SC 808;GAROPABA;-28.023808500;-48.627844000;G0;SCGRB-I01SP70;SCGRB-I01SP70-SS8;BR-SCGRB01-OLT01-NK;1/1/5/6
EQP0000000014327173;I01G0270;CTO SPLITTER 1 8;SCGRB_G1I01;RUA LAJEADO GAROPABA CENTRO 88495000 SC 604;GAROPABA;-28.032402100;-48.628730400;G0;SCGRB-I01SP34;SCGRB-I01SP34-SS6;BR-SCGRB01-OLT01-NK;1/1/3/2
EQP0000000008110840;I01G0001;CTO SPLITTER 1 8;SCGRB_G1I01;RUA LUIZ ZANELLATO GAROPABA CENTRO 88495000 SC 43;GAROPABA;-28.056875200;-48.658214600;G0;SCGRB-I01SP1;SCGRB-I01SP1-SS1;BR-SCGRB01-OLT01-NK;1/1/1/1
EQP0000000008286235;I01G0711;CTO SPLITTER 1 8;SCGRB_G1I01;RUA ISMAEL LOBO GAROPABA CENTRO 88495000 SC 212;GAROPABA;-28.028579100;-48.623311900;G0;SCGRB-I01SP89;SCGRB-I01SP89-SS7;BR-SCGRB01-OLT01-NK;1/1/6/9
EQP0000000008453047;I01G0239;CTO SPLITTER 1 8;SCGRB_G1I01;RUA FERNANDA PACHECO DA SILVA GAROPABA CENTRO 88495000 SC 364;GAROPABA;-28.031664400;-48.642168600;G0;SCGRB-I01SP30;SCGRB-I01SP30-SS7;BR-SCGRB01-OLT01-NK;1/1/2/14
EQP0000000008352070;I01G0214;CTO SPLITTER 1 8;SCGRB_G1I01;RUA JOSINA AMELIA DA SILVEIRA GAROPABA CENTRO 88495000 SC 106;GAROPABA;-28.031874700;-48.623208100;G0;SCGRB-I01SP27;SCGRB-I01SP27-SS6;BR-SCGRB01-OLT01-NK;1/1/2/11
EQP0000000008353337;I01G0219;CTO SPLITTER 1 8;SCGRB_G1I01;RUA PINGUIRITO GAROPABA CENTRO 88495000 SC 562;GAROPABA;-28.032939100;-48.628409100;G0;SCGRB-I01SP28;SCGRB-I01SP28-SS3;BR-SCGRB01-OLT01-NK;1/1/2/12
EQP0000000008409480;I01G0090;CTO SPLITTER 1 8;SCGRB_G1I01;RUA JOAO JOB FURTADO GAROPABA CENTRO 88495000 SC 13;GAROPABA;-28.046594800;-48.639660600;G0;SCGRB-I01SP12;SCGRB-I01SP12-SS2;BR-SCGRB01-OLT01-NK;1/1/1/12
EQP0000000008502516;I01G0136;CTO SPLITTER 1 8;SCGRB_G1I01;RUA PAULINO FURTADO GAROPABA CENTRO 88495000 SC 58;GAROPABA;-28.048092800;-48.626228800;G0;SCGRB-I01SP17;SCGRB-I01SP17-SS8;BR-SCGRB01-OLT01-NK;1/1/2/1
EQP0000000008101583;I01G0404;CTO SPLITTER 1 8;SCGRB_G1I01;AVENIDA BATISTA PACHECO PEREIRA GAROPABA CENTRO 88495000 SC 674;GAROPABA;-28.032187100;-48.618746600;G0;SCGRB-I01SP51;SCGRB-I01SP51-SS4;BR-SCGRB01-OLT01-NK;1/1/4/3
EQP0000000027267426;I01G0656;CTO - PAD TELEFONICA - B;SCGRB_G1I01;RUA PREFEITO JOAO ORESTES DE ARAUJO GAROPABA CENTRO 88495000 SC 285;GAROPABA;-28.024384200;-48.619990600;G0;SCGRB-I01SP82;SCGRB-I01SP82-SS7;BR-SCGRB01-OLT01-NK;1/1/6/2
EQP0000000027267426;I01G0656;CTO - PAD TELEFONICA - B;SCGRB_G1I01;RUA PREFEITO JOAO ORESTES DE ARAUJO GAROPABA CENTRO 88495000 SC 285;GAROPABA;-28.024384200;-48.619990600;G0;SCGRB-I01SP82;SCGRB-I01SP82-SS8;BR-SCGRB01-OLT01-NK;1/1/6/2
EQP0000000008377380;I01G0108;CTO SPLITTER 1 8;SCGRB_G1I01;RUA DAS ARACUAS GAROPABA CENTRO 88495000 SC 22;GAROPABA;-28.043631700;-48.636294600;G0;SCGRB-I01SP14;SCGRB-I01SP14-SS4;BR-SCGRB01-OLT01-NK;1/1/1/14
EQP0000000008352269;I01G0212;CTO SPLITTER 1 8;SCGRB_G1I01;RUA ALVARO ERNESTO DOS SANTOS GAROPABA JARDIM PANORAMICO 88495000 SC 185;GAROPABA;-28.031324000;-48.623792200;G0;SCGRB-I01SP27;SCGRB-I01SP27-SS4;BR-SCGRB01-OLT01-NK;1/1/2/11
EQP0000000008454625;I01G0233;CTO SPLITTER 1 8;SCGRB_G1I01;RUA MARCOS BERNARDINO RODRIGUES GAROPABA CENTRO 88495000 SC 55;GAROPABA;-28.030326700;-48.639056900;G0;SCGRB-I01SP30;SCGRB-I01SP30-SS1;BR-SCGRB01-OLT01-NK;1/1/2/14
EQP0000000008569198;I01G0082;CTO SPLITTER 1 8;SCGRB_G1I01;RODOVIA SC 434 GAROPABA CENTRO 88495000 SC 4221;GAROPABA;-28.051331100;-48.646429000;G0;SCGRB-I01SP11;SCGRB-I01SP11-SS2;BR-SCGRB01-OLT01-NK;1/1/1/11
EQP0000000008104919;I01G0411;CTO SPLITTER 1 8;SCGRB_G1I01;RUA RIO GRANDE DO SUL GAROPABA CENTRO 88495000 SC 65;GAROPABA;-28.032815700;-48.622058200;G0;SCGRB-I01SP52;SCGRB-I01SP52-SS3;BR-SCGRB01-OLT01-NK;1/1/4/4
EQP0000000038519575;I01GP659;MINI CDOE 1:2 + 1:8 PRECON SELADA 70/30;SCGRB_G1I01;RUA PREFEITO JOAO ORESTES DE ARAUJO GAROPABA CENTRO 88495000 SC 350;GAROPABA;-28.025692700;-48.620425100;GP;SCGRB-I01SP83;SCGRB-I01SP83-SS3;BR-SCGRB01-OLT01-NK;1/1/6/3
EQP0000000008475985;I01G0479;CTO SPLITTER 1 8;SCGRB_G1I01;RUA DAS AMENDOEIRAS GAROPABA CENTRO 88495000 SC 48;GAROPABA;-28.014726800;-48.628808400;G0;SCGRB-I01SP60;SCGRB-I01SP60-SS7;BR-SCGRB01-OLT01-NK;1/1/4/12
EQP0000000008459798;I01G0119;CTO SPLITTER 1 8;SCGRB_G1I01;RUA SEM NOME 43 GAROPABA CENTRO 88495000 SC 62;GAROPABA;-28.048077900;-48.635628200;G0;SCGRB-I01SP15;SCGRB-I01SP15-SS7;BR-SCGRB01-OLT01-NK;1/1/1/15
EQP0000000008498825;I01G0550;CTO SPLITTER 1 8;SCGRB_G1I01;RUA ROZALINA DE AGUIAR LENTZ GAROPABA CENTRO 88495000 SC 160_CS9;GAROPABA;-28.021749200;-48.625042600;G0;SCGRB-I01SP69;SCGRB-I01SP69-SS6;BR-SCGRB01-OLT01-NK;1/1/5/5
EQP0000000008104726;I01G0412;CTO SPLITTER 1 8;SCGRB_G1I01;RUA RIO GRANDE DO SUL GAROPABA CENTRO 88495000 SC 161;GAROPABA;-28.033000700;-48.620671400;G0;SCGRB-I01SP52;SCGRB-I01SP52-SS4;BR-SCGRB01-OLT01-NK;1/1/4/4
EQP0000000008503469;I01G0130;CTO SPLITTER 1 8;SCGRB_G1I01;RUA SEM NOME 53 GAROPABA CENTRO 88495000 SC 92;GAROPABA;-28.043060600;-48.623107100;G0;SCGRB-I01SP17;SCGRB-I01SP17-SS2;BR-SCGRB01-OLT01-NK;1/1/2/1
EQP0000000008716908;I01G0247;CTO SPLITTER 1 8;SCGRB_G1I01;RUA SEM NOME 12 GAROPABA CENTRO 88495000 SC SN;GAROPABA;-28.033555200;-48.640586800;G0;SCGRB-I01SP31;SCGRB-I01SP31-SS7;BR-SCGRB01-OLT01-NK;1/1/2/15
EQP0000000008355639;I01G0534;CTO SPLITTER 1 8;SCGRB_G1I01;RUA SAPUCAIA GAROPABA CENTRO 88495000 SC 733;GAROPABA;-28.020690400;-48.627855000;G0;SCGRB-I01SP67;SCGRB-I01SP67-SS6;BR-SCGRB01-OLT01-NK;1/1/5/3
EQP0000000008459422;I01G0120;CTO SPLITTER 1 8;SCGRB_G1I01;RODOVIA SC 434 GAROPABA CENTRO 88495000 SC 3577;GAROPABA;-28.046916600;-48.634522800;G0;SCGRB-I01SP15;SCGRB-I01SP15-SS8;BR-SCGRB01-OLT01-NK;1/1/1/15
EQP0000000007948837;I01G0354;CTO SPLITTER 1 8;SCGRB_G1I01;RUA RIO GRANDE DO SUL GAROPABA CENTRO 88495000 SC 80;GAROPABA;-28.034849000;-48.614554300;G0;SCGRB-I01SP45;SCGRB-I01SP45-SS2;BR-SCGRB01-OLT01-NK;1/1/3/13
EQP0000000007781092;I01G0464;CTO SPLITTER 1 8;SCGRB_G1I01;RUA ALISSON DA SILVA AMORIM GAROPABA MACACU 88495000 SC SN;GAROPABA;-28.009226100;-48.640895900;G0;SCGRB-I01SP58;SCGRB-I01SP58-SS8;BR-SCGRB01-OLT01-NK;1/1/4/10
EQP0000000007947454;I01G0359;CTO SPLITTER 1 8;SCGRB_G1I01;RUA SIMPLICIO RODAO DO NASCIMENTO GAROPABA JARDIM PANORAMICO 88495000 SC 490;GAROPABA;-28.032772500;-48.617617600;G0;SCGRB-I01SP45;SCGRB-I01SP45-SS7;BR-SCGRB01-OLT01-NK;1/1/3/13
EQP0000000027399428;I01G0686;CTO - PAD TELEFONICA - B;SCGRB_G1I01;RUA FRANCISCO PACHECO DE SOUZA GAROPABA CENTRO 88495000 SC 110;GAROPABA;-28.026732400;-48.620570500;G0;SCGRB-I01SP86;SCGRB-I01SP86-SS5;BR-SCGRB01-OLT01-NK;1/1/6/6
EQP0000000027399428;I01G0686;CTO - PAD TELEFONICA - B;SCGRB_G1I01;RUA FRANCISCO PACHECO DE SOUZA GAROPABA CENTRO 88495000 SC 110;GAROPABA;-28.026732400;-48.620570500;G0;SCGRB-I01SP86;SCGRB-I01SP86-SS6;BR-SCGRB01-OLT01-NK;1/1/6/6
EQP0000000008514739;I01G0567;CTO SPLITTER 1 8;SCGRB_G1I01;RUA MANOEL GEREMIAS DE PAULA GAROPABA CENTRO 88495000 SC 418;GAROPABA;-28.025240000;-48.628594100;G0;SCGRB-I01SP71;SCGRB-I01SP71-SS7;BR-SCGRB01-OLT01-NK;1/1/5/7
EQP0000000008375674;I01G0109;CTO SPLITTER 1 8;SCGRB_G1I01;RUA MIL E TREZENTOS GAROPABA CENTRO 88495000 SC 334;GAROPABA;-28.045107700;-48.636384000;G0;SCGRB-I01SP14;SCGRB-I01SP14-SS5;BR-SCGRB01-OLT01-NK;1/1/1/14
EQP0000000027133780;I01G0264;CTO - PAD TELEFONICA - B;SCGRB_G1I01;RUA SEM NOME 18 GAROPABA CENTRO 88495000 SC 600;GAROPABA;-28.034770200;-48.639012300;G0;SCGRB-I01SP33;SCGRB-I01SP33-SS7;BR-SCGRB01-OLT01-NK;1/1/3/1
EQP0000000027133780;I01G0264;CTO - PAD TELEFONICA - B;SCGRB_G1I01;RUA SEM NOME 18 GAROPABA CENTRO 88495000 SC 600;GAROPABA;-28.034770200;-48.639012300;G0;SCGRB-I01SP33;SCGRB-I01SP33-SS8;BR-SCGRB01-OLT01-NK;1/1/3/1
EQP0000000008299139;I01G0019;CTO SPLITTER 1 8;SCGRB_G1I01;RODOVIA SC 434 GAROPABA CENTRO 88495000 SC 5373;GAROPABA;-28.053413800;-48.651530500;G0;SCGRB-I01SP3;SCGRB-I01SP3-SS3;BR-SCGRB01-OLT01-NK;1/1/1/3
EQP0000000008352202;I01G0209;CTO SPLITTER 1 8;SCGRB_G1I01;RUA ALVARO ERNESTO DOS SANTOS GAROPABA JARDIM PANORAMICO 88495000 SC 527;GAROPABA;-28.030892600;-48.627203600;G0;SCGRB-I01SP27;SCGRB-I01SP27-SS1;BR-SCGRB01-OLT01-NK;1/1/2/11
EQP0000000008812227;I01GPT511;CTO SPLITTER 1 8;SCGRB_G1I01;RODOVIA JOVINO PIUCCO GAROPABA AREIAS MACACU 88495000 SC 1885;GAROPABA;-28.017445900;-48.630419700;GPT;SCGRB-I01SP64;SCGRB-I01SP64-SS7;BR-SCGRB01-OLT01-NK;1/1/4/16
EQP0000000008142791;I01G0039;CTO SPLITTER 1 8;SCGRB_G1I01;RODOVIA SC 434 GAROPABA CENTRO 88495000 SC 3800;GAROPABA;-28.049648900;-48.641667900;G0;SCGRB-I01SP5;SCGRB-I01SP5-SS7;BR-SCGRB01-OLT01-NK;1/1/1/5
EQP0000000014663494;I01G0286;CTO SPLITTER 1 8;SCGRB_G1I01;RODOVIA DOS ACORES GAROPABA AMBROSIO DE DENTRO 88495000 SC SN;GAROPABA;-28.025335900;-48.643637400;G0;SCGRB-I01SP36;SCGRB-I01SP36-SS6;BR-SCGRB01-OLT01-NK;1/1/3/4
EQP0000000008105713;I01G0005;CTO SPLITTER 1 8;SCGRB_G1I01;RUA LUIZ ZANELLATO GAROPABA CENTRO 88495000 SC SN;GAROPABA;-28.055574600;-48.657406800;G0;SCGRB-I01SP1;SCGRB-I01SP1-SS5;BR-SCGRB01-OLT01-NK;1/1/1/1
EQP0000000008810992;I01G0512;CTO SPLITTER 1 8;SCGRB_G1I01;RODOVIA JOVINO PIUCCO GAROPABA AREIAS MACACU 88495000 SC 1885;GAROPABA;-28.017994400;-48.628967200;G0;SCGRB-I01SP64;SCGRB-I01SP64-SS8;BR-SCGRB01-OLT01-NK;1/1/4/16
EQP0000000008237584;I01G0310;CTO SPLITTER 1 8;SCGRB_G1I01;RUA SEM NOME 2 GAROPABA CENTRO 88495000 SC SN;GAROPABA;-28.028710500;-48.640767600;G0;SCGRB-I01SP39;SCGRB-I01SP39-SS6;BR-SCGRB01-OLT01-NK;1/1/3/7
EQP0000000008290797;I01G0036;CTO SPLITTER 1 8;SCGRB_G1I01;RODOVIA SC 434 GAROPABA CENTRO 88495000 SC 3629;GAROPABA;-28.048622800;-48.638974100;G0;SCGRB-I01SP5;SCGRB-I01SP5-SS4;BR-SCGRB01-OLT01-NK;1/1/1/5
EQP0000000008108281;I01G0438;CTO SPLITTER 1 8;SCGRB_G1I01;RUA DOUTOR ELMO KINSESKI GAROPABA CENTRO 88495000 SC 961;GAROPABA;-28.030330500;-48.623083000;G0;SCGRB-I01SP55;SCGRB-I01SP55-SS6;BR-SCGRB01-OLT01-NK;1/1/4/7
EQP0000000027422249;I01G0720;CTO - PAD TELEFONICA - B;SCGRB_G1I01;RUA ALTA FREITAS NAUCK GAROPABA CENTRO 88495000 SC 653;GAROPABA;-28.027822900;-48.625247300;G0;SCGRB-I01SP90;SCGRB-I01SP90-SS7;BR-SCGRB01-OLT01-NK;1/1/6/10
EQP0000000027422249;I01G0720;CTO - PAD TELEFONICA - B;SCGRB_G1I01;RUA ALTA FREITAS NAUCK GAROPABA CENTRO 88495000 SC 653;GAROPABA;-28.027822900;-48.625247300;G0;SCGRB-I01SP90;SCGRB-I01SP90-SS8;BR-SCGRB01-OLT01-NK;1/1/6/10
EQP0000000008698305;I01G0602;CTO SPLITTER 1 8;SCGRB_G1I01;RUA ISMAEL LOBO GAROPABA CENTRO 88495000 SC 1120;GAROPABA;-28.027349200;-48.631913900;G0;SCGRB-I01SP76;SCGRB-I01SP76-SS2;BR-SCGRB01-OLT01-NK;1/1/5/12
EQP0000000008025086;I01G0379;CTO SPLITTER 1 8;SCGRB_G1I01;RUA JOSE CUSTODIO PEREIRA GAROPABA CENTRO 88495000 SC 100;GAROPABA;-28.028617100;-48.615417700;G0;SCGRB-I01SP48;SCGRB-I01SP48-SS3;BR-SCGRB01-OLT01-NK;1/1/3/16
EQP0000000008237943;I01G0309;CTO SPLITTER 1 8;SCGRB_G1I01;RUA SEM NOME 85 GAROPABA CENTRO 88495000 SC SN;GAROPABA;-28.029358700;-48.638291400;G0;SCGRB-I01SP39;SCGRB-I01SP39-SS5;BR-SCGRB01-OLT01-NK;1/1/3/7
EQP0000000027192511;I01G0338;CTO - PAD TELEFONICA - B;SCGRB_G1I01;RUA NICOLAU MANOEL DE ABREU GAROPABA CENTRO 88495000 SC 310;GAROPABA;-28.030635400;-48.631728500;G0;SCGRB-I01SP43;SCGRB-I01SP43-SS1;BR-SCGRB01-OLT01-NK;1/1/3/11
EQP0000000027192511;I01G0338;CTO - PAD TELEFONICA - B;SCGRB_G1I01;RUA NICOLAU MANOEL DE ABREU GAROPABA CENTRO 88495000 SC 310;GAROPABA;-28.030635400;-48.631728500;G0;SCGRB-I01SP43;SCGRB-I01SP43-SS2;BR-SCGRB01-OLT01-NK;1/1/3/11
EQP0000000008550237;I01G0138;CTO SPLITTER 1 8;SCGRB_G1I01;RUA SEM NOME 51 GAROPABA CENTRO 88495000 SC SN;GAROPABA;-28.047506100;-48.630616300;G0;SCGRB-I01SP18;SCGRB-I01SP18-SS2;BR-SCGRB01-OLT01-NK;1/1/2/2
EQP0000000008717189;I01G0243;CTO SPLITTER 1 8;SCGRB_G1I01;RUA DO TRAVESSAO GAROPABA AMBROSIO 88495000 SC 20;GAROPABA;-28.031776300;-48.638641200;G0;SCGRB-I01SP31;SCGRB-I01SP31-SS3;BR-SCGRB01-OLT01-NK;1/1/2/15
EQP0000000008757698;I01G0157;CTO SPLITTER 1 8;SCGRB_G1I01;RUA SEM NOME 55 GAROPABA CENTRO 88495000 SC 51;GAROPABA;-28.036294100;-48.623071800;G0;SCGRB-I01SP20;SCGRB-I01SP20-SS5;BR-SCGRB01-OLT01-NK;1/1/2/4
EQP0000000008111377;I01G0016;CTO SPLITTER 1 8;SCGRB_G1I01;RUA MANOEL FRANCISCO PEREIRA GAROPABA CENTRO 88495000 SC 1890;GAROPABA;-28.051946100;-48.649738300;G0;SCGRB-I01SP2;SCGRB-I01SP2-SS8;BR-SCGRB01-OLT01-NK;1/1/1/2
EQP0000000008548951;I01G0141;CTO SPLITTER 1 8;SCGRB_G1I01;RUA PAULINO FURTADO GAROPABA CENTRO 88495000 SC SN;GAROPABA;-28.047539800;-48.628302400;G0;SCGRB-I01SP18;SCGRB-I01SP18-SS5;BR-SCGRB01-OLT01-NK;1/1/2/2
EQP0000000008352133;I01G0216;CTO SPLITTER 1 8;SCGRB_G1I01;RUA JOSINA AMELIA DA SILVEIRA GAROPABA CENTRO 88495000 SC SN;GAROPABA;-28.031525600;-48.625626400;G0;SCGRB-I01SP27;SCGRB-I01SP27-SS8;BR-SCGRB01-OLT01-NK;1/1/2/11
EQP0000000008770939;I01G0161;CTO SPLITTER 1 8;SCGRB_G1I01;RODOVIA SC 434 GAROPABA CENTRO 88495000 SC 1545;GAROPABA;-28.035900000;-48.623406400;G0;SCGRB-I01SP21;SCGRB-I01SP21-SS1;BR-SCGRB01-OLT01-NK;1/1/2/5
EQP0000000008358847;I01G0544;CTO SPLITTER 1 8;SCGRB_G1I01;RUA GEOVANE LUIS PIUCO GAROPABA FERRAZ 88495000 SC 735;GAROPABA;-28.021153000;-48.627843300;G0;SCGRB-I01SP68;SCGRB-I01SP68-SS8;BR-SCGRB01-OLT01-NK;1/1/5/4
EQP0000000008353364;I01G0623;CTO SPLITTER 1 8;SCGRB_G1I01;TRAVESSA MANOEL CASCAES GAROPABA CENTRO 88495000 SC 137;GAROPABA;-28.025509200;-48.613660300;G0;SCGRB-I01SP78;SCGRB-I01SP78-SS7;BR-SCGRB01-OLT01-NK;1/1/5/14
EQP0000000025982156;I01G0590;CTO - PAD TELEFONICA - B;SCGRB_G1I01;RUA VIUVA MARIA ANTONIA DOS SANTOS GAROPABA CENTRO 88495000 SC 935;GAROPABA;-28.029139700;-48.627359200;G0;SCGRB-I01SP74;SCGRB-I01SP74-SS5;BR-SCGRB01-OLT01-NK;1/1/5/10
EQP0000000025982156;I01G0590;CTO - PAD TELEFONICA - B;SCGRB_G1I01;RUA VIUVA MARIA ANTONIA DOS SANTOS GAROPABA CENTRO 88495000 SC 935;GAROPABA;-28.029139700;-48.627359200;G0;SCGRB-I01SP74;SCGRB-I01SP74-SS6;BR-SCGRB01-OLT01-NK;1/1/5/10
EQP0000000008514634;I01G0568;CTO SPLITTER 1 8;SCGRB_G1I01;RUA MANOEL GEREMIAS DE PAULA GAROPABA CENTRO 88495000 SC 218;GAROPABA;-28.024512300;-48.628474500;G0;SCGRB-I01SP71;SCGRB-I01SP71-SS8;BR-SCGRB01-OLT01-NK;1/1/5/7
EQP0000000008547789;I01G0144;CTO SPLITTER 1 8;SCGRB_G1I01;RODOVIA SC 434 GAROPABA CENTRO 88495000 SC 2609;GAROPABA;-28.046217300;-48.627399400;G0;SCGRB-I01SP18;SCGRB-I01SP18-SS8;BR-SCGRB01-OLT01-NK;1/1/2/2
EQP0000000008358971;I01G0541;CTO SPLITTER 1 8;SCGRB_G1I01;RUA JOSE ANTONIO LOBO GAROPABA CENTRO 88495000 SC 700;GAROPABA;-28.021728400;-48.630103300;G0;SCGRB-I01SP68;SCGRB-I01SP68-SS5;BR-SCGRB01-OLT01-NK;1/1/5/4
EQP0000000008489223;I01G0465;CTO SPLITTER 1 8;SCGRB_G1I01;RUA CAMILO DE JESUS GAROPABA CENTRO 88495000 SC 24;GAROPABA;-28.010392800;-48.636550500;G0;SCGRB-I01SP59;SCGRB-I01SP59-SS1;BR-SCGRB01-OLT01-NK;1/1/4/11
EQP0000000008654644;I01G0078;CTO SPLITTER 1 8;SCGRB_G1I01;RUA RITA DE CASSIA CARVALHO MELLO GAROPABA CENTRO 88495000 SC 450;GAROPABA;-28.048715900;-48.645693700;G0;SCGRB-I01SP10;SCGRB-I01SP10-SS6;BR-SCGRB01-OLT01-NK;1/1/1/10
EQP0000000008108582;I01G0004;CTO SPLITTER 1 8;SCGRB_G1I01;RODOVIA SC 434 GAROPABA CENTRO 88495000 SC SN1;GAROPABA;-28.055688000;-48.655759400;G0;SCGRB-I01SP1;SCGRB-I01SP1-SS4;BR-SCGRB01-OLT01-NK;1/1/1/1
EQP0000000008270348;I01G0325;CTO SPLITTER 1 8;SCGRB_G1I01;RUA ILHA DAS FLORES GAROPABA CENTRO 88495000 SC 220;GAROPABA;-28.028043400;-48.635268500;G0;SCGRB-I01SP41;SCGRB-I01SP41-SS5;BR-SCGRB01-OLT01-NK;1/1/3/9
EQP0000000020198414;I01G0376;CTO - PAD TELEFONICA - B;SCGRB_G1I01;RUA SIMPLICIO RODAO DO NASCIMENTO GAROPABA JARDIM PANORAMICO 88495000 SC 340;GAROPABA;-28.031543200;-48.616710600;G0;SCGRB-I01SP47;SCGRB-I01SP47-SS7;BR-SCGRB01-OLT01-NK;1/1/3/15
EQP0000000020198414;I01G0376;CTO - PAD TELEFONICA - B;SCGRB_G1I01;RUA SIMPLICIO RODAO DO NASCIMENTO GAROPABA JARDIM PANORAMICO 88495000 SC 340;GAROPABA;-28.031543200;-48.616710600;G0;SCGRB-I01SP47;SCGRB-I01SP47-SS8;BR-SCGRB01-OLT01-NK;1/1/3/15
EQP0000000014490658;I01G0278;CTO SPLITTER 1 8;SCGRB_G1I01;RUA LAJEADO GAROPABA CENTRO 88495000 SC 1200;GAROPABA;-28.031651300;-48.634466200;G0;SCGRB-I01SP35;SCGRB-I01SP35-SS6;BR-SCGRB01-OLT01-NK;1/1/3/3
EQP0000000008409804;I01G0089;CTO SPLITTER 1 8;SCGRB_G1I01;RUA JOAO JOB FURTADO GAROPABA CENTRO 88495000 SC SN1;GAROPABA;-28.046836900;-48.640554000;G0;SCGRB-I01SP12;SCGRB-I01SP12-SS1;BR-SCGRB01-OLT01-NK;1/1/1/12
EQP0000000008634494;I01G0070;CTO SPLITTER 1 8;SCGRB_G1I01;RUA JOAO CARDOSO GAROPABA CENTRO 88495000 SC 464;GAROPABA;-28.048951400;-48.647748900;G0;SCGRB-I01SP9;SCGRB-I01SP9-SS6;BR-SCGRB01-OLT01-NK;1/1/1/9
EQP0000000008353245;I01G0220;CTO SPLITTER 1 8;SCGRB_G1I01;RUA LAJEADO GAROPABA CENTRO 88495000 SC 502;GAROPABA;-28.032517500;-48.627773100;G0;SCGRB-I01SP28;SCGRB-I01SP28-SS4;BR-SCGRB01-OLT01-NK;1/1/2/12
EQP0000000008358913;I01G0543;CTO SPLITTER 1 8;SCGRB_G1I01;RUA GEOVANE LUIS PIUCO GAROPABA FERRAZ 88495000 SC 843;GAROPABA;-28.021099400;-48.629062700;G0;SCGRB-I01SP68;SCGRB-I01SP68-SS7;BR-SCGRB01-OLT01-NK;1/1/5/4
EQP0000000008514358;I01G0557;CTO SPLITTER 1 8;SCGRB_G1I01;RUA PTOLOMEU BITENCOURT GAROPABA CENTRO 88495000 SC 49;GAROPABA;-28.023223000;-48.625125700;G0;SCGRB-I01SP70;SCGRB-I01SP70-SS5;BR-SCGRB01-OLT01-NK;1/1/5/6
EQP0000000008501386;I01G0546;CTO SPLITTER 1 8;SCGRB_G1I01;RUA GEOVANE LUIS PIUCO GAROPABA FERRAZ 88495000 SC 207;GAROPABA;-28.021807600;-48.622519600;G0;SCGRB-I01SP69;SCGRB-I01SP69-SS2;BR-SCGRB01-OLT01-NK;1/1/5/5
EQP0000000014490480;I01G0279;CTO SPLITTER 1 8;SCGRB_G1I01;RUA RIO GRANDE DO SUL GAROPABA CENTRO 88495000 SC SN;GAROPABA;-28.031179900;-48.634375100;G0;SCGRB-I01SP35;SCGRB-I01SP35-SS7;BR-SCGRB01-OLT01-NK;1/1/3/3
EQP0000000008669170;I01G0574;CTO SPLITTER 1 8;SCGRB_G1I01;RUA TEONAZ ISRAEL GAROPABA CENTRO 88495000 SC 149;GAROPABA;-28.026998700;-48.629610100;G0;SCGRB-I01SP72;SCGRB-I01SP72-SS6;BR-SCGRB01-OLT01-NK;1/1/5/8
EQP0000000008300474;I01G0018;CTO SPLITTER 1 8;SCGRB_G1I01;RUA JOSE IGNACIO PEREIRA GAROPABA AREIAS DA PALHOCINHA 88495000 SC 270;GAROPABA;-28.054906100;-48.650073900;G0;SCGRB-I01SP3;SCGRB-I01SP3-SS2;BR-SCGRB01-OLT01-NK;1/1/1/3
EQP0000000008144464;I01G0038;CTO SPLITTER 1 8;SCGRB_G1I01;RUA JOANA MARIA DE BITENCOURT3 GAROPABA CENTRO 88495000 SC 266;GAROPABA;-28.050556700;-48.641241600;G0;SCGRB-I01SP5;SCGRB-I01SP5-SS6;BR-SCGRB01-OLT01-NK;1/1/1/5
EQP0000000008022843;I01G0384;CTO SPLITTER 1 8;SCGRB_G1I01;RUA JOSE CUSTODIO PEREIRA GAROPABA CENTRO 88495000 SC 424;GAROPABA;-28.031093500;-48.617166500;G0;SCGRB-I01SP48;SCGRB-I01SP48-SS8;BR-SCGRB01-OLT01-NK;1/1/3/16
EQP0000000008405923;I01G0231;CTO SPLITTER 1 8;SCGRB_G1I01;RUA ANA TEREZA RIBEIRO GAROPABA CENTRO 88495000 SC 130;GAROPABA;-28.032677200;-48.638107700;G0;SCGRB-I01SP29;SCGRB-I01SP29-SS7;BR-SCGRB01-OLT01-NK;1/1/2/13
EQP0000000008239446;I01G0306;CTO SPLITTER 1 8;SCGRB_G1I01;RUA DO POSTINHO AMBROSIO GAROPABA CENTRO 88495000 SC SN;GAROPABA;-28.029982500;-48.639212900;G0;SCGRB-I01SP39;SCGRB-I01SP39-SS2;BR-SCGRB01-OLT01-NK;1/1/3/7
EQP0000000008238173;I01G0308;CTO SPLITTER 1 8;SCGRB_G1I01;RUA VILSON DE SOUZA GAROPABA CENTRO 88495000 SC LT4;GAROPABA;-28.029182200;-48.640887500;G0;SCGRB-I01SP39;SCGRB-I01SP39-SS4;BR-SCGRB01-OLT01-NK;1/1/3/7
EQP0000000008770499;I01G0164;CTO SPLITTER 1 8;SCGRB_G1I01;RUA SAO JOAO GAROPABA CENTRO 88495000 SC 41;GAROPABA;-28.034537600;-48.622973300;G0;SCGRB-I01SP21;SCGRB-I01SP21-SS4;BR-SCGRB01-OLT01-NK;1/1/2/5
EQP0000000008258205;I01G0315;CTO SPLITTER 1 8;SCGRB_G1I01;RUA ILHA DO FAIAL GAROPABA CENTRO 88495000 SC 318;GAROPABA;-28.027023800;-48.639056400;G0;SCGRB-I01SP40;SCGRB-I01SP40-SS3;BR-SCGRB01-OLT01-NK;1/1/3/8
EQP0000000014327073;I01G0271;CTO SPLITTER 1 8;SCGRB_G1I01;RUA LAJEADO GAROPABA CENTRO 88495000 SC 924;GAROPABA;-28.031937900;-48.632058300;G0;SCGRB-I01SP34;SCGRB-I01SP34-SS7;BR-SCGRB01-OLT01-NK;1/1/3/2
EQP0000000008139196;I01G0028;CTO SPLITTER 1 8;SCGRB_G1I01;RUA HILARIO FERNANDES PACHECO GAROPABA CENTRO 88495000 SC 280;GAROPABA;-28.051800700;-48.643583000;G0;SCGRB-I01SP4;SCGRB-I01SP4-SS4;BR-SCGRB01-OLT01-NK;1/1/1/4
EQP0000000014663903;I01G0283;CTO SPLITTER 1 8;SCGRB_G1I01;RUA SEM NOME 28 GAROPABA CENTRO 88495000 SC SN;GAROPABA;-28.025936600;-48.642294700;G0;SCGRB-I01SP36;SCGRB-I01SP36-SS3;BR-SCGRB01-OLT01-NK;1/1/3/4
EQP0000000008453364;I01G0238;CTO SPLITTER 1 8;SCGRB_G1I01;RUA INACIA MARIA DE ABREU GAROPABA CENTRO 88495000 SC 358;GAROPABA;-28.031137100;-48.642116000;G0;SCGRB-I01SP30;SCGRB-I01SP30-SS6;BR-SCGRB01-OLT01-NK;1/1/2/14
EQP0000000008407983;I01G0226;CTO SPLITTER 1 8;SCGRB_G1I01;RUA JAMILTO MANOEL GEREMIAS GAROPABA CENTRO 88495000 SC 224;GAROPABA;-28.033380300;-48.632534900;G0;SCGRB-I01SP29;SCGRB-I01SP29-SS2;BR-SCGRB01-OLT01-NK;1/1/2/13
EQP0000000014724696;I01G0292;CTO SPLITTER 1 8;SCGRB_G1I01;RUA SEM NOME 24 GAROPABA CENTRO 88495000 SC SN;GAROPABA;-28.024746700;-48.645116900;G0;SCGRB-I01SP37;SCGRB-I01SP37-SS4;BR-SCGRB01-OLT01-NK;1/1/3/5
EQP0000000008488271;I01G0468;CTO SPLITTER 1 8;SCGRB_G1I01;RODOVIA JOVINO PIUCCO GAROPABA AREIAS MACACU 88495000 SC 3005;GAROPABA;-28.011235500;-48.634560500;G0;SCGRB-I01SP59;SCGRB-I01SP59-SS4;BR-SCGRB01-OLT01-NK;1/1/4/11
EQP0000000008498004;I01G0551;CTO SPLITTER 1 8;SCGRB_G1I01;RUA GEOVANE LUIS PIUCO GAROPABA FERRAZ 88495000 SC 475;GAROPABA;-28.021432000;-48.625216800;G0;SCGRB-I01SP69;SCGRB-I01SP69-SS7;BR-SCGRB01-OLT01-NK;1/1/5/5
EQP0000000007948064;I01G0357;CTO SPLITTER 1 8;SCGRB_G1I01;RUA JULIO J. MORANDI GAROPABA PINGUIRITO 88495000 SC 211;GAROPABA;-28.035456400;-48.617926400;G0;SCGRB-I01SP45;SCGRB-I01SP45-SS5;BR-SCGRB01-OLT01-NK;1/1/3/13
EQP0000000008579348;I01G0453;CTO SPLITTER 1 8;SCGRB_G1I01;RUA SEM NOME 78 GAROPABA CENTRO 88495000 SC SN;GAROPABA;-28.006031600;-48.643006800;G0;SCGRB-I01SP57;SCGRB-I01SP57-SS5;BR-SCGRB01-OLT01-NK;1/1/4/9
EQP0000000008290966;I01G0035;CTO SPLITTER 1 8;SCGRB_G1I01;RODOVIA SC 434 GAROPABA CENTRO 88495000 SC 3475;GAROPABA;-28.047796500;-48.636841000;G0;SCGRB-I01SP5;SCGRB-I01SP5-SS3;BR-SCGRB01-OLT01-NK;1/1/1/5
EQP0000000008025438;I01G0378;CTO SPLITTER 1 8;SCGRB_G1I01;RUA JOSE CUSTODIO PEREIRA GAROPABA CENTRO 88495000 SC 30;GAROPABA;-28.027108100;-48.614782400;G0;SCGRB-I01SP48;SCGRB-I01SP48-SS2;BR-SCGRB01-OLT01-NK;1/1/3/16
EQP0000000008503648;I01G0129;CTO SPLITTER 1 8;SCGRB_G1I01;RUA DELEGADO FRONTINO MARTINS GAROPABA CENTRO 88495000 SC SN;GAROPABA;-28.042262300;-48.622842400;G0;SCGRB-I01SP17;SCGRB-I01SP17-SS1;BR-SCGRB01-OLT01-NK;1/1/2/1
EQP0000000014724486;I01G0293;CTO SPLITTER 1 8;SCGRB_G1I01;RUA SEM NOME 23 GAROPABA CENTRO 88495000 SC SN;GAROPABA;-28.024844800;-48.642400900;G0;SCGRB-I01SP37;SCGRB-I01SP37-SS5;BR-SCGRB01-OLT01-NK;1/1/3/5
EQP0000000008770651;I01G0163;CTO SPLITTER 1 8;SCGRB_G1I01;SERVIDAO JOAO CRISPIM GAROPABA CENTRO 88495000 SC 51;GAROPABA;-28.035192400;-48.622480100;G0;SCGRB-I01SP21;SCGRB-I01SP21-SS3;BR-SCGRB01-OLT01-NK;1/1/2/5
EQP0000000008353725;I01G0217;CTO SPLITTER 1 8;SCGRB_G1I01;RUA BERNARDINO FERMINO PIRES GAROPABA CENTRO 88495000 SC 1627;GAROPABA;-28.033470100;-48.629410300;G0;SCGRB-I01SP28;SCGRB-I01SP28-SS1;BR-SCGRB01-OLT01-NK;1/1/2/12
EQP0000000008287149;I01G0708;CTO SPLITTER 1 8;SCGRB_G1I01;RUA ANANIAS GUSTAVO NASCIMENTO (CENTRO) GAROPABA CENTRO 88495000 SC 68;GAROPABA;-28.027386500;-48.621325800;G0;SCGRB-I01SP89;SCGRB-I01SP89-SS4;BR-SCGRB01-OLT01-NK;1/1/6/9
EQP0000000008737241;I01GPT254;CTO SPLITTER 1 8;SCGRB_G1I01;RUA NICOLAU MANOEL DE ABREU GAROPABA CENTRO 88495000 SC SN;GAROPABA;-28.035145700;-48.640588400;GPT;SCGRB-I01SP32;SCGRB-I01SP32-SS6;BR-SCGRB01-OLT01-NK;1/1/2/16
EQP0000000008358944;I01G0542;CTO SPLITTER 1 8;SCGRB_G1I01;RUA ANSELMO ARAUJO DE AMORIM GAROPABA FERRAZ 88495000 SC 354;GAROPABA;-28.020874300;-48.630761500;G0;SCGRB-I01SP68;SCGRB-I01SP68-SS6;BR-SCGRB01-OLT01-NK;1/1/5/4
EQP0000000008560064;I01GPT151;CTO SPLITTER 1 8;SCGRB_G1I01;RODOVIA SC 434 GAROPABA CENTRO 88495000 SC 3226;GAROPABA;-28.043857300;-48.631491600;GPT;SCGRB-I01SP19;SCGRB-I01SP19-SS7;BR-SCGRB01-OLT01-NK;1/1/2/3
EQP0000000008239167;I01G0307;CTO SPLITTER 1 8;SCGRB_G1I01;RUA BRUNO BATISTA GAROPABA CENTRO 88495000 SC SN;GAROPABA;-28.029479300;-48.640073900;G0;SCGRB-I01SP39;SCGRB-I01SP39-SS3;BR-SCGRB01-OLT01-NK;1/1/3/7
EQP0000000014741787;I01G0298;CTO SPLITTER 1 8;SCGRB_G1I01;RUA WILLIAM GONCALVES BATISTA GAROPABA CENTRO 88495000 SC SN;GAROPABA;-28.022656500;-48.639524300;G0;SCGRB-I01SP38;SCGRB-I01SP38-SS2;BR-SCGRB01-OLT01-NK;1/1/3/6
EQP0000000008770450;I01G0167;CTO SPLITTER 1 8;SCGRB_G1I01;RUA DONA ESTELINA GAROPABA CENTRO 88495000 SC 118;GAROPABA;-28.034333100;-48.621696100;G0;SCGRB-I01SP21;SCGRB-I01SP21-SS7;BR-SCGRB01-OLT01-NK;1/1/2/5
EQP0000000008514469;I01G0553;CTO SPLITTER 1 8;SCGRB_G1I01;RUA OLIVIO DUARTE DE SENA GAROPABA CENTRO 88495000 SC 140;GAROPABA;-28.022582500;-48.621232100;G0;SCGRB-I01SP70;SCGRB-I01SP70-SS1;BR-SCGRB01-OLT01-NK;1/1/5/6
EQP0000000008697854;I01G0606;CTO SPLITTER 1 8;SCGRB_G1I01;RUA VIUVA MARIA ANTONIA DOS SANTOS GAROPABA CENTRO 88495000 SC 599;GAROPABA;-28.027426600;-48.627031700;G0;SCGRB-I01SP76;SCGRB-I01SP76-SS6;BR-SCGRB01-OLT01-NK;1/1/5/12
EQP0000000008704802;I01G0052;CTO SPLITTER 1 8;SCGRB_G1I01;RUA CRISTAL GAROPABA CENTRO 88495000 SC SN;GAROPABA;-28.047401300;-48.644744600;G0;SCGRB-I01SP7;SCGRB-I01SP7-SS4;BR-SCGRB01-OLT01-NK;1/1/1/7
EQP0000000008757328;I01G0159;CTO SPLITTER 1 8;SCGRB_G1I01;RODOVIA SC 434 GAROPABA CENTRO 88495000 SC 1164;GAROPABA;-28.034740400;-48.623275300;G0;SCGRB-I01SP20;SCGRB-I01SP20-SS7;BR-SCGRB01-OLT01-NK;1/1/2/4
EQP0000000008405795;I01G0230;CTO SPLITTER 1 8;SCGRB_G1I01;RUA ANA TEREZA RIBEIRO GAROPABA CENTRO 88495000 SC 50;GAROPABA;-28.032848500;-48.637026300;G0;SCGRB-I01SP29;SCGRB-I01SP29-SS6;BR-SCGRB01-OLT01-NK;1/1/2/13
EQP0000000008655292;I01G0077;CTO SPLITTER 1 8;SCGRB_G1I01;RUA JADE GAROPABA AMBROSIO 88495000 SC 101;GAROPABA;-28.048374700;-48.646203000;G0;SCGRB-I01SP10;SCGRB-I01SP10-SS5;BR-SCGRB01-OLT01-NK;1/1/1/10
EQP0000000008270652;I01G0324;CTO SPLITTER 1 8;SCGRB_G1I01;RUA ILHA DAS FLORES GAROPABA CENTRO 88495000 SC 145;GAROPABA;-28.028192700;-48.634187900;G0;SCGRB-I01SP41;SCGRB-I01SP41-SS4;BR-SCGRB01-OLT01-NK;1/1/3/9
EQP0000000008490055;I01G0477;CTO SPLITTER 1 8;SCGRB_G1I01;AVENIDA DAS HORTENCIAS GAROPABA CENTRO 88495000 SC 86;GAROPABA;-28.016274700;-48.627884800;G0;SCGRB-I01SP60;SCGRB-I01SP60-SS5;BR-SCGRB01-OLT01-NK;1/1/4/12
EQP0000000008454397;I01G0234;CTO SPLITTER 1 8;SCGRB_G1I01;RUA MARCOS BERNARDINO RODRIGUES GAROPABA CENTRO 88495000 SC 205;GAROPABA;-28.030144900;-48.640350200;G0;SCGRB-I01SP30;SCGRB-I01SP30-SS2;BR-SCGRB01-OLT01-NK;1/1/2/14
EQP0000000008855626;I01G0515;CTO SPLITTER 1 8;SCGRB_G1I01;RUA DOS PINHEIROS GAROPABA CENTRO 88495000 SC 514;GAROPABA;-28.018939700;-48.627040300;G0;SCGRB-I01SP65;SCGRB-I01SP65-SS3;BR-SCGRB01-OLT01-NK;1/1/5/1
EQP0000000008108873;I01G0003;CTO SPLITTER 1 8;SCGRB_G1I01;RUA LUIZ ZANELLATO GAROPABA CENTRO 88495000 SC SN;GAROPABA;-28.056862800;-48.656374200;G0;SCGRB-I01SP1;SCGRB-I01SP1-SS3;BR-SCGRB01-OLT01-NK;1/1/1/1
EQP0000000008843809;I01G0520;CTO SPLITTER 1 8;SCGRB_G1I01;RUA DOS FLAMBOIANTES GAROPABA CENTRO 88495000 SC 295;GAROPABA;-28.017234200;-48.628916200;G0;SCGRB-I01SP65;SCGRB-I01SP65-SS8;BR-SCGRB01-OLT01-NK;1/1/5/1
EQP0000000008406178;I01G0229;CTO SPLITTER 1 8;SCGRB_G1I01;RUA NICOLAU MANOEL DE ABREU GAROPABA CENTRO 88495000 SC 115;GAROPABA;-28.032820400;-48.636280600;G0;SCGRB-I01SP29;SCGRB-I01SP29-SS5;BR-SCGRB01-OLT01-NK;1/1/2/13
EQP0000000008549618;I01G0139;CTO SPLITTER 1 8;SCGRB_G1I01;RUA SEM NOME 52 GAROPABA CENTRO 88495000 SC SN;GAROPABA;-28.047186400;-48.630199300;G0;SCGRB-I01SP18;SCGRB-I01SP18-SS3;BR-SCGRB01-OLT01-NK;1/1/2/2
EQP0000000008358998;I01G0540;CTO SPLITTER 1 8;SCGRB_G1I01;RUA JOSE ANTONIO LOBO GAROPABA CENTRO 88495000 SC 460;GAROPABA;-28.022091400;-48.627760700;G0;SCGRB-I01SP68;SCGRB-I01SP68-SS4;BR-SCGRB01-OLT01-NK;1/1/5/4
EQP0000000008570211;I01G0081;CTO SPLITTER 1 8;SCGRB_G1I01;RUA MANOEL FRANCISCO PEREIRA GAROPABA CENTRO 88495000 SC SN;GAROPABA;-28.052179000;-48.648665900;G0;SCGRB-I01SP11;SCGRB-I01SP11-SS1;BR-SCGRB01-OLT01-NK;1/1/1/11
EQP0000000008353849;I01G0203;CTO SPLITTER 1 8;SCGRB_G1I01;RUA ENEAS FARACO GUIMARAES GAROPABA CENTRO 88495000 SC SN;GAROPABA;-28.034627300;-48.624534500;G0;SCGRB-I01SP26;SCGRB-I01SP26-SS3;BR-SCGRB01-OLT01-NK;1/1/2/10
EQP0000000008637889;I01G0065;CTO SPLITTER 1 8;SCGRB_G1I01;RUA IVO JOAQUIM CARDOSO GAROPABA CENTRO 88495000 SC 180;GAROPABA;-28.050828600;-48.649307200;G0;SCGRB-I01SP9;SCGRB-I01SP9-SS1;BR-SCGRB01-OLT01-NK;1/1/1/9
EQP0000000008256814;I01G0317;CTO SPLITTER 1 8;SCGRB_G1I01;RUA ILHA DO FAIAL GAROPABA CENTRO 88495000 SC 50;GAROPABA;-28.027521500;-48.636242400;G0;SCGRB-I01SP40;SCGRB-I01SP40-SS5;BR-SCGRB01-OLT01-NK;1/1/3/8
EQP0000000025260480;I01G0634;CTO - PAD TELEFONICA - B;SCGRB_G1I01;RUA TRINTA DE DEZEMBRO GAROPABA CENTRO 88495000 SC 322;GAROPABA;-28.025942700;-48.619558400;G0;SCGRB-I01SP80;SCGRB-I01SP80-SS1;BR-SCGRB01-OLT01-NK;1/1/5/16
EQP0000000025260480;I01G0634;CTO - PAD TELEFONICA - B;SCGRB_G1I01;RUA TRINTA DE DEZEMBRO GAROPABA CENTRO 88495000 SC 322;GAROPABA;-28.025942700;-48.619558400;G0;SCGRB-I01SP80;SCGRB-I01SP80-SS2;BR-SCGRB01-OLT01-NK;1/1/5/16
EQP0000000008577919;I01G0456;CTO SPLITTER 1 8;SCGRB_G1I01;RODOVIA JOVINO PIUCCO GAROPABA AREIAS MACACU 88495000 SC SN;GAROPABA;-28.008593800;-48.640496600;G0;SCGRB-I01SP57;SCGRB-I01SP57-SS8;BR-SCGRB01-OLT01-NK;1/1/4/9
EQP0000000008633502;I01G0072;CTO SPLITTER 1 8;SCGRB_G1I01;RUA JOAO CARDOSO GAROPABA CENTRO 88495000 SC 100;GAROPABA;-28.049260000;-48.645970600;G0;SCGRB-I01SP9;SCGRB-I01SP9-SS8;BR-SCGRB01-OLT01-NK;1/1/1/9
EQP0000000027035182;I01G0174;CTO - PAD TELEFONICA - B;SCGRB_G1I01;RUA PREFEITO JOAO ORESTES DE ARAUJO GAROPABA CENTRO 88495000 SC 787;GAROPABA;-28.031442600;-48.621728600;G0;SCGRB-I01SP22;SCGRB-I01SP22-SS5;BR-SCGRB01-OLT01-NK;1/1/2/6
EQP0000000027035182;I01G0174;CTO - PAD TELEFONICA - B;SCGRB_G1I01;RUA PREFEITO JOAO ORESTES DE ARAUJO GAROPABA CENTRO 88495000 SC 787;GAROPABA;-28.031442600;-48.621728600;G0;SCGRB-I01SP22;SCGRB-I01SP22-SS6;BR-SCGRB01-OLT01-NK;1/1/2/6
EQP0000000007948385;I01G0356;CTO SPLITTER 1 8;SCGRB_G1I01;RUA DA PEDREIRA GAROPABA CENTRO 88495000 SC SN;GAROPABA;-28.035023700;-48.616387700;G0;SCGRB-I01SP45;SCGRB-I01SP45-SS4;BR-SCGRB01-OLT01-NK;1/1/3/13
EQP0000000008101918;I01G0403;CTO SPLITTER 1 8;SCGRB_G1I01;VIELA DOS ARACUAS GAROPABA CENTRO 88495000 SC 40;GAROPABA;-28.033477100;-48.619412700;G0;SCGRB-I01SP51;SCGRB-I01SP51-SS3;BR-SCGRB01-OLT01-NK;1/1/4/3
EQP0000000008842344;I01GPT506;CTO SPLITTER 1 8;SCGRB_G1I01;RODOVIA JOVINO PIUCCO GAROPABA AREIAS MACACU 88495000 SC 2001;GAROPABA;-28.016839200;-48.631633000;GPT;SCGRB-I01SP64;SCGRB-I01SP64-SS2;BR-SCGRB01-OLT01-NK;1/1/4/16
EQP0000000008637202;I01G0066;CTO SPLITTER 1 8;SCGRB_G1I01;RUA IVO JOAQUIM CARDOSO GAROPABA CENTRO 88495000 SC 300;GAROPABA;-28.049968800;-48.649031600;G0;SCGRB-I01SP9;SCGRB-I01SP9-SS2;BR-SCGRB01-OLT01-NK;1/1/1/9
EQP0000000008738250;I01G0251;CTO SPLITTER 1 8;SCGRB_G1I01;RUA NICOLAU MANOEL DE ABREU GAROPABA CENTRO 88495000 SC 1008;GAROPABA;-28.035630900;-48.645620600;G0;SCGRB-I01SP32;SCGRB-I01SP32-SS3;BR-SCGRB01-OLT01-NK;1/1/2/16
EQP0000000008757981;I01G0156;CTO SPLITTER 1 8;SCGRB_G1I01;RUA SEM NOME 54 GAROPABA CENTRO 88495000 SC 81;GAROPABA;-28.036769100;-48.622356400;G0;SCGRB-I01SP20;SCGRB-I01SP20-SS4;BR-SCGRB01-OLT01-NK;1/1/2/4
EQP0000000008121573;I01G0014;CTO SPLITTER 1 8;SCGRB_G1I01;RUA NICOLAU FERNANDES DE SOUZA GAROPABA CENTRO 88495000 SC 129;GAROPABA;-28.050722900;-48.650813400;G0;SCGRB-I01SP2;SCGRB-I01SP2-SS6;BR-SCGRB01-OLT01-NK;1/1/1/2
EQP0000000008355791;I01G0531;CTO SPLITTER 1 8;SCGRB_G1I01;RUA CARIBE GAROPABA CENTRO 88495000 SC 195;GAROPABA;-28.019581400;-48.628961600;G0;SCGRB-I01SP67;SCGRB-I01SP67-SS3;BR-SCGRB01-OLT01-NK;1/1/5/3
EQP0000000008269087;I01G0327;CTO SPLITTER 1 8;SCGRB_G1I01;RUA ILHA DA MADEIRA GAROPABA CENTRO 88495000 SC 84;GAROPABA;-28.028962800;-48.633322600;G0;SCGRB-I01SP41;SCGRB-I01SP41-SS7;BR-SCGRB01-OLT01-NK;1/1/3/9
EQP0000000008770566;I01G0165;CTO SPLITTER 1 8;SCGRB_G1I01;RUA SAO JOAO GAROPABA CENTRO 88495000 SC 101;GAROPABA;-28.034665900;-48.621930300;G0;SCGRB-I01SP21;SCGRB-I01SP21-SS5;BR-SCGRB01-OLT01-NK;1/1/2/5
EQP0000000008390497;I01G0098;CTO SPLITTER 1 8;SCGRB_G1I01;RUA SEM NOME 7 GAROPABA CENTRO 88495000 SC 690;GAROPABA;-28.045348900;-48.638583800;G0;SCGRB-I01SP13;SCGRB-I01SP13-SS2;BR-SCGRB01-OLT01-NK;1/1/1/13
EQP0000000027378797;I01G0680;CTO - PAD TELEFONICA - B;SCGRB_G1I01;RUA TRINTA DE DEZEMBRO GAROPABA CENTRO 88495000 SC 340;GAROPABA;-28.025487000;-48.622842800;G0;SCGRB-I01SP85;SCGRB-I01SP85-SS7;BR-SCGRB01-OLT01-NK;1/1/6/5
EQP0000000027378797;I01G0680;CTO - PAD TELEFONICA - B;SCGRB_G1I01;RUA TRINTA DE DEZEMBRO GAROPABA CENTRO 88495000 SC 340;GAROPABA;-28.025487000;-48.622842800;G0;SCGRB-I01SP85;SCGRB-I01SP85-SS8;BR-SCGRB01-OLT01-NK;1/1/6/5
EQP0000000008757518;I01G0158;CTO SPLITTER 1 8;SCGRB_G1I01;RUA BASILEU LOPES GAROPABA CENTRO 88495000 SC 40;GAROPABA;-28.035023500;-48.623756400;G0;SCGRB-I01SP20;SCGRB-I01SP20-SS6;BR-SCGRB01-OLT01-NK;1/1/2/4
EQP0000000008255685;I01G0318;CTO SPLITTER 1 8;SCGRB_G1I01;RUA ILHA TERCEIRA GAROPABA CENTRO 88495000 SC 47;GAROPABA;-28.026939400;-48.636380600;G0;SCGRB-I01SP40;SCGRB-I01SP40-SS6;BR-SCGRB01-OLT01-NK;1/1/3/8
EQP0000000014741208;I01G0301;CTO SPLITTER 1 8;SCGRB_G1I01;RUA SEM NOME 22 GAROPABA CENTRO 88495000 SC SN;GAROPABA;-28.024265800;-48.640759400;G0;SCGRB-I01SP38;SCGRB-I01SP38-SS5;BR-SCGRB01-OLT01-NK;1/1/3/6
EQP0000000008355932;I01G0529;CTO SPLITTER 1 8;SCGRB_G1I01;RUA CARIBE GAROPABA CENTRO 88495000 SC 439;GAROPABA;-28.019229300;-48.631741800;G0;SCGRB-I01SP67;SCGRB-I01SP67-SS1;BR-SCGRB01-OLT01-NK;1/1/5/3
EQP0000000008779367;I01G0064;CTO SPLITTER 1 8;SCGRB_G1I01;RUA AGUA MARINHA GAROPABA CENTRO 88495000 SC 400;GAROPABA;-28.046773700;-48.648254200;G0;SCGRB-I01SP8;SCGRB-I01SP8-SS8;BR-SCGRB01-OLT01-NK;1/1/1/8
EQP0000000008121393;I01G0015;CTO SPLITTER 1 8;SCGRB_G1I01;RUA IVO JOAQUIM CARDOSO GAROPABA CENTRO 88495000 SC 150;GAROPABA;-28.051493900;-48.649012900;G0;SCGRB-I01SP2;SCGRB-I01SP2-SS7;BR-SCGRB01-OLT01-NK;1/1/1/2
EQP0000000008353526;I01G0617;CTO SPLITTER 1 8;SCGRB_G1I01;RUA DA FLORESTA 2 GAROPABA CENTRO 88495000 SC 532;GAROPABA;-28.019322300;-48.608076000;G0;SCGRB-I01SP78;SCGRB-I01SP78-SS1;BR-SCGRB01-OLT01-NK;1/1/5/14
EQP0000000008355879;I01G0530;CTO SPLITTER 1 8;SCGRB_G1I01;RUA CARIBE GAROPABA CENTRO 88495000 SC 273;GAROPABA;-28.019434600;-48.630104000;G0;SCGRB-I01SP67;SCGRB-I01SP67-SS2;BR-SCGRB01-OLT01-NK;1/1/5/3
EQP0000000008461286;I01G0115;CTO SPLITTER 1 8;SCGRB_G1I01;RODOVIA SC 434 GAROPABA CENTRO 88495000 SC 2883;GAROPABA;-28.046540200;-48.631187100;G0;SCGRB-I01SP15;SCGRB-I01SP15-SS3;BR-SCGRB01-OLT01-NK;1/1/1/15
EQP0000000008305286;I01G0026;CTO SPLITTER 1 8;SCGRB_G1I01;RUA EMENEGILDA MARTINS PACHECO GAROPABA CENTRO 88495000 SC SN;GAROPABA;-28.053604800;-48.646592000;G0;SCGRB-I01SP4;SCGRB-I01SP4-SS2;BR-SCGRB01-OLT01-NK;1/1/1/4
EQP0000000008406869;I01G0228;CTO SPLITTER 1 8;SCGRB_G1I01;RUA SEM NOME 68 GAROPABA CENTRO 88495000 SC 112;GAROPABA;-28.033026200;-48.635510300;G0;SCGRB-I01SP29;SCGRB-I01SP29-SS4;BR-SCGRB01-OLT01-NK;1/1/2/13
EQP0000000008854197;I01G0517;CTO SPLITTER 1 8;SCGRB_G1I01;RUA DOS PINHEIROS GAROPABA CENTRO 88495000 SC 209;GAROPABA;-28.016283600;-48.628675600;G0;SCGRB-I01SP65;SCGRB-I01SP65-SS5;BR-SCGRB01-OLT01-NK;1/1/5/1
EQP0000000008455808;I01G0102;CTO SPLITTER 1 8;SCGRB_G1I01;RUA JOAO JOB FURTADO GAROPABA CENTRO 88495000 SC SN1;GAROPABA;-28.046567400;-48.636038000;G0;SCGRB-I01SP13;SCGRB-I01SP13-SS6;BR-SCGRB01-OLT01-NK;1/1/1/13
EQP0000000008487606;I01G0470;CTO SPLITTER 1 8;SCGRB_G1I01;RODOVIA JOVINO PIUCCO GAROPABA AREIAS MACACU 88495000 SC 2420;GAROPABA;-28.011410000;-48.629965700;G0;SCGRB-I01SP59;SCGRB-I01SP59-SS6;BR-SCGRB01-OLT01-NK;1/1/4/11
EQP0000000008503189;I01G0132;CTO SPLITTER 1 8;SCGRB_G1I01;RUA DELEGADO FRONTINO MARTINS GAROPABA CENTRO 88495000 SC 25;GAROPABA;-28.046344200;-48.624021500;G0;SCGRB-I01SP17;SCGRB-I01SP17-SS4;BR-SCGRB01-OLT01-NK;1/1/2/1
EQP0000000008844042;I01G0519;CTO SPLITTER 1 8;SCGRB_G1I01;RUA DOS FLAMBOIANTES GAROPABA CENTRO 88495000 SC 146;GAROPABA;-28.016511200;-48.629359500;G0;SCGRB-I01SP65;SCGRB-I01SP65-SS7;BR-SCGRB01-OLT01-NK;1/1/5/1
EQP0000000008104080;I01G0414;CTO SPLITTER 1 8;SCGRB_G1I01;RUA ALVARO ERNESTO DOS SANTOS GAROPABA JARDIM PANORAMICO 88495000 SC 200;GAROPABA;-28.031785100;-48.620923800;G0;SCGRB-I01SP52;SCGRB-I01SP52-SS6;BR-SCGRB01-OLT01-NK;1/1/4/4
EQP0000000008500693;I01G0549;CTO SPLITTER 1 8;SCGRB_G1I01;RUA GEOVANE LUIS PIUCO GAROPABA FERRAZ 88495000 SC 355;GAROPABA;-28.021605200;-48.623865600;G0;SCGRB-I01SP69;SCGRB-I01SP69-SS5;BR-SCGRB01-OLT01-NK;1/1/5/5
EQP0000000014326936;I01G0272;CTO SPLITTER 1 8;SCGRB_G1I01;RUA LAJEADO GAROPABA CENTRO 88495000 SC SN;GAROPABA;-28.031760400;-48.633285300;G0;SCGRB-I01SP34;SCGRB-I01SP34-SS8;BR-SCGRB01-OLT01-NK;1/1/3/2
EQP0000000008024819;I01G0380;CTO SPLITTER 1 8;SCGRB_G1I01;RUA MARIA NAUCK DOS SANTOS GAROPABA CENTRO 88495000 SC 213;GAROPABA;-28.028528700;-48.614826200;G0;SCGRB-I01SP48;SCGRB-I01SP48-SS4;BR-SCGRB01-OLT01-NK;1/1/3/16
EQP0000000008490566;I01G0474;CTO SPLITTER 1 8;SCGRB_G1I01;RUA DAS AMENDOEIRAS GAROPABA CENTRO 88495000 SC 451;GAROPABA;-28.017853500;-48.626918700;G0;SCGRB-I01SP60;SCGRB-I01SP60-SS2;BR-SCGRB01-OLT01-NK;1/1/4/12
EQP0000000008272078;I01G0321;CTO SPLITTER 1 8;SCGRB_G1I01;RUA ISMAEL LOBO GAROPABA CENTRO 88495000 SC 2319;GAROPABA;-28.027236100;-48.633441600;G0;SCGRB-I01SP41;SCGRB-I01SP41-SS1;BR-SCGRB01-OLT01-NK;1/1/3/9
EQP0000000014741388;I01G0300;CTO SPLITTER 1 8;SCGRB_G1I01;RUA BARRO VERMELHO GAROPABA AMBROSIO 88495000 SC SN1;GAROPABA;-28.023879100;-48.640636600;G0;SCGRB-I01SP38;SCGRB-I01SP38-SS4;BR-SCGRB01-OLT01-NK;1/1/3/6
EQP0000000008844693;I01G0518;CTO SPLITTER 1 8;SCGRB_G1I01;RUA DOS PINHEIROS GAROPABA CENTRO 88495000 SC 50;GAROPABA;-28.015397600;-48.629218600;G0;SCGRB-I01SP65;SCGRB-I01SP65-SS6;BR-SCGRB01-OLT01-NK;1/1/5/1
EQP0000000027262962;I01G0646;CTO - PAD TELEFONICA - B;SCGRB_G1I01;RUA ANTONIO CLAUDINO DE SOUZA GAROPABA CENTRO 88495000 SC 165;GAROPABA;-28.024770700;-48.618168400;G0;SCGRB-I01SP81;SCGRB-I01SP81-SS5;BR-SCGRB01-OLT01-NK;1/1/6/1
EQP0000000027262962;I01G0646;CTO - PAD TELEFONICA - B;SCGRB_G1I01;RUA ANTONIO CLAUDINO DE SOUZA GAROPABA CENTRO 88495000 SC 165;GAROPABA;-28.024770700;-48.618168400;G0;SCGRB-I01SP81;SCGRB-I01SP81-SS6;BR-SCGRB01-OLT01-NK;1/1/6/1
EQP0000000008770731;I01G0162;CTO SPLITTER 1 8;SCGRB_G1I01;RODOVIA SC 434 GAROPABA CENTRO 88495000 SC 1459;GAROPABA;-28.035202200;-48.623309600;G0;SCGRB-I01SP21;SCGRB-I01SP21-SS2;BR-SCGRB01-OLT01-NK;1/1/2/5
EQP0000000019542688;I01G0342;CTO - PAD TEL-B-70/30;SCGRB_G1I01;RUA ARLINDO ALCEBIADES DE ANDRADE GAROPABA CENTRO 88495000 SC sn;GAROPABA;-28.030049300;-48.629938400;G0;SCGRB-I01SP43;SCGRB-I01SP43-SS5;BR-SCGRB01-OLT01-NK;1/1/3/11
EQP0000000019542688;I01G0342;CTO - PAD TEL-B-70/30;SCGRB_G1I01;RUA ARLINDO ALCEBIADES DE ANDRADE GAROPABA CENTRO 88495000 SC sn;GAROPABA;-28.030049300;-48.629938400;G0;SCGRB-I01SP43;SCGRB-I01SP43-SS6;BR-SCGRB01-OLT01-NK;1/1/3/11
EQP0000000008635084;I01G0069;CTO SPLITTER 1 8;SCGRB_G1I01;RUA IVO JOAQUIM CARDOSO GAROPABA CENTRO 88495000 SC 60;GAROPABA;-28.049054200;-48.649162500;G0;SCGRB-I01SP9;SCGRB-I01SP9-SS5;BR-SCGRB01-OLT01-NK;1/1/1/9
EQP0000000027089820;I01G0180;CTO - PAD TELEFONICA - B;SCGRB_G1I01;RUA ROZALINA DE AGUIAR LENTZ GAROPABA CENTRO 88495000 SC 1466;GAROPABA;-28.033776800;-48.627157300;G0;SCGRB-I01SP23;SCGRB-I01SP23-SS3;BR-SCGRB01-OLT01-NK;1/1/2/7
EQP0000000027089820;I01G0180;CTO - PAD TELEFONICA - B;SCGRB_G1I01;RUA ROZALINA DE AGUIAR LENTZ GAROPABA CENTRO 88495000 SC 1466;GAROPABA;-28.033776800;-48.627157300;G0;SCGRB-I01SP23;SCGRB-I01SP23-SS4;BR-SCGRB01-OLT01-NK;1/1/2/7
EQP0000000008548597;I01G0142;CTO SPLITTER 1 8;SCGRB_G1I01;RUA LIDIO EZEQUIEL PACHECO GAROPABA CENTRO 88495000 SC 28;GAROPABA;-28.047593000;-48.627403100;G0;SCGRB-I01SP18;SCGRB-I01SP18-SS6;BR-SCGRB01-OLT01-NK;1/1/2/2
EQP0000000008355839;I01G0533;CTO SPLITTER 1 8;SCGRB_G1I01;RODOVIA JOVINO PIUCCO GAROPABA AREIAS MACACU 88495000 SC 1371;GAROPABA;-28.020246700;-48.627322400;G0;SCGRB-I01SP67;SCGRB-I01SP67-SS5;BR-SCGRB01-OLT01-NK;1/1/5/3
EQP0000000038526491;I01GP609;MINI CDOE 1:2 + 1:8 PRECON SELADA 70/30;SCGRB_G1I01;RUA ISMAEL LOBO GAROPABA CENTRO 88495000 SC 410;GAROPABA;-28.028215200;-48.625066800;GP;SCGRB-I01SP77;SCGRB-I01SP77-SS1;BR-SCGRB01-OLT01-NK;1/1/5/13
EQP0000000008100139;I01G0008;CTO SPLITTER 1 8;SCGRB_G1I01;RODOVIA SC 434 GAROPABA CENTRO 88495000 SC SN1;GAROPABA;-28.053312600;-48.651622800;G0;SCGRB-I01SP1;SCGRB-I01SP1-SS8;BR-SCGRB01-OLT01-NK;1/1/1/1
EQP0000000008839869;I01G0509;CTO SPLITTER 1 8;SCGRB_G1I01;ESTRADA PAULO LOPES GRP 010 GAROPABA CENTRO 88495000 SC 2199;GAROPABA;-28.015105800;-48.629545900;G0;SCGRB-I01SP64;SCGRB-I01SP64-SS5;BR-SCGRB01-OLT01-NK;1/1/4/16
EQP0000000008390026;I01G0099;CTO SPLITTER 1 8;SCGRB_G1I01;RUA SEM NOME 7 GAROPABA CENTRO 88495000 SC 69;GAROPABA;-28.045925900;-48.636590300;G0;SCGRB-I01SP13;SCGRB-I01SP13-SS3;BR-SCGRB01-OLT01-NK;1/1/1/13
EQP0000000014327461;I01G0265;CTO SPLITTER 1 8;SCGRB_G1I01;RUA PINGUIRITO GAROPABA CENTRO 88495000 SC SN;GAROPABA;-28.032392700;-48.632409100;G0;SCGRB-I01SP34;SCGRB-I01SP34-SS1;BR-SCGRB01-OLT01-NK;1/1/3/2
EQP0000000008840248;I01G0508;CTO SPLITTER 1 8;SCGRB_G1I01;RODOVIA JOVINO PIUCCO GAROPABA AREIAS MACACU 88495000 SC 2009;GAROPABA;-28.015796900;-48.629889400;G0;SCGRB-I01SP64;SCGRB-I01SP64-SS4;BR-SCGRB01-OLT01-NK;1/1/4/16
EQP0000000008838941;I01GPT510;CTO SPLITTER 1 8;SCGRB_G1I01;RODOVIA JOVINO PIUCCO GAROPABA AREIAS MACACU 88495000 SC 1885;GAROPABA;-28.017687600;-48.630850800;GPT;SCGRB-I01SP64;SCGRB-I01SP64-SS6;BR-SCGRB01-OLT01-NK;1/1/4/16
EQP0000000008268128;I01G0328;CTO SPLITTER 1 8;SCGRB_G1I01;RUA ILHA DA MADEIRA GAROPABA CENTRO 88495000 SC 233;GAROPABA;-28.028721200;-48.635005700;G0;SCGRB-I01SP41;SCGRB-I01SP41-SS8;BR-SCGRB01-OLT01-NK;1/1/3/9
EQP0000000008271725;I01G0322;CTO SPLITTER 1 8;SCGRB_G1I01;RUA ILHA DO CORVO GAROPABA CENTRO 88495000 SC 19;GAROPABA;-28.027666800;-48.633238000;G0;SCGRB-I01SP41;SCGRB-I01SP41-SS2;BR-SCGRB01-OLT01-NK;1/1/3/9
EQP0000000008374870;I01G0110;CTO SPLITTER 1 8;SCGRB_G1I01;RUA MIL E TREZENTOS GAROPABA CENTRO 88495000 SC 203;GAROPABA;-28.045333400;-48.635195600;G0;SCGRB-I01SP14;SCGRB-I01SP14-SS6;BR-SCGRB01-OLT01-NK;1/1/1/14
EQP0000000008662273;I01G0450;CTO SPLITTER 1 8;SCGRB_G1I01;RUA SEM NOME 74 GAROPABA CENTRO 88495000 SC SN;GAROPABA;-28.008146600;-48.642266500;G0;SCGRB-I01SP57;SCGRB-I01SP57-SS2;BR-SCGRB01-OLT01-NK;1/1/4/9
EQP0000000008574158;I01G0463;CTO SPLITTER 1 8;SCGRB_G1I01;RUA SEM NOME 81 GAROPABA CENTRO 88495000 SC SN;GAROPABA;-28.010019100;-48.639757600;G0;SCGRB-I01SP58;SCGRB-I01SP58-SS7;BR-SCGRB01-OLT01-NK;1/1/4/10
EQP0000000008565334;I01G0088;CTO SPLITTER 1 8;SCGRB_G1I01;RUA TEODORO FRANCISCO DOS ANJOS GAROPABA CENTRO 88495000 SC 1330;GAROPABA;-28.048850000;-48.641635400;G0;SCGRB-I01SP11;SCGRB-I01SP11-SS8;BR-SCGRB01-OLT01-NK;1/1/1/11
EQP0000000025380228;I01G0592;CTO - PAD TELEFONICA - B;SCGRB_G1I01;RUA SAO MIGUEL GAROPABA CENTRO 88495000 SC 525;GAROPABA;-28.029067600;-48.626259400;G0;SCGRB-I01SP74;SCGRB-I01SP74-SS7;BR-SCGRB01-OLT01-NK;1/1/5/10
EQP0000000025380228;I01G0592;CTO - PAD TELEFONICA - B;SCGRB_G1I01;RUA SAO MIGUEL GAROPABA CENTRO 88495000 SC 525;GAROPABA;-28.029067600;-48.626259400;G0;SCGRB-I01SP74;SCGRB-I01SP74-SS8;BR-SCGRB01-OLT01-NK;1/1/5/10
EQP0000000008406766;I01G0092;CTO SPLITTER 1 8;SCGRB_G1I01;RUA SEM NOME 10 GAROPABA CENTRO 88495000 SC 96;GAROPABA;-28.047006000;-48.637824000;G0;SCGRB-I01SP12;SCGRB-I01SP12-SS4;BR-SCGRB01-OLT01-NK;1/1/1/12
EQP0000000027091641;I01G0178;CTO - PAD TELEFONICA - B;SCGRB_G1I01;RUA VIUVA MARIA ANTONIA DOS SANTOS GAROPABA CENTRO 88495000 SC 1420;GAROPABA;-28.033795100;-48.628208500;G0;SCGRB-I01SP23;SCGRB-I01SP23-SS1;BR-SCGRB01-OLT01-NK;1/1/2/7
EQP0000000027091641;I01G0178;CTO - PAD TELEFONICA - B;SCGRB_G1I01;RUA VIUVA MARIA ANTONIA DOS SANTOS GAROPABA CENTRO 88495000 SC 1420;GAROPABA;-28.033795100;-48.628208500;G0;SCGRB-I01SP23;SCGRB-I01SP23-SS2;BR-SCGRB01-OLT01-NK;1/1/2/7
EQP0000000008560262;I01GPT150;CTO SPLITTER 1 8;SCGRB_G1I01;RODOVIA SC 434 GAROPABA CENTRO 88495000 SC 3226 CS 12;GAROPABA;-28.044020900;-48.630681700;GPT;SCGRB-I01SP19;SCGRB-I01SP19-SS6;BR-SCGRB01-OLT01-NK;1/1/2/3
EQP0000000008473431;I01G0480;CTO SPLITTER 1 8;SCGRB_G1I01;AVENIDA DOS PESCADORES GAROPABA CENTRO 88495000 SC 1535;GAROPABA;-28.014171700;-48.628349500;G0;SCGRB-I01SP60;SCGRB-I01SP60-SS8;BR-SCGRB01-OLT01-NK;1/1/4/12
EQP0000000008453754;I01G0236;CTO SPLITTER 1 8;SCGRB_G1I01;RUA LAJEADO GAROPABA CENTRO 88495000 SC 1840;GAROPABA;-28.030786300;-48.640685100;G0;SCGRB-I01SP30;SCGRB-I01SP30-SS4;BR-SCGRB01-OLT01-NK;1/1/2/14
EQP0000000008101095;I01G0406;CTO SPLITTER 1 8;SCGRB_G1I01;RUA TEODORO OLAVIO PACHECO GAROPABA CENTRO 88495000 SC 52;GAROPABA;-28.029912400;-48.618359100;G0;SCGRB-I01SP51;SCGRB-I01SP51-SS6;BR-SCGRB01-OLT01-NK;1/1/4/3
EQP0000000008355563;I01G0536;CTO SPLITTER 1 8;SCGRB_G1I01;RUA ALFREDOLINO A DE AMORIM GAROPABA CENTRO 88495000 SC 329;GAROPABA;-28.020282300;-48.630059500;G0;SCGRB-I01SP67;SCGRB-I01SP67-SS8;BR-SCGRB01-OLT01-NK;1/1/5/3
EQP0000000008855133;I01G0516;CTO SPLITTER 1 8;SCGRB_G1I01;RUA DOS PINHEIROS GAROPABA CENTRO 88495000 SC 370;GAROPABA;-28.017475100;-48.627947600;G0;SCGRB-I01SP65;SCGRB-I01SP65-SS4;BR-SCGRB01-OLT01-NK;1/1/5/1
EQP0000000008770308;I01G0168;CTO SPLITTER 1 8;SCGRB_G1I01;RUA PINGUIRITO GAROPABA CENTRO 88495000 SC 74;GAROPABA;-28.033786200;-48.622372800;G0;SCGRB-I01SP21;SCGRB-I01SP21-SS8;BR-SCGRB01-OLT01-NK;1/1/2/5
EQP0000000008514062;I01G0558;CTO SPLITTER 1 8;SCGRB_G1I01;RUA PTOLOMEU BITENCOURT GAROPABA CENTRO 88495000 SC 257;GAROPABA;-28.023076600;-48.626066000;G0;SCGRB-I01SP70;SCGRB-I01SP70-SS6;BR-SCGRB01-OLT01-NK;1/1/5/6
EQP0000000008104946;I01G0006;CTO SPLITTER 1 8;SCGRB_G1I01;RODOVIA SC 434 GAROPABA CENTRO 88495000 SC 5594;GAROPABA;-28.056137400;-48.656387700;G0;SCGRB-I01SP1;SCGRB-I01SP1-SS6;BR-SCGRB01-OLT01-NK;1/1/1/1
EQP0000000019541113;I01G0344;CTO - PAD TEL-B-70/30;SCGRB_G1I01;RUA NICOLAU MANOEL DE ABREU GAROPABA CENTRO 88495000 SC 15;GAROPABA;-28.029452200;-48.628997800;G0;SCGRB-I01SP43;SCGRB-I01SP43-SS7;BR-SCGRB01-OLT01-NK;1/1/3/11
EQP0000000019541113;I01G0344;CTO - PAD TEL-B-70/30;SCGRB_G1I01;RUA NICOLAU MANOEL DE ABREU GAROPABA CENTRO 88495000 SC 15;GAROPABA;-28.029452200;-48.628997800;G0;SCGRB-I01SP43;SCGRB-I01SP43-SS8;BR-SCGRB01-OLT01-NK;1/1/3/11
EQP0000000008286744;I01G0710;CTO SPLITTER 1 8;SCGRB_G1I01;RUA DOUTOR ELMO KINSESKI GAROPABA CENTRO 88495000 SC 819;GAROPABA;-28.028905400;-48.622759900;G0;SCGRB-I01SP89;SCGRB-I01SP89-SS6;BR-SCGRB01-OLT01-NK;1/1/6/9
EQP0000000008487976;I01G0469;CTO SPLITTER 1 8;SCGRB_G1I01;RODOVIA JOVINO PIUCCO GAROPABA AREIAS MACACU 88495000 SC 2440;GAROPABA;-28.011218700;-48.631655700;G0;SCGRB-I01SP59;SCGRB-I01SP59-SS5;BR-SCGRB01-OLT01-NK;1/1/4/11
EQP0000000007963413;I01G0472;CTO SPLITTER 1 8;SCGRB_G1I01;AVENIDA DOS PESCADORES GAROPABA CENTRO 88495000 SC 2400;GAROPABA;-28.013212400;-48.629404300;G0;SCGRB-I01SP59;SCGRB-I01SP59-SS8;BR-SCGRB01-OLT01-NK;1/1/4/11
EQP0000000008709140;I01G0578;CTO SPLITTER 1 8;SCGRB_G1I01;RUA NEREU RAMOS GAROPABA CENTRO 88495000 SC 2025;GAROPABA;-28.019406700;-48.634319000;G0;SCGRB-I01SP73;SCGRB-I01SP73-SS2;BR-SCGRB01-OLT01-NK;1/1/5/9
EQP0000000014725007;I01G0289;CTO SPLITTER 1 8;SCGRB_G1I01;RUA SEM NOME 24 GAROPABA CENTRO 88495000 SC SN;GAROPABA;-28.022324000;-48.643344500;G0;SCGRB-I01SP37;SCGRB-I01SP37-SS1;BR-SCGRB01-OLT01-NK;1/1/3/5
EQP0000000008738166;I01G0252;CTO SPLITTER 1 8;SCGRB_G1I01;RUA NICOLAU MANOEL DE ABREU GAROPABA CENTRO 88495000 SC 985;GAROPABA;-28.035798500;-48.643741300;G0;SCGRB-I01SP32;SCGRB-I01SP32-SS4;BR-SCGRB01-OLT01-NK;1/1/2/16
EQP0000000027133908;I01G0262;CTO - PAD TELEFONICA - B;SCGRB_G1I01;RUA SEM NOME 13 GAROPABA CENTRO 88495000 SC 2;GAROPABA;-28.035381000;-48.638746300;G0;SCGRB-I01SP33;SCGRB-I01SP33-SS5;BR-SCGRB01-OLT01-NK;1/1/3/1
EQP0000000027133908;I01G0262;CTO - PAD TELEFONICA - B;SCGRB_G1I01;RUA SEM NOME 13 GAROPABA CENTRO 88495000 SC 2;GAROPABA;-28.035381000;-48.638746300;G0;SCGRB-I01SP33;SCGRB-I01SP33-SS6;BR-SCGRB01-OLT01-NK;1/1/3/1
EQP0000000008141172;I01G0025;CTO SPLITTER 1 8;SCGRB_G1I01;RUA EMENEGILDA MARTINS PACHECO GAROPABA CENTRO 88495000 SC SN;GAROPABA;-28.053869600;-48.644434400;G0;SCGRB-I01SP4;SCGRB-I01SP4-SS1;BR-SCGRB01-OLT01-NK;1/1/1/4
EQP0000000008855995;I01G0514;CTO SPLITTER 1 8;SCGRB_G1I01;RUA DOS IPES GAROPABA CENTRO 88495000 SC 80;GAROPABA;-28.018853000;-48.625465100;G0;SCGRB-I01SP65;SCGRB-I01SP65-SS2;BR-SCGRB01-OLT01-NK;1/1/5/1
EQP0000000008709112;I01G0579;CTO SPLITTER 1 8;SCGRB_G1I01;RUA NEREU RAMOS GAROPABA CENTRO 88495000 SC 1845;GAROPABA;-28.021948600;-48.634179700;G0;SCGRB-I01SP73;SCGRB-I01SP73-SS3;BR-SCGRB01-OLT01-NK;1/1/5/9
EQP0000000034937576;I01GP522;MINI CDOE 1:2 + 1:8 PRECON SELADA 70/30;SCGRB_G1I01;BECO DO PARAISO GAROPABA CENTRO 88495000 SC 289;GAROPABA;-28.017748600;-48.628119800;GP;SCGRB-I01SP66;SCGRB-I01SP66-SS2;BR-SCGRB01-OLT01-NK;1/1/5/2
EQP0000000035009169;I01GP523;MINI CDOE 1:2 + 1:8 PRECON SELADA 70/30;SCGRB_G1I01;BECO DO PARAISO GAROPABA CENTRO 88495000 SC 289;GAROPABA;-28.017691700;-48.627918100;GP;SCGRB-I01SP66;SCGRB-I01SP66-SS3;BR-SCGRB01-OLT01-NK;1/1/5/2
EQP0000000008576167;I01G0460;CTO SPLITTER 1 8;SCGRB_G1I01;RUA SEM NOME 82 GAROPABA CENTRO 88495000 SC SN;GAROPABA;-28.012821600;-48.641107100;G0;SCGRB-I01SP58;SCGRB-I01SP58-SS4;BR-SCGRB01-OLT01-NK;1/1/4/10
EQP0000000008403199;I01G0096;CTO SPLITTER 1 8;SCGRB_G1I01;RODOVIA SC 434 GAROPABA CENTRO 88495000 SC 3302;GAROPABA;-28.046906100;-48.634858500;G0;SCGRB-I01SP12;SCGRB-I01SP12-SS8;BR-SCGRB01-OLT01-NK;1/1/1/12
EQP0000000008352887;I01G0221;CTO SPLITTER 1 8;SCGRB_G1I01;RUA LAJEADO GAROPABA CENTRO 88495000 SC 408;GAROPABA;-28.032759300;-48.626667400;G0;SCGRB-I01SP28;SCGRB-I01SP28-SS5;BR-SCGRB01-OLT01-NK;1/1/2/12
EQP0000000026692043;I01G0374;CTO - PAD TELEFONICA - B;SCGRB_G1I01;RUA BERNARDINO MANOEL RODRIGUES GAROPABA CENTRO 88495000 SC 419;GAROPABA;-28.031785400;-48.615978500;G0;SCGRB-I01SP47;SCGRB-I01SP47-SS5;BR-SCGRB01-OLT01-NK;1/1/3/15
EQP0000000026692043;I01G0374;CTO - PAD TELEFONICA - B;SCGRB_G1I01;RUA BERNARDINO MANOEL RODRIGUES GAROPABA CENTRO 88495000 SC 419;GAROPABA;-28.031785400;-48.615978500;G0;SCGRB-I01SP47;SCGRB-I01SP47-SS6;BR-SCGRB01-OLT01-NK;1/1/3/15
EQP0000000014740913;I01G0303;CTO SPLITTER 1 8;SCGRB_G1I01;RUA HIGINO REGINALDO GONCALVES GAROPABA CENTRO 88495000 SC SN;GAROPABA;-28.024528200;-48.641596300;G0;SCGRB-I01SP38;SCGRB-I01SP38-SS7;BR-SCGRB01-OLT01-NK;1/1/3/6
EQP0000000008460593;I01G0117;CTO SPLITTER 1 8;SCGRB_G1I01;RUA JOB INACIO FURTADO GAROPABA CENTRO 88495000 SC SN;GAROPABA;-28.047279700;-48.633957900;G0;SCGRB-I01SP15;SCGRB-I01SP15-SS5;BR-SCGRB01-OLT01-NK;1/1/1/15
EQP0000000008781149;I01G0057;CTO SPLITTER 1 8;SCGRB_G1I01;RUA SEM NOME 49 GAROPABA CENTRO 88495000 SC SN;GAROPABA;-28.044227000;-48.645516500;G0;SCGRB-I01SP8;SCGRB-I01SP8-SS1;BR-SCGRB01-OLT01-NK;1/1/1/8
EQP0000000008372350;I01G0112;CTO SPLITTER 1 8;SCGRB_G1I01;RODOVIA SC 434 GAROPABA CENTRO 88495000 SC SN1;GAROPABA;-28.046174400;-48.632732800;G0;SCGRB-I01SP14;SCGRB-I01SP14-SS8;BR-SCGRB01-OLT01-NK;1/1/1/14
EQP0000000027381362;I01G0678;CTO - PAD TELEFONICA - B;SCGRB_G1I01;RUA FRANCISCO PACHECO DE SOUZA GAROPABA CENTRO 88495000 SC 409;GAROPABA;-28.026348100;-48.623433200;G0;SCGRB-I01SP85;SCGRB-I01SP85-SS5;BR-SCGRB01-OLT01-NK;1/1/6/5
EQP0000000027381362;I01G0678;CTO - PAD TELEFONICA - B;SCGRB_G1I01;RUA FRANCISCO PACHECO DE SOUZA GAROPABA CENTRO 88495000 SC 409;GAROPABA;-28.026348100;-48.623433200;G0;SCGRB-I01SP85;SCGRB-I01SP85-SS6;BR-SCGRB01-OLT01-NK;1/1/6/5
EQP0000000026052128;I01G0588;CTO - PAD TELEFONICA - B;SCGRB_G1I01;RODOVIA DOS ACORES GAROPABA AMBROSIO DE DENTRO 88495000 SC 205;GAROPABA;-28.029125200;-48.629790700;G0;SCGRB-I01SP74;SCGRB-I01SP74-SS3;BR-SCGRB01-OLT01-NK;1/1/5/10
EQP0000000026052128;I01G0588;CTO - PAD TELEFONICA - B;SCGRB_G1I01;RODOVIA DOS ACORES GAROPABA AMBROSIO DE DENTRO 88495000 SC 205;GAROPABA;-28.029125200;-48.629790700;G0;SCGRB-I01SP74;SCGRB-I01SP74-SS4;BR-SCGRB01-OLT01-NK;1/1/5/10
EQP0000000008514873;I01G0565;CTO SPLITTER 1 8;SCGRB_G1I01;RUA MARCOS INACIO DE ABREU GAROPABA PINGUIRITO 88495000 SC 446;GAROPABA;-28.026248400;-48.627755000;G0;SCGRB-I01SP71;SCGRB-I01SP71-SS5;BR-SCGRB01-OLT01-NK;1/1/5/7
EQP0000000041151945;I01GP525;MINI CDOE 1:2 + 1:8 PRECON SELADA 70/30;SCGRB_G1I01;RUA DOS PINHEIROS GAROPABA CENTRO 88495000 SC 19;GAROPABA;-28.019170200;-48.627732600;GP;SCGRB-I01SP66;SCGRB-I01SP66-SS5;BR-SCGRB01-OLT01-NK;1/1/5/2
EQP0000000008406041;I01G0093;CTO SPLITTER 1 8;SCGRB_G1I01;RUA SEM NOME 10 GAROPABA CENTRO 88495000 SC 102;GAROPABA;-28.047127800;-48.637020700;G0;SCGRB-I01SP12;SCGRB-I01SP12-SS5;BR-SCGRB01-OLT01-NK;1/1/1/12
EQP0000000008353472;I01G0619;CTO SPLITTER 1 8;SCGRB_G1I01;RUA BELA VISTA GAROPABA CENTRO 88495000 SC 112;GAROPABA;-28.021617500;-48.610804800;G0;SCGRB-I01SP78;SCGRB-I01SP78-SS3;BR-SCGRB01-OLT01-NK;1/1/5/14
EQP0000000008575828;I01G0461;CTO SPLITTER 1 8;SCGRB_G1I01;RUA SERVIDAO PMG 808 GAROPABA AREIAS DE MACACU 88495000 SC SN;GAROPABA;-28.012152200;-48.640502800;G0;SCGRB-I01SP58;SCGRB-I01SP58-SS5;BR-SCGRB01-OLT01-NK;1/1/4/10
EQP0000000008560776;I01GPT147;CTO SPLITTER 1 8;SCGRB_G1I01;RODOVIA SC 434 GAROPABA CENTRO 88495000 SC SN1;GAROPABA;-28.044614500;-48.627963700;GPT;SCGRB-I01SP19;SCGRB-I01SP19-SS3;BR-SCGRB01-OLT01-NK;1/1/2/3
EQP0000000008490427;I01G0475;CTO SPLITTER 1 8;SCGRB_G1I01;RUA DAS AMENDOEIRAS GAROPABA CENTRO 88495000 SC 327;GAROPABA;-28.017080800;-48.627398300;G0;SCGRB-I01SP60;SCGRB-I01SP60-SS3;BR-SCGRB01-OLT01-NK;1/1/4/12
EQP0000000027134144;I01G0260;CTO - PAD TELEFONICA - B;SCGRB_G1I01;RUA SEM NOME 18 GAROPABA CENTRO 88495000 SC 155;GAROPABA;-28.035725100;-48.639173300;G0;SCGRB-I01SP33;SCGRB-I01SP33-SS3;BR-SCGRB01-OLT01-NK;1/1/3/1
EQP0000000027134144;I01G0260;CTO - PAD TELEFONICA - B;SCGRB_G1I01;RUA SEM NOME 18 GAROPABA CENTRO 88495000 SC 155;GAROPABA;-28.035725100;-48.639173300;G0;SCGRB-I01SP33;SCGRB-I01SP33-SS4;BR-SCGRB01-OLT01-NK;1/1/3/1
EQP0000000008514386;I01G0556;CTO SPLITTER 1 8;SCGRB_G1I01;RUA JOSE ANTONIO LOBO GAROPABA CENTRO 88495000 SC 222;GAROPABA;-28.022457100;-48.625385500;G0;SCGRB-I01SP70;SCGRB-I01SP70-SS4;BR-SCGRB01-OLT01-NK;1/1/5/6
EQP0000000008489823;I01G0478;CTO SPLITTER 1 8;SCGRB_G1I01;RUA DAS AMENDOEIRAS GAROPABA CENTRO 88495000 SC 147;GAROPABA;-28.015695800;-48.628237500;G0;SCGRB-I01SP60;SCGRB-I01SP60-SS6;BR-SCGRB01-OLT01-NK;1/1/4/12
EQP0000000008840659;I01GPT507;CTO SPLITTER 1 8;SCGRB_G1I01;RODOVIA JOVINO PIUCCO GAROPABA AREIAS MACACU 88495000 SC SN;GAROPABA;-28.016619700;-48.630705600;GPT;SCGRB-I01SP64;SCGRB-I01SP64-SS3;BR-SCGRB01-OLT01-NK;1/1/4/16
EQP0000000008708983;I01G0583;CTO SPLITTER 1 8;SCGRB_G1I01;RUA LIDIO CRISPIM GAROPABA CENTRO 88495000 SC 998;GAROPABA;-28.024195700;-48.630301600;G0;SCGRB-I01SP73;SCGRB-I01SP73-SS7;BR-SCGRB01-OLT01-NK;1/1/5/9
EQP0000000008559467;I01G0152;CTO SPLITTER 1 8;SCGRB_G1I01;RODOVIA SC 434 GAROPABA CENTRO 88495000 SC 3_LJB;GAROPABA;-28.046634500;-48.630542100;G0;SCGRB-I01SP19;SCGRB-I01SP19-SS8;BR-SCGRB01-OLT01-NK;1/1/2/3
EQP0000000008856525;I01G0513;CTO SPLITTER 1 8;SCGRB_G1I01;RUA DOS GIRASSOIS GAROPABA CENTRO 88495000 SC 25;GAROPABA;-28.018120800;-48.626020800;G0;SCGRB-I01SP65;SCGRB-I01SP65-SS1;BR-SCGRB01-OLT01-NK;1/1/5/1
EQP0000000008490302;I01G0476;CTO SPLITTER 1 8;SCGRB_G1I01;AVENIDA DAS HORTENCIAS GAROPABA CENTRO 88495000 SC 257;GAROPABA;-28.016260800;-48.627173600;G0;SCGRB-I01SP60;SCGRB-I01SP60-SS4;BR-SCGRB01-OLT01-NK;1/1/4/12
EQP0000000008484683;I01G0471;CTO SPLITTER 1 8;SCGRB_G1I01;RODOVIA JOVINO PIUCCO GAROPABA AREIAS MACACU 88495000 SC 2406;GAROPABA;-28.012799600;-48.630069900;G0;SCGRB-I01SP59;SCGRB-I01SP59-SS7;BR-SCGRB01-OLT01-NK;1/1/4/11
EQP0000000008709176;I01G0577;CTO SPLITTER 1 8;SCGRB_G1I01;RUA MARIA ALBERTINA PACHECO GAROPABA CENTRO 88495000 SC;GAROPABA;-28.018269700;-48.635180200;G0;SCGRB-I01SP73;SCGRB-I01SP73-SS1;BR-SCGRB01-OLT01-NK;1/1/5/9
EQP0000000008502954;I01G0134;CTO SPLITTER 1 8;SCGRB_G1I01;RUA JOSE CUPERTINO ALBANO GAROPABA CENTRO 88495000 SC 51;GAROPABA;-28.048507600;-48.624677300;G0;SCGRB-I01SP17;SCGRB-I01SP17-SS6;BR-SCGRB01-OLT01-NK;1/1/2/1
EQP0000000008500609;I01G0548;CTO SPLITTER 1 8;SCGRB_G1I01;RUA OLIVIO DUARTE DE SENA GAROPABA CENTRO 88495000 SC 387;GAROPABA;-28.022205700;-48.623924200;G0;SCGRB-I01SP69;SCGRB-I01SP69-SS4;BR-SCGRB01-OLT01-NK;1/1/5/5
EQP0000000008353499;I01G0618;CTO SPLITTER 1 8;SCGRB_G1I01;RUA DA VIGIA GAROPABA CENTRO 88495000 SC 255;GAROPABA;-28.019318700;-48.609221700;G0;SCGRB-I01SP78;SCGRB-I01SP78-SS2;BR-SCGRB01-OLT01-NK;1/1/5/14
EQP0000000008560465;I01GPT149;CTO SPLITTER 1 8;SCGRB_G1I01;RODOVIA SC 434 GAROPABA CENTRO 88495000 SC 3226 CS 13;GAROPABA;-28.044178300;-48.629788800;GPT;SCGRB-I01SP19;SCGRB-I01SP19-SS5;BR-SCGRB01-OLT01-NK;1/1/2/3
EQP0000000038530757;I01GP441;MINI CDOE 1:2 + 1:8 PRECON SELADA 70/30;SCGRB_G1I01;RUA PREFEITO JOAO ORESTES DE ARAUJO GAROPABA CENTRO 88495000 SC 727;GAROPABA;-28.029274600;-48.620751200;GP;SCGRB-I01SP56;SCGRB-I01SP56-SS1;BR-SCGRB01-OLT01-NK;1/1/4/8
EQP0000000008758557;I01G0153;CTO SPLITTER 1 8;SCGRB_G1I01;RODOVIA SC 434 GAROPABA CENTRO 88495000 SC 1891;GAROPABA;-28.042545800;-48.624169500;G0;SCGRB-I01SP20;SCGRB-I01SP20-SS1;BR-SCGRB01-OLT01-NK;1/1/2/4
EQP0000000008290642;I01G0037;CTO SPLITTER 1 8;SCGRB_G1I01;RUA JOANA MARIA DE BITENCOURT3 GAROPABA CENTRO 88495000 SC SN;GAROPABA;-28.050829600;-48.640046100;G0;SCGRB-I01SP5;SCGRB-I01SP5-SS5;BR-SCGRB01-OLT01-NK;1/1/1/5
EQP0000000008514414;I01G0555;CTO SPLITTER 1 8;SCGRB_G1I01;RUA JOSE ANTONIO LOBO GAROPABA CENTRO 88495000 SC 66;GAROPABA;-28.022691000;-48.623884700;G0;SCGRB-I01SP70;SCGRB-I01SP70-SS3;BR-SCGRB01-OLT01-NK;1/1/5/6
EQP0000000008514442;I01G0554;CTO SPLITTER 1 8;SCGRB_G1I01;RUA CEZAR GAZOLA LOPES GAROPABA CENTRO 88495000 SC 245;GAROPABA;-28.022952000;-48.622942100;G0;SCGRB-I01SP70;SCGRB-I01SP70-SS2;BR-SCGRB01-OLT01-NK;1/1/5/6
EQP0000000008102987;I01G0007;CTO SPLITTER 1 8;SCGRB_G1I01;RODOVIA SC 434 GAROPABA CENTRO 88495000 SC SN1;GAROPABA;-28.054655300;-48.654712100;G0;SCGRB-I01SP1;SCGRB-I01SP1-SS7;BR-SCGRB01-OLT01-NK;1/1/1/1
EQP0000000038512782;I01GP657;MINI CDOE 1:2 + 1:8 PRECON SELADA 70/30;SCGRB_G1I01;RUA PREFEITO JOAO ORESTES DE ARAUJO GAROPABA CENTRO 88495000 SC 246;GAROPABA;-28.024385100;-48.620225400;GP;SCGRB-I01SP83;SCGRB-I01SP83-SS1;BR-SCGRB01-OLT01-NK;1/1/6/3
EQP0000000038523648;I01GP660;MINI CDOE 1:2 + 1:8 PRECON SELADA 70/30;SCGRB_G1I01;RUA TRINTA DE DEZEMBRO GAROPABA CENTRO 88495000 SC 352;GAROPABA;-28.025837100;-48.619712800;GP;SCGRB-I01SP83;SCGRB-I01SP83-SS4;BR-SCGRB01-OLT01-NK;1/1/6/3
EQP0000000008842640;I01GPT505;CTO SPLITTER 1 8;SCGRB_G1I01;RODOVIA JOVINO PIUCCO GAROPABA AREIAS MACACU 88495000 SC 2001;GAROPABA;-28.017345600;-48.632321000;GPT;SCGRB-I01SP64;SCGRB-I01SP64-SS1;BR-SCGRB01-OLT01-NK;1/1/4/16
EQP0000000008359193;I01G0539;CTO SPLITTER 1 8;SCGRB_G1I01;RUA JOSE ANTONIO LOBO GAROPABA CENTRO 88495000 SC 361;GAROPABA;-28.022250600;-48.626711200;G0;SCGRB-I01SP68;SCGRB-I01SP68-SS3;BR-SCGRB01-OLT01-NK;1/1/5/4
EQP0000000027424439;I01G0718;CTO - PAD TELEFONICA - B;SCGRB_G1I01;RODOVIA JOVINO PIUCCO GAROPABA AREIAS MACACU 88495000 SC 650;GAROPABA;-28.027298600;-48.626537100;G0;SCGRB-I01SP90;SCGRB-I01SP90-SS5;BR-SCGRB01-OLT01-NK;1/1/6/10
EQP0000000027424439;I01G0718;CTO - PAD TELEFONICA - B;SCGRB_G1I01;RODOVIA JOVINO PIUCCO GAROPABA AREIAS MACACU 88495000 SC 650;GAROPABA;-28.027298600;-48.626537100;G0;SCGRB-I01SP90;SCGRB-I01SP90-SS6;BR-SCGRB01-OLT01-NK;1/1/6/10
EQP0000000008575140;I01G0462;CTO SPLITTER 1 8;SCGRB_G1I01;RODOVIA JOVINO PIUCCO GAROPABA AREIAS MACACU 88495000 SC SN;GAROPABA;-28.010665000;-48.638974800;G0;SCGRB-I01SP58;SCGRB-I01SP58-SS6;BR-SCGRB01-OLT01-NK;1/1/4/10
EQP0000000008501849;I01G0545;CTO SPLITTER 1 8;SCGRB_G1I01;RUA GEOVANE LUIS PIUCO GAROPABA FERRAZ 88495000 SC 73;GAROPABA;-28.022020500;-48.621051700;G0;SCGRB-I01SP69;SCGRB-I01SP69-SS1;BR-SCGRB01-OLT01-NK;1/1/5/5
EQP0000000008253335;I01G0320;CTO SPLITTER 1 8;SCGRB_G1I01;RUA ILHA GRACIOSA GAROPABA CENTRO 88495000 SC 111;GAROPABA;-28.028070000;-48.637065800;G0;SCGRB-I01SP40;SCGRB-I01SP40-SS8;BR-SCGRB01-OLT01-NK;1/1/3/8
EQP0000000008291682;I01G0034;CTO SPLITTER 1 8;SCGRB_G1I01;RUA LIDIO EZEQUIEL PACHECO GAROPABA CENTRO 88495000 SC 140;GAROPABA;-28.048937700;-48.635607900;G0;SCGRB-I01SP5;SCGRB-I01SP5-SS2;BR-SCGRB01-OLT01-NK;1/1/1/5
EQP0000000008348522;I01G0331;CTO SPLITTER 1 8;SCGRB_G1I01;RUA SEM NOME 60 GAROPABA CENTRO 88495000 SC SN;GAROPABA;-28.029774800;-48.631561300;G0;SCGRB-I01SP42;SCGRB-I01SP42-SS3;BR-SCGRB01-OLT01-NK;1/1/3/10
EQP0000000008353445;I01G0620;CTO SPLITTER 1 8;SCGRB_G1I01;RUA SAO JOAQUIM GAROPABA CENTRO 88495000 SC 175;GAROPABA;-28.020226900;-48.611266700;G0;SCGRB-I01SP78;SCGRB-I01SP78-SS4;BR-SCGRB01-OLT01-NK;1/1/5/14
EQP0000000026707427;I01G0386;CTO - PAD TELEFONICA - B;SCGRB_G1I01;AVENIDA BATISTA PACHECO PEREIRA GAROPABA CENTRO 88495000 SC 291;GAROPABA;-28.029027300;-48.616290000;G0;SCGRB-I01SP49;SCGRB-I01SP49-SS1;BR-SCGRB01-OLT01-NK;1/1/4/1
EQP0000000026707427;I01G0386;CTO - PAD TELEFONICA - B;SCGRB_G1I01;AVENIDA BATISTA PACHECO PEREIRA GAROPABA CENTRO 88495000 SC 291;GAROPABA;-28.029027300;-48.616290000;G0;SCGRB-I01SP49;SCGRB-I01SP49-SS2;BR-SCGRB01-OLT01-NK;1/1/4/1
EQP0000000007948635;I01G0355;CTO SPLITTER 1 8;SCGRB_G1I01;RUA RIO GRANDE DO SUL GAROPABA CENTRO 88495000 SC SN;GAROPABA;-28.033652400;-48.616005700;G0;SCGRB-I01SP45;SCGRB-I01SP45-SS3;BR-SCGRB01-OLT01-NK;1/1/3/13
