UID_EQUIP;CTO_NAME;MODELO;ARMARIO;ENDERECO;MUNICIPIO;LATITUDE;LONGITUDE;TIPO_CTO;SP;SS
EQP0000000004744339;I01G0086;CTO SPLITTER 1 8;ESVIA_G1I01;RUA GOIAS VIANA UNIVERSAL 29134439 ES SN;VIANA;-20.359972300;-40.445949000;G0;ESVIA-I01SP11;ESVIA-I01SP11-SS6
EQP0000000004491658;I01G01696;CTO SPLITTER 1 8;ESVIA_G1I01;RUA BARRA DE SAO FRANCISCO VIANA MARCILIO DE NORONHA 29135632 ES QD5-LT20;VIANA;-20.348728700;-40.423171300;G0;ESVIA-I01SP212;ESVIA-I01SP212-SS8
EQP0000000004722141;I01G0259;CTO SPLITTER 1 8;ESVIA_G1I01;RUA PARIS VIANA MARCILIO DE NORONHA 29135401 ES SN;VIANA;-20.348978200;-40.427636800;G0;ESVIA-I01SP33;ESVIA-I01SP33-SS3
EQP0000000004515735;I01G01621;CTO SPLITTER 1 8;ESVIA_G1I01;RUA CACHOEIRO DE ITAPEMIRIM VIANA MARCILIO DE NORONHA 29135533 ES QD12-LT14;VIANA;-20.343490300;-40.423702800;G0;ESVIA-I01SP203;ESVIA-I01SP203-SS5
EQP0000000004780836;I01G0062;CTO SPLITTER 1 8;ESVIA_G1I01;RUA MISSIONARIA VIANA UNIVERSAL 29134463 ES SN;VIANA;-20.357609700;-40.449094700;G0;ESVIA-I01SP8;ESVIA-I01SP8-SS6
EQP0000000004741765;I01G0215;CTO SPLITTER 1 8;ESVIA_G1I01;RUA NITEROI VIANA CANAA 29135106 ES 16;VIANA;-20.357304200;-40.434338200;G0;ESVIA-I01SP27;ESVIA-I01SP27-SS7
EQP0000000004731833;I01G0106;CTO SPLITTER 1 8;ESVIA_G1I01;RUA SAO JOAO VIANA UNIVERSAL 29134421 ES 21;VIANA;-20.361904100;-40.445384500;G0;ESVIA-I01SP14;ESVIA-I01SP14-SS2
EQP0000000004479457;I01G01734;CTO SPLITTER 1 8;ESVIA_G1I01;RUA PRESIDENTE TANCREDO NEVES VIANA PRIMAVERA 29135170 ES SN;VIANA;-20.356853900;-40.423528300;G0;ESVIA-I01SP217;ESVIA-I01SP217-SS6
EQP0000000004750453;I01G0036;CTO SPLITTER 1 8;ESVIA_G1I01;RUA MISSIONARIA VIANA UNIVERSAL 29134463 ES 111;VIANA;-20.355991700;-40.448971600;G0;ESVIA-I01SP5;ESVIA-I01SP5-SS4
EQP0000000004629221;I01G01415;CTO SPLITTER 1 8;ESVIA_G1I01;RUA PEDRO MACHADO DA SILVA VIANA INDUSTRIAL 29135572 ES 23;VIANA;-20.343173400;-40.419231400;G0;ESVIA-I01SP177;ESVIA-I01SP177-SS7
EQP0000000004629512;I01G01414;CTO SPLITTER 1 8;ESVIA_G1I01;RUA DISTRITO FEDERAL VIANA MARCILIO DE NORONHA 29135575 ES SN;VIANA;-20.343512600;-40.419633400;G0;ESVIA-I01SP177;ESVIA-I01SP177-SS6
EQP0000000004482730;I01G01727;CTO SPLITTER 1 8;ESVIA_G1I01;RUA ANGELINA BORTOLOTTI VIANA MARCILIO DE NORONHA 29135331 ES SN;VIANA;-20.352903000;-40.424509800;G0;ESVIA-I01SP216;ESVIA-I01SP216-SS7
EQP0000000004717172;I01G0159;CTO SPLITTER 1 8;ESVIA_G1I01;RUA AMAZONAS VIANA CANAA 29135044 ES 10;VIANA;-20.359034000;-40.437439900;G0;ESVIA-I01SP20;ESVIA-I01SP20-SS7
EQP0000000004709029;I01G01450;CTO SPLITTER 1 8;ESVIA_G1I01;RUA SAO FRANCISCO VIANA MARCILIO DE NORONHA 29135596 ES 20;VIANA;-20.343786800;-40.422543100;G0;ESVIA-I01SP182;ESVIA-I01SP182-SS2
EQP0000000004620558;I01G01508;CTO SPLITTER 1 8;ESVIA_G1I01;AVENIDA PIRACICABA VIANA MARCILIO DE NORONHA 29135391 ES SN;VIANA;-20.346389800;-40.429532800;G0;ESVIA-I01SP189;ESVIA-I01SP189-SS4
EQP0000000004622073;I01G01435;CTO SPLITTER 1 8;ESVIA_G1I01;RUA ALAGOAS VIANA INDUSTRIAL 29135569 ES SN1;VIANA;-20.344242200;-40.419740900;G0;ESVIA-I01SP180;ESVIA-I01SP180-SS3
EQP0000000004538752;I01G01532;CTO SPLITTER 1 8;ESVIA_G1I01;RUA GUARUJA VIANA MARCILIO DE NORONHA 29135434 ES QD50-LT43;VIANA;-20.343355600;-40.427332800;G0;ESVIA-I01SP192;ESVIA-I01SP192-SS4
EQP0000000004732458;I01G0109;CTO SPLITTER 1 8;ESVIA_G1I01;RUA JOAO EVANGELISTA VIANA UNIVERSAL 29134427 ES 1;VIANA;-20.361204600;-40.445572300;G0;ESVIA-I01SP14;ESVIA-I01SP14-SS5
EQP0000000004691612;I01G0335;CTO SPLITTER 1 8;ESVIA_G1I01;AVENIDA TEREZINHA PEREIRA ABRANCHES VIANA PRIMAVERA 29135220 ES 45;VIANA;-20.352757000;-40.428614500;G0;ESVIA-I01SP42;ESVIA-I01SP42-SS7
EQP0000000004749901;I01G0038;CTO SPLITTER 1 8;ESVIA_G1I01;RUA RODRIGUES NETO VIANA UNIVERSAL 29134664 ES 16;VIANA;-20.355977800;-40.448192800;G0;ESVIA-I01SP5;ESVIA-I01SP5-SS6
EQP0000000004728739;I01G0248;CTO SPLITTER 1 8;ESVIA_G1I01;RUA HORTENSIAS VIANA CANAA 29135100 ES SN;VIANA;-20.357259300;-40.435354300;G0;ESVIA-I01SP31;ESVIA-I01SP31-SS8
EQP0000000004708398;I01G0359;CTO SPLITTER 1 8;ESVIA_G1I01;RUA JOAO DE ALMEIDA VIANA PRIMAVERA 29135201 ES SN;VIANA;-20.354681000;-40.426599500;G0;ESVIA-I01SP45;ESVIA-I01SP45-SS7
EQP0000000004729977;I01G0120;CTO SPLITTER 1 8;ESVIA_G1I01;RUA SAO LUCAS VIANA UNIVERSAL 29134418 ES 20;VIANA;-20.362132600;-40.444910200;G0;ESVIA-I01SP15;ESVIA-I01SP15-SS8
EQP0000000004725380;I01G0132;CTO SPLITTER 1 8;ESVIA_G1I01;RUA ELDORADO VIANA CANAA 29135063 ES 10;VIANA;-20.356014600;-40.439018000;G0;ESVIA-I01SP17;ESVIA-I01SP17-SS4
EQP0000000004730136;I01G0119;CTO SPLITTER 1 8;ESVIA_G1I01;RUA JOAO EVANGELISTA VIANA UNIVERSAL 29134427 ES SN;VIANA;-20.361413300;-40.444114500;G0;ESVIA-I01SP15;ESVIA-I01SP15-SS7
EQP0000000004738807;I01G0229;CTO SPLITTER 1 8;ESVIA_G1I01;RUA GERALDINO INACIO DE OLIVEIRA VIANA CANAA 29135082 ES 18;VIANA;-20.355771600;-40.434800700;G0;ESVIA-I01SP29;ESVIA-I01SP29-SS5
EQP0000000004780910;I01G0061;CTO SPLITTER 1 8;ESVIA_G1I01;RUA DOMINGOS ROMANHA VIANA UNIVERSAL 29134454 ES SN;VIANA;-20.357979000;-40.449570800;G0;ESVIA-I01SP8;ESVIA-I01SP8-SS5
EQP0000000004780646;I01G0064;CTO SPLITTER 1 8;ESVIA_G1I01;RUA CARLOS ALBERTO NASCIMENTO VIANA UNIVERSAL 29134457 ES SN;VIANA;-20.358120100;-40.448319300;G0;ESVIA-I01SP8;ESVIA-I01SP8-SS8
EQP0000000004676638;I01G01225;CTO SPLITTER 1 8;ESVIA_G1I01;RUA FRANCISCO ALVES VIANA VILA BETHANIA 29136067 ES 25;VIANA;-20.359860900;-40.409858100;G0;ESVIA-I01SP154;ESVIA-I01SP154-SS1
EQP0000000004493573;I01G01699;CTO SPLITTER 1 8;ESVIA_G1I01;RUA GUARAPARI VIANA MARCILIO DE NORONHA 29135641 ES QD10-LT8;VIANA;-20.349857300;-40.423679100;G0;ESVIA-I01SP213;ESVIA-I01SP213-SS3
EQP0000000004778615;I01G0189;CTO SPLITTER 1 8;ESVIA_G1I01;RUA CURITIBA VIANA CANAA 29135020 ES 10;VIANA;-20.361661000;-40.437894300;G0;ESVIA-I01SP24;ESVIA-I01SP24-SS5
EQP0000000004534584;I01G01570;CTO SPLITTER 1 8;ESVIA_G1I01;RUA CAMPINAS VIANA MARCILIO DE NORONHA 29135394 ES QD42-LT12;VIANA;-20.345100200;-40.426071200;G0;ESVIA-I01SP197;ESVIA-I01SP197-SS2
EQP0000000004708363;I01G0360;CTO SPLITTER 1 8;ESVIA_G1I01;RUA GALDINO PIMENTEL VIANA PRIMAVERA 29135204 ES 19;VIANA;-20.355406100;-40.426814700;G0;ESVIA-I01SP45;ESVIA-I01SP45-SS8
EQP0000000004778322;I01G0047;CTO SPLITTER 1 8;ESVIA_G1I01;RUA BEIJA FLOR VIANA UNIVERSAL 29134460 ES SN;VIANA;-20.359164400;-40.449200800;G0;ESVIA-I01SP6;ESVIA-I01SP6-SS7
EQP0000000004777673;I01G0191;CTO SPLITTER 1 8;ESVIA_G1I01;RUA CURITIBA VIANA CANAA 29135020 ES SN;VIANA;-20.360234600;-40.436337700;G0;ESVIA-I01SP24;ESVIA-I01SP24-SS7
EQP0000000004776755;I01G0016;CTO SPLITTER 1 8;ESVIA_G1I01;RUA EVARISTO CANAL VIANA UNIVERSAL 29134513 ES 68;VIANA;-20.359805100;-40.454575400;G0;ESVIA-I01SP2;ESVIA-I01SP2-SS8
EQP0000000004514634;I01G01636;CTO SPLITTER 1 8;ESVIA_G1I01;RUA UBERLANDIA VIANA MARCILIO DE NORONHA 29135521 ES SN;VIANA;-20.342107300;-40.424759800;G0;ESVIA-I01SP205;ESVIA-I01SP205-SS3
EQP0000000004622870;I01G01430;CTO SPLITTER 1 8;ESVIA_G1I01;RUA ATAIDE ERVATE VIANA INDUSTRIAL 29135578 ES 9;VIANA;-20.342424900;-40.420602000;G0;ESVIA-I01SP179;ESVIA-I01SP179-SS6
EQP0000000004544001;I01G01453;CTO SPLITTER 1 8;ESVIA_G1I01;RUA ACRE VIANA MARCILIO DE NORONHA 29135605 ES 5;VIANA;-20.345497200;-40.423244600;G0;ESVIA-I01SP182;ESVIA-I01SP182-SS5
EQP0000000004708828;I01G01451;CTO SPLITTER 1 8;ESVIA_G1I01;RUA SAO FRANCISCO VIANA MARCILIO DE NORONHA 29135596 ES QDM-LT3;VIANA;-20.344414400;-40.422274200;G0;ESVIA-I01SP182;ESVIA-I01SP182-SS3
EQP0000000004691969;I01G0334;CTO SPLITTER 1 8;ESVIA_G1I01;RUA ALTIVA DA SILVA BRESSIANI VIANA PRIMAVERA 29135224 ES 44;VIANA;-20.352988200;-40.429181400;G0;ESVIA-I01SP42;ESVIA-I01SP42-SS6
EQP0000000004516061;I01G01619;CTO SPLITTER 1 8;ESVIA_G1I01;RUA CACHOEIRO DE ITAPEMIRIM VIANA MARCILIO DE NORONHA 29135533 ES QD12-LT4;VIANA;-20.342688900;-40.423543000;G0;ESVIA-I01SP203;ESVIA-I01SP203-SS3
EQP0000000004736253;I01G0103;CTO SPLITTER 1 8;ESVIA_G1I01;RUA NOSSA SENHORA AUXILIADORA VIANA UNIVERSAL 29134433 ES 6;VIANA;-20.360249200;-40.445416700;G0;ESVIA-I01SP13;ESVIA-I01SP13-SS7
EQP0000000004621479;I01G01514;CTO SPLITTER 1 8;ESVIA_G1I01;AVENIDA SAO PAULO VIANA MARCILIO DE NORONHA 29135397 ES QD50-LT148;VIANA;-20.343254500;-40.428180000;G0;ESVIA-I01SP190;ESVIA-I01SP190-SS2
EQP0000000004533891;I01G01575;CTO SPLITTER 1 8;ESVIA_G1I01;RUA CAMPINAS VIANA MARCILIO DE NORONHA 29135394 ES QD44-LT10;VIANA;-20.347566700;-40.426084900;G0;ESVIA-I01SP197;ESVIA-I01SP197-SS7
EQP0000000004710981;I01G0308;CTO SPLITTER 1 8;ESVIA_G1I01;RUA PELOTAS VIANA MARCILIO DE NORONHA 29135359 ES QD24-LT11;VIANA;-20.351520300;-40.424713400;G0;ESVIA-I01SP39;ESVIA-I01SP39-SS4
EQP0000000004789548;I01G0048;CTO SPLITTER 1 8;ESVIA_G1I01;RUA DOMINGOS ROMANHA VIANA UNIVERSAL 29134454 ES SN;VIANA;-20.358748700;-40.448398500;G0;ESVIA-I01SP6;ESVIA-I01SP6-SS8
EQP0000000004715088;I01G0175;CTO SPLITTER 1 8;ESVIA_G1I01;RUA TANCREDO DE ALMEIDA NEVES VIANA CANAA 29135004 ES 74;VIANA;-20.358252900;-40.434898300;G0;ESVIA-I01SP22;ESVIA-I01SP22-SS7
EQP0000000004726314;I01G0130;CTO SPLITTER 1 8;ESVIA_G1I01;RUA FRANCISCO VIANA CANAA 29135060 ES 34;VIANA;-20.356096000;-40.437514600;G0;ESVIA-I01SP17;ESVIA-I01SP17-SS2
EQP0000000004691195;I01G0336;CTO SPLITTER 1 8;ESVIA_G1I01;RUA JOAO LOPES DE AQUINO VIANA PRIMAVERA 29135217 ES 9;VIANA;-20.352361700;-40.428501900;G0;ESVIA-I01SP42;ESVIA-I01SP42-SS8
EQP0000000004537942;I01G01534;CTO SPLITTER 1 8;ESVIA_G1I01;RUA DIADEMA VIANA MARCILIO DE NORONHA 29135384 ES QD50-LT1;VIANA;-20.342728200;-40.426967000;G0;ESVIA-I01SP192;ESVIA-I01SP192-SS6
EQP0000000004631414;I01G01400;CTO SPLITTER 1 8;ESVIA_G1I01;RUA SAO JOAO VIANA MARCILIO DE NORONHA 29135000 ES QD16-LT1;VIANA;-20.340398700;-40.422787400;G0;ESVIA-I01SP175;ESVIA-I01SP175-SS8
EQP0000000004709062;I01G01449;CTO SPLITTER 1 8;ESVIA_G1I01;RUA SAO FRANCISCO VIANA MARCILIO DE NORONHA 29135596 ES SN;VIANA;-20.343184000;-40.422758900;G0;ESVIA-I01SP182;ESVIA-I01SP182-SS1
EQP0000000004746756;I01G0030;CTO SPLITTER 1 8;ESVIA_G1I01;RUA GETULIO VARGAS VIANA UNIVERSAL 29134676 ES 68;VIANA;-20.355451600;-40.446873600;G0;ESVIA-I01SP4;ESVIA-I01SP4-SS6
EQP0000000004653216;I01G01357;CTO SPLITTER 1 8;ESVIA_G1I01;RUA ACEZILIO MARIANELLI VIANA VILA BETHANIA 29136020 ES 67;VIANA;-20.357288400;-40.411661600;G0;ESVIA-I01SP170;ESVIA-I01SP170-SS5
EQP0000000004695327;I01G0340;CTO SPLITTER 1 8;ESVIA_G1I01;AVENIDA TEREZINHA PEREIRA ABRANCHES VIANA PRIMAVERA 29135220 ES 72;VIANA;-20.351496500;-40.429201900;G0;ESVIA-I01SP43;ESVIA-I01SP43-SS4
EQP0000000004781282;I01G0058;CTO SPLITTER 1 8;ESVIA_G1I01;RUA PEDRO PALACIO VIANA UNIVERSAL 29134634 ES SN;VIANA;-20.356506600;-40.450346700;G0;ESVIA-I01SP8;ESVIA-I01SP8-SS2
EQP0000000004491477;I01G01703;CTO SPLITTER 1 8;ESVIA_G1I01;RUA SANTA TEREZA VIANA MARCILIO DE NORONHA 29135638 ES SN;VIANA;-20.349163000;-40.423677000;G0;ESVIA-I01SP213;ESVIA-I01SP213-SS7
EQP0000000004778257;I01G0012;CTO SPLITTER 1 8;ESVIA_G1I01;RUA EVARISTO CANAL VIANA UNIVERSAL 29134513 ES 136;VIANA;-20.358639000;-40.458232500;G0;ESVIA-I01SP2;ESVIA-I01SP2-SS4
EQP0000000004543431;I01G01455;CTO SPLITTER 1 8;ESVIA_G1I01;RUA SAO PAULO VIANA MARCILIO DE NORONHA 29135551 ES SN;VIANA;-20.344920300;-40.422660400;G0;ESVIA-I01SP182;ESVIA-I01SP182-SS7
EQP0000000004478790;I01G01736;CTO SPLITTER 1 8;ESVIA_G1I01;RUA PRESIDENTE TANCREDO NEVES VIANA PRIMAVERA 29135170 ES SN;VIANA;-20.356326100;-40.422546400;G0;ESVIA-I01SP217;ESVIA-I01SP217-SS8
EQP0000000004712666;I01G0287;CTO SPLITTER 1 8;ESVIA_G1I01;RUA GRAMADO VIANA MARCILIO DE NORONHA 29135353 ES 22;VIANA;-20.351080600;-40.425634300;G0;ESVIA-I01SP36;ESVIA-I01SP36-SS7
EQP0000000004722636;I01G0136;CTO SPLITTER 1 8;ESVIA_G1I01;RUA RESPLENDOR VIANA CANAA 29135056 ES SN;VIANA;-20.356799900;-40.439666700;G0;ESVIA-I01SP17;ESVIA-I01SP17-SS8
EQP0000000004544239;I01G01499;CTO SPLITTER 1 8;ESVIA_G1I01;AVENIDA SAO PAULO VIANA MARCILIO DE NORONHA 29135397 ES QD55-LT22;VIANA;-20.347668200;-40.428181100;G0;ESVIA-I01SP188;ESVIA-I01SP188-SS3
EQP0000000004620281;I01G01512;CTO SPLITTER 1 8;ESVIA_G1I01;RUA SAO CAETANO DO SUL VIANA MARCILIO DE NORONHA 29135416 ES SN;VIANA;-20.346275300;-40.429154900;G0;ESVIA-I01SP189;ESVIA-I01SP189-SS8
EQP0000000004779494;I01G0004;CTO SPLITTER 1 8;ESVIA_G1I01;RUA VISTA LINDA VIANA UNIVERSAL 29134469 ES SN;VIANA;-20.357281100;-40.453995800;G0;ESVIA-I01SP1;ESVIA-I01SP1-SS4
EQP0000000004630335;I01G01378;CTO SPLITTER 1 8;ESVIA_G1I01;RUA OURO PRETO VIANA MARCILIO DE NORONHA 29135518 ES 50;VIANA;-20.342141300;-40.425283000;G0;ESVIA-I01SP173;ESVIA-I01SP173-SS2
EQP0000000004694602;I01G0343;CTO SPLITTER 1 8;ESVIA_G1I01;RUA GALDINO PIMENTEL VIANA PRIMAVERA 29135204 ES 100;VIANA;-20.350319300;-40.429121200;G0;ESVIA-I01SP43;ESVIA-I01SP43-SS7
EQP0000000004539751;I01G01479;CTO SPLITTER 1 8;ESVIA_G1I01;RUA COLATINA VIANA MARCILIO DE NORONHA 29135644 ES SN;VIANA;-20.346605300;-40.422023800;G0;ESVIA-I01SP185;ESVIA-I01SP185-SS7
EQP0000000004778760;I01G0188;CTO SPLITTER 1 8;ESVIA_G1I01;RUA TANCREDO DE ALMEIDA NEVES VIANA CANAA 29135004 ES 34;VIANA;-20.362182700;-40.437942900;G0;ESVIA-I01SP24;ESVIA-I01SP24-SS4
EQP0000000004780362;I01G0051;CTO SPLITTER 1 8;ESVIA_G1I01;RUA DUQUE DE CAXIAS VIANA UNIVERSAL 29134695 ES 16;VIANA;-20.357780200;-40.447323300;G0;ESVIA-I01SP7;ESVIA-I01SP7-SS3
EQP0000000004705682;I01G0313;CTO SPLITTER 1 8;ESVIA_G1I01;RUA DELICE BARBOSA GOMES VIANA PRIMAVERA 29135234 ES SN;VIANA;-20.349066000;-40.432257300;G0;ESVIA-I01SP40;ESVIA-I01SP40-SS1
EQP0000000004729378;I01G0146;CTO SPLITTER 1 8;ESVIA_G1I01;RUA RESPLENDOR VIANA CANAA 29135056 ES 44;VIANA;-20.359353900;-40.438226300;G0;ESVIA-I01SP19;ESVIA-I01SP19-SS2
EQP0000000004513925;I01G01645;CTO SPLITTER 1 8;ESVIA_G1I01;RUA MARATAIZES VIANA MARCILIO DE NORONHA 29135527 ES QD13-LT10;VIANA;-20.343058300;-40.424085900;G0;ESVIA-I01SP206;ESVIA-I01SP206-SS5
EQP0000000004779424;I01G0005;CTO SPLITTER 1 8;ESVIA_G1I01;AVENIDA LINHARES VIANA UNIVERSAL 29134494 ES SN;VIANA;-20.357629200;-40.455163700;G0;ESVIA-I01SP1;ESVIA-I01SP1-SS5
EQP0000000004494951;I01G01711;CTO SPLITTER 1 8;ESVIA_G1I01;AVENIDA ESPIRITO SANTO VIANA MARCILIO DE NORONHA 29135508 ES SN;VIANA;-20.349702100;-40.424189700;G0;ESVIA-I01SP214;ESVIA-I01SP214-SS7
EQP0000000004513996;I01G01646;CTO SPLITTER 1 8;ESVIA_G1I01;RUA MARATAIZES VIANA MARCILIO DE NORONHA 29135527 ES QD13-LT5;VIANA;-20.342607500;-40.424000800;G0;ESVIA-I01SP206;ESVIA-I01SP206-SS6
EQP0000000004702915;I01G01161;CTO SPLITTER 1 8;ESVIA_G1I01;RUA CORONEL NUNES FERREIRA VIANA VILA BETHANIA 29136111 ES 60;VIANA;-20.361125400;-40.409222000;G0;ESVIA-I01SP146;ESVIA-I01SP146-SS1
EQP0000000004778388;I01G0011;CTO SPLITTER 1 8;ESVIA_G1I01;RUA DOM PEDRO II VIANA UNIVERSAL 29134501 ES SN;VIANA;-20.358640900;-40.456750700;G0;ESVIA-I01SP2;ESVIA-I01SP2-SS3
EQP0000000004709089;I01G0356;CTO SPLITTER 1 8;ESVIA_G1I01;RUA JOAO DE ALMEIDA VIANA PRIMAVERA 29135201 ES 19;VIANA;-20.355005600;-40.427379300;G0;ESVIA-I01SP45;ESVIA-I01SP45-SS4
EQP0000000004709205;I01G0300;CTO SPLITTER 1 8;ESVIA_G1I01;RUA SEM NOME VIANA VIANA 29135000 ES SN;VIANA;-20.349980600;-40.428477300;G0;ESVIA-I01SP38;ESVIA-I01SP38-SS4
EQP0000000004702194;I01G0347;CTO SPLITTER 1 8;ESVIA_G1I01;RUA JOSE MARCELINO DE MELO VIANA PRIMAVERA 29135228 ES 11;VIANA;-20.354543100;-40.429085200;G0;ESVIA-I01SP44;ESVIA-I01SP44-SS3
EQP0000000004776990;I01G0067;CTO SPLITTER 1 8;ESVIA_G1I01;AVENIDA LINHARES VIANA UNIVERSAL 29134494 ES SN;VIANA;-20.359776300;-40.447984600;G0;ESVIA-I01SP9;ESVIA-I01SP9-SS3
EQP0000000004718003;I01G0158;CTO SPLITTER 1 8;ESVIA_G1I01;RUA AMAZONAS VIANA CANAA 29135044 ES 27;VIANA;-20.358743600;-40.438049900;G0;ESVIA-I01SP20;ESVIA-I01SP20-SS6
EQP0000000004539276;I01G01529;CTO SPLITTER 1 8;ESVIA_G1I01;RUA JUNDIAI VIANA MARCILIO DE NORONHA 29135437 ES QD50-LT113;VIANA;-20.343599100;-40.427798100;G0;ESVIA-I01SP192;ESVIA-I01SP192-SS1
EQP0000000004779026;I01G0008;CTO SPLITTER 1 8;ESVIA_G1I01;RUA DOM PEDRO II VIANA UNIVERSAL 29134501 ES SN;VIANA;-20.359206600;-40.454557800;G0;ESVIA-I01SP1;ESVIA-I01SP1-SS8
EQP0000000004499510;I01G01652;CTO SPLITTER 1 8;ESVIA_G1I01;RUA ECOPORANGA VIANA MARCILIO DE NORONHA 29135617 ES QD8-LT53;VIANA;-20.348316200;-40.423681300;G0;ESVIA-I01SP207;ESVIA-I01SP207-SS4
EQP0000000004719718;I01G0168;CTO SPLITTER 1 8;ESVIA_G1I01;RUA AFONSO CLAUDIO VIANA CANAA 29135032 ES SN;VIANA;-20.360259700;-40.438879400;G0;ESVIA-I01SP21;ESVIA-I01SP21-SS8
EQP0000000004514893;I01G01631;CTO SPLITTER 1 8;ESVIA_G1I01;AVENIDA ESPIRITO SANTO VIANA MARCILIO DE NORONHA 29135508 ES SN;VIANA;-20.343662300;-40.425198300;G0;ESVIA-I01SP204;ESVIA-I01SP204-SS7
EQP0000000004731777;I01G0240;CTO SPLITTER 1 8;ESVIA_G1I01;RUA CENTRAL VIANA CANAA 29135038 ES SN;VIANA;-20.355971000;-40.435484000;G0;ESVIA-I01SP30;ESVIA-I01SP30-SS8
EQP0000000004543282;I01G01456;CTO SPLITTER 1 8;ESVIA_G1I01;RUA SAO PAULO VIANA MARCILIO DE NORONHA 29135551 ES 26;VIANA;-20.343796000;-40.423100700;G0;ESVIA-I01SP182;ESVIA-I01SP182-SS8
EQP0000000004627145;I01G01419;CTO SPLITTER 1 8;ESVIA_G1I01;RUA PEDRO MACHADO DA SILVA VIANA INDUSTRIAL 29135572 ES QDB-LT15;VIANA;-20.341466900;-40.420453000;G0;ESVIA-I01SP178;ESVIA-I01SP178-SS3
EQP0000000004779157;I01G0007;CTO SPLITTER 1 8;ESVIA_G1I01;RUA ELIZABETH II VIANA UNIVERSAL 29134526 ES SN;VIANA;-20.358884900;-40.454603900;G0;ESVIA-I01SP1;ESVIA-I01SP1-SS7
EQP0000000004479842;I01G01732;CTO SPLITTER 1 8;ESVIA_G1I01;RUA ANTONIO CARLOS GERARDT VIANA PRIMAVERA 29135167 ES 155;VIANA;-20.357443600;-40.423640000;G0;ESVIA-I01SP217;ESVIA-I01SP217-SS4
EQP0000000004524010;I01G01594;CTO SPLITTER 1 8;ESVIA_G1I01;RUA SOROCABA VIANA MARCILIO DE NORONHA 29135372 ES QD32-LT19;VIANA;-20.344686100;-40.425181300;G0;ESVIA-I01SP200;ESVIA-I01SP200-SS2
EQP0000000004739382;I01G0228;CTO SPLITTER 1 8;ESVIA_G1I01;RUA GERALDINO INACIO DE OLIVEIRA VIANA CANAA 29135082 ES SN;VIANA;-20.355439200;-40.435054000;G0;ESVIA-I01SP29;ESVIA-I01SP29-SS4
EQP0000000004729577;I01G0145;CTO SPLITTER 1 8;ESVIA_G1I01;RUA DOS PIRES VIANA CANAA 29135035 ES SN1;VIANA;-20.359677300;-40.439070700;G0;ESVIA-I01SP19;ESVIA-I01SP19-SS1
EQP0000000004750732;I01G0034;CTO SPLITTER 1 8;ESVIA_G1I01;RUA MISSIONARIA VIANA UNIVERSAL 29134463 ES SN;VIANA;-20.356704500;-40.448974600;G0;ESVIA-I01SP5;ESVIA-I01SP5-SS2
EQP0000000004739897;I01G0092;CTO SPLITTER 1 8;ESVIA_G1I01;RUA GETULIO VARGAS VIANA UNIVERSAL 29134676 ES SN;VIANA;-20.357631400;-40.445093500;G0;ESVIA-I01SP12;ESVIA-I01SP12-SS4
EQP0000000004746026;I01G0084;CTO SPLITTER 1 8;ESVIA_G1I01;RUA TAVARES NETO VIANA UNIVERSAL 29134709 ES SN;VIANA;-20.358808000;-40.445609000;G0;ESVIA-I01SP11;ESVIA-I01SP11-SS4
EQP0000000004676309;I01G01227;CTO SPLITTER 1 8;ESVIA_G1I01;RUA FRANCISCO ALVES VIANA VILA BETHANIA 29136067 ES 7;VIANA;-20.358711700;-40.410090200;G0;ESVIA-I01SP154;ESVIA-I01SP154-SS3
EQP0000000004726858;I01G0143;CTO SPLITTER 1 8;ESVIA_G1I01;RUA JOSE ENGILIARDIT VIANA CANAA 29135050 ES 35;VIANA;-20.357401800;-40.438887400;G0;ESVIA-I01SP18;ESVIA-I01SP18-SS7
EQP0000000004697581;I01G0348;CTO SPLITTER 1 8;ESVIA_G1I01;RUA FLORENCIO DE SOUZA VIANA PRIMAVERA 29135214 ES SN;VIANA;-20.354092600;-40.428943700;G0;ESVIA-I01SP44;ESVIA-I01SP44-SS4
EQP0000000004739558;I01G0093;CTO SPLITTER 1 8;ESVIA_G1I01;RUA GETULIO VARGAS VIANA UNIVERSAL 29134676 ES 21;VIANA;-20.358176200;-40.445107500;G0;ESVIA-I01SP12;ESVIA-I01SP12-SS5
EQP0000000004777018;I01G0024;CTO SPLITTER 1 8;ESVIA_G1I01;RUA EVARISTO CANAL VIANA UNIVERSAL 29134513 ES 48;VIANA;-20.359910300;-40.453896400;G0;ESVIA-I01SP3;ESVIA-I01SP3-SS8
EQP0000000004627619;I01G01418;CTO SPLITTER 1 8;ESVIA_G1I01;RUA PEDRO MACHADO DA SILVA VIANA INDUSTRIAL 29135572 ES QDB-LT11;VIANA;-20.341675600;-40.420196600;G0;ESVIA-I01SP178;ESVIA-I01SP178-SS2
EQP0000000004667974;I01G01264;CTO SPLITTER 1 8;ESVIA_G1I01;RUA GOIAS VIANA VILA BETHANIA 29136070 ES 3;VIANA;-20.358356700;-40.409237600;G0;ESVIA-I01SP158;ESVIA-I01SP158-SS8
EQP0000000004629739;I01G01413;CTO SPLITTER 1 8;ESVIA_G1I01;RUA DISTRITO FEDERAL VIANA MARCILIO DE NORONHA 29135575 ES SN;VIANA;-20.344062400;-40.419365400;G0;ESVIA-I01SP177;ESVIA-I01SP177-SS5
EQP0000000004623405;I01G01426;CTO SPLITTER 1 8;ESVIA_G1I01;RUA BRASILIA VIANA INDUSTRIAL 29135557 ES 11;VIANA;-20.342488900;-40.421878200;G0;ESVIA-I01SP179;ESVIA-I01SP179-SS2
EQP0000000004643644;I01G01307;CTO SPLITTER 1 8;ESVIA_G1I01;RUA LUIZA CAZOTTI VIANA VILA BETHANIA 29136030 ES 35;VIANA;-20.357465200;-40.409696600;G0;ESVIA-I01SP164;ESVIA-I01SP164-SS3
EQP0000000004628800;I01G01416;CTO SPLITTER 1 8;ESVIA_G1I01;RUA PEDRO MACHADO DA SILVA VIANA INDUSTRIAL 29135572 ES SN1;VIANA;-20.342511800;-40.419435200;G0;ESVIA-I01SP177;ESVIA-I01SP177-SS8
EQP0000000004732273;I01G0110;CTO SPLITTER 1 8;ESVIA_G1I01;RUA SETE DE SETEMBRO VIANA UNIVERSAL 29134424 ES 8;VIANA;-20.361478400;-40.445791300;G0;ESVIA-I01SP14;ESVIA-I01SP14-SS6
EQP0000000004780118;I01G0054;CTO SPLITTER 1 8;ESVIA_G1I01;RUA FLAUZILIO VACCARI VIANA UNIVERSAL 29134692 ES 22;VIANA;-20.357047500;-40.447820300;G0;ESVIA-I01SP7;ESVIA-I01SP7-SS6
EQP0000000004781186;I01G0059;CTO SPLITTER 1 8;ESVIA_G1I01;RUA DOMINGOS ROMANHA VIANA UNIVERSAL 29134454 ES SN;VIANA;-20.356767600;-40.451109900;G0;ESVIA-I01SP8;ESVIA-I01SP8-SS3
EQP0000000004621590;I01G01513;CTO SPLITTER 1 8;ESVIA_G1I01;AVENIDA SAO PAULO VIANA MARCILIO DE NORONHA 29135397 ES QD50-LT154;VIANA;-20.342721000;-40.428180600;G0;ESVIA-I01SP190;ESVIA-I01SP190-SS1
EQP0000000004708032;I01G0304;CTO SPLITTER 1 8;ESVIA_G1I01;AVENIDA PRIMAVERA VIANA MARCILIO DE NORONHA 29135365 ES 27;VIANA;-20.350258000;-40.426089900;G0;ESVIA-I01SP38;ESVIA-I01SP38-SS8
EQP0000000004621251;I01G01515;CTO SPLITTER 1 8;ESVIA_G1I01;AVENIDA SAO PAULO VIANA MARCILIO DE NORONHA 29135397 ES SN;VIANA;-20.343805200;-40.428179400;G0;ESVIA-I01SP190;ESVIA-I01SP190-SS3
EQP0000000004524469;I01G01596;CTO SPLITTER 1 8;ESVIA_G1I01;AVENIDA VITORIA VIANA MARCILIO DE NORONHA 29135368 ES SN;VIANA;-20.344475400;-40.424794100;G0;ESVIA-I01SP200;ESVIA-I01SP200-SS4
EQP0000000004491818;I01G01695;CTO SPLITTER 1 8;ESVIA_G1I01;RUA BARRA DE SAO FRANCISCO VIANA MARCILIO DE NORONHA 29135632 ES QD5-LT23;VIANA;-20.348429000;-40.423169200;G0;ESVIA-I01SP212;ESVIA-I01SP212-SS7
EQP0000000004777542;I01G0192;CTO SPLITTER 1 8;ESVIA_G1I01;RUA RESPLENDOR VIANA CANAA 29135056 ES 11;VIANA;-20.360902600;-40.436693300;G0;ESVIA-I01SP24;ESVIA-I01SP24-SS8
EQP0000000004541674;I01G01550;CTO SPLITTER 1 8;ESVIA_G1I01;RUA DIADEMA VIANA MARCILIO DE NORONHA 29135384 ES QD51-LT12;VIANA;-20.346264300;-40.426948900;G0;ESVIA-I01SP194;ESVIA-I01SP194-SS6
EQP0000000004726683;I01G0250;CTO SPLITTER 1 8;ESVIA_G1I01;RUA SOROCABA VIANA MARCILIO DE NORONHA 29135372 ES QD34-LT29;VIANA;-20.347826800;-40.425166300;G0;ESVIA-I01SP32;ESVIA-I01SP32-SS2
EQP0000000004705349;I01G0314;CTO SPLITTER 1 8;ESVIA_G1I01;RUA DELICE BARBOSA GOMES VIANA PRIMAVERA 29135234 ES 3;VIANA;-20.351082700;-40.432055200;G0;ESVIA-I01SP40;ESVIA-I01SP40-SS2
EQP0000000004539115;I01G01530;CTO SPLITTER 1 8;ESVIA_G1I01;RUA JUNDIAI VIANA MARCILIO DE NORONHA 29135437 ES QD50-LT105;VIANA;-20.342809000;-40.427795900;G0;ESVIA-I01SP192;ESVIA-I01SP192-SS2
EQP0000000004620350;I01G01511;CTO SPLITTER 1 8;ESVIA_G1I01;RUA SAO CAETANO DO SUL VIANA MARCILIO DE NORONHA 29135416 ES SN;VIANA;-20.345784100;-40.429152900;G0;ESVIA-I01SP189;ESVIA-I01SP189-SS7
EQP0000000004718951;I01G0156;CTO SPLITTER 1 8;ESVIA_G1I01;RUA CENTRAL VIANA CANAA 29135038 ES 28;VIANA;-20.357286900;-40.437189400;G0;ESVIA-I01SP20;ESVIA-I01SP20-SS4
EQP0000000004781038;I01G0060;CTO SPLITTER 1 8;ESVIA_G1I01;RUA DOMINGOS ROMANHA VIANA UNIVERSAL 29134454 ES SN;VIANA;-20.357389200;-40.450301200;G0;ESVIA-I01SP8;ESVIA-I01SP8-SS4
EQP0000000004495344;I01G01674;CTO SPLITTER 1 8;ESVIA_G1I01;RUA BARRA DE SAO FRANCISCO VIANA MARCILIO DE NORONHA 29135632 ES QD6-LT10;VIANA;-20.349549800;-40.423163500;G0;ESVIA-I01SP210;ESVIA-I01SP210-SS2
EQP0000000004623757;I01G01388;CTO SPLITTER 1 8;ESVIA_G1I01;AVENIDA MINAS GERAIS VIANA MARCILIO DE NORONHA 29135504 ES SN;VIANA;-20.341332300;-40.422930800;G0;ESVIA-I01SP174;ESVIA-I01SP174-SS4
EQP0000000004706534;I01G0325;CTO SPLITTER 1 8;ESVIA_G1I01;RUA IRINEU GASPARINI VIANA PRIMAVERA 29135231 ES SN;VIANA;-20.351011500;-40.431474400;G0;ESVIA-I01SP41;ESVIA-I01SP41-SS5
EQP0000000004778151;I01G0013;CTO SPLITTER 1 8;ESVIA_G1I01;RUA EVARISTO CANAL VIANA UNIVERSAL 29134513 ES SN;VIANA;-20.359082200;-40.456881900;G0;ESVIA-I01SP2;ESVIA-I01SP2-SS5
EQP0000000004504761;I01G01647;CTO SPLITTER 1 8;ESVIA_G1I01;RUA MARATAIZES VIANA MARCILIO DE NORONHA 29135527 ES QD13-LT16;VIANA;-20.343525600;-40.424195800;G0;ESVIA-I01SP206;ESVIA-I01SP206-SS7
EQP0000000004780484;I01G0050;CTO SPLITTER 1 8;ESVIA_G1I01;RUA SANTO ANTONIO VIANA UNIVERSAL 29134689 ES 12;VIANA;-20.356935100;-40.447086800;G0;ESVIA-I01SP7;ESVIA-I01SP7-SS2
EQP0000000004716830;I01G0273;CTO SPLITTER 1 8;ESVIA_G1I01;RUA PORTO ALEGRE VIANA MARCILIO DE NORONHA 29135350 ES 12;VIANA;-20.351644000;-40.426103700;G0;ESVIA-I01SP35;ESVIA-I01SP35-SS1
EQP0000000004533288;I01G01565;CTO SPLITTER 1 8;ESVIA_G1I01;AVENIDA PIRACICABA VIANA MARCILIO DE NORONHA 29135391 ES SN;VIANA;-20.346561300;-40.426454100;G0;ESVIA-I01SP196;ESVIA-I01SP196-SS5
EQP0000000004667432;I01G01272;CTO SPLITTER 1 8;ESVIA_G1I01;RUA SERGIPE VIANA VILA BETHANIA 29136055 ES 23;VIANA;-20.357051500;-40.407767700;G0;ESVIA-I01SP159;ESVIA-I01SP159-SS8
EQP0000000004534469;I01G01571;CTO SPLITTER 1 8;ESVIA_G1I01;RUA CAMPINAS VIANA MARCILIO DE NORONHA 29135394 ES QD43-LT2;VIANA;-20.345625100;-40.426076100;G0;ESVIA-I01SP197;ESVIA-I01SP197-SS3
EQP0000000004623189;I01G01428;CTO SPLITTER 1 8;ESVIA_G1I01;RUA RIO GRANDE DO SUL VIANA INDUSTRIAL 29135554 ES QDI-LT9;VIANA;-20.342819500;-40.421624200;G0;ESVIA-I01SP179;ESVIA-I01SP179-SS4
EQP0000000004483643;I01G01726;CTO SPLITTER 1 8;ESVIA_G1I01;RUA BAJE VIANA MARCILIO DE NORONHA 29135356 ES SN;VIANA;-20.352732200;-40.425202900;G0;ESVIA-I01SP216;ESVIA-I01SP216-SS6
EQP0000000004709514;I01G0353;CTO SPLITTER 1 8;ESVIA_G1I01;AVENIDA ORLANDO ALFREDO SCHULTHAIS VIANA PRIMAVERA 29135192 ES 12;VIANA;-20.355171200;-40.428399700;G0;ESVIA-I01SP45;ESVIA-I01SP45-SS1
EQP0000000004514986;I01G01630;CTO SPLITTER 1 8;ESVIA_G1I01;AVENIDA ESPIRITO SANTO VIANA MARCILIO DE NORONHA 29135508 ES SN;VIANA;-20.343045100;-40.425509700;G0;ESVIA-I01SP204;ESVIA-I01SP204-SS6
EQP0000000004671825;I01G01253;CTO SPLITTER 1 8;ESVIA_G1I01;RUA GOIAS VIANA VILA BETHANIA 29136070 ES 2;VIANA;-20.357724700;-40.408214500;G0;ESVIA-I01SP157;ESVIA-I01SP157-SS5
EQP0000000004779693;I01G0002;CTO SPLITTER 1 8;ESVIA_G1I01;RUA PRESIDENTE KENNEDY VIANA UNIVERSAL 29134491 ES SN;VIANA;-20.357369900;-40.452253000;G0;ESVIA-I01SP1;ESVIA-I01SP1-SS2
EQP0000000004778057;I01G0014;CTO SPLITTER 1 8;ESVIA_G1I01;RUA EVARISTO CANAL VIANA UNIVERSAL 29134513 ES 16;VIANA;-20.359314200;-40.456110900;G0;ESVIA-I01SP2;ESVIA-I01SP2-SS6
EQP0000000004621724;I01G01438;CTO SPLITTER 1 8;ESVIA_G1I01;RUA AMAPA VIANA MARCILIO DE NORONHA 29135560 ES SN;VIANA;-20.343766100;-40.420683500;G0;ESVIA-I01SP180;ESVIA-I01SP180-SS6
EQP0000000004489844;I01G01687;CTO SPLITTER 1 8;ESVIA_G1I01;RUA PANCAS VIANA MARCILIO DE NORONHA 29135647 ES 6;VIANA;-20.348668800;-40.421779700;G0;ESVIA-I01SP211;ESVIA-I01SP211-SS7
EQP0000000004707473;I01G0312;CTO SPLITTER 1 8;ESVIA_G1I01;AVENIDA PRIMAVERA VIANA MARCILIO DE NORONHA 29135365 ES 25;VIANA;-20.350250700;-40.425830800;G0;ESVIA-I01SP39;ESVIA-I01SP39-SS8
EQP0000000004780756;I01G0063;CTO SPLITTER 1 8;ESVIA_G1I01;RUA CARLOS ALBERTO NASCIMENTO VIANA UNIVERSAL 29134457 ES 38;VIANA;-20.357541600;-40.448403000;G0;ESVIA-I01SP8;ESVIA-I01SP8-SS7
EQP0000000004713948;I01G0284;CTO SPLITTER 1 8;ESVIA_G1I01;AVENIDA RIO GRANDE DO SUL VIANA MARCILIO DE NORONHA 29135341 ES SN;VIANA;-20.352146600;-40.425175000;G0;ESVIA-I01SP36;ESVIA-I01SP36-SS4
EQP0000000004495096;I01G01710;CTO SPLITTER 1 8;ESVIA_G1I01;AVENIDA ESPIRITO SANTO VIANA MARCILIO DE NORONHA 29135508 ES SN;VIANA;-20.350151700;-40.424187300;G0;ESVIA-I01SP214;ESVIA-I01SP214-SS6
EQP0000000004715995;I01G0277;CTO SPLITTER 1 8;ESVIA_G1I01;AVENIDA RIO GRANDE DO SUL VIANA MARCILIO DE NORONHA 29135341 ES 24;VIANA;-20.351249700;-40.427268700;G0;ESVIA-I01SP35;ESVIA-I01SP35-SS5
EQP0000000004620694;I01G01506;CTO SPLITTER 1 8;ESVIA_G1I01;RUA SAO CAETANO DO SUL VIANA MARCILIO DE NORONHA 29135416 ES SN;VIANA;-20.347115200;-40.429133700;G0;ESVIA-I01SP189;ESVIA-I01SP189-SS2
EQP0000000004711728;I01G0288;CTO SPLITTER 1 8;ESVIA_G1I01;AVENIDA RIO GRANDE DO SUL VIANA MARCILIO DE NORONHA 29135341 ES 1;VIANA;-20.350819400;-40.425635200;G0;ESVIA-I01SP36;ESVIA-I01SP36-SS8
EQP0000000004730486;I01G0117;CTO SPLITTER 1 8;ESVIA_G1I01;RUA SAO JORGE VIANA UNIVERSAL 29134412 ES 16;VIANA;-20.362391200;-40.444350700;G0;ESVIA-I01SP15;ESVIA-I01SP15-SS5
EQP0000000004679221;I01G01200;CTO SPLITTER 1 8;ESVIA_G1I01;RUA SANTA HELENA VIANA VILA BETHANIA 29136013 ES 105;VIANA;-20.360029700;-40.405467000;G0;ESVIA-I01SP150;ESVIA-I01SP150-SS8
EQP0000000004731011;I01G0115;CTO SPLITTER 1 8;ESVIA_G1I01;RUA SANTA HELENA VIANA UNIVERSAL 29134409 ES 9;VIANA;-20.362518100;-40.443527600;G0;ESVIA-I01SP15;ESVIA-I01SP15-SS3
EQP0000000004496579;I01G01669;CTO SPLITTER 1 8;ESVIA_G1I01;RUA ARACRUZ VIANA MARCILIO DE NORONHA 29135635 ES QD5-LT1;VIANA;-20.348026600;-40.422738900;G0;ESVIA-I01SP209;ESVIA-I01SP209-SS5
EQP0000000004722001;I01G0260;CTO SPLITTER 1 8;ESVIA_G1I01;RUA CAMPOS DO JORDAO VIANA MARCILIO DE NORONHA 29135388 ES QD44-LT22;VIANA;-20.348328300;-40.426434400;G0;ESVIA-I01SP33;ESVIA-I01SP33-SS4
EQP0000000004727964;I01G0137;CTO SPLITTER 1 8;ESVIA_G1I01;RUA CENTRAL VIANA CANAA 29135038 ES 25;VIANA;-20.356383300;-40.436055300;G0;ESVIA-I01SP18;ESVIA-I01SP18-SS1
EQP0000000004492840;I01G01702;CTO SPLITTER 1 8;ESVIA_G1I01;RUA GUARAPARI VIANA MARCILIO DE NORONHA 29135641 ES QD10-LT3;VIANA;-20.349486900;-40.423677700;G0;ESVIA-I01SP213;ESVIA-I01SP213-SS6
EQP0000000004529212;I01G01586;CTO SPLITTER 1 8;ESVIA_G1I01;RUA BAURU VIANA MARCILIO DE NORONHA 29135375 ES QD39-LT8;VIANA;-20.346252100;-40.425643600;G0;ESVIA-I01SP199;ESVIA-I01SP199-SS2
EQP0000000004683275;I01G01662;CTO SPLITTER 1 8;ESVIA_G1I01;AVENIDA ESPIRITO SANTO VIANA MARCILIO DE NORONHA 29135508 ES 54;VIANA;-20.348618100;-40.424196000;G0;ESVIA-I01SP208;ESVIA-I01SP208-SS6
EQP0000000004730717;I01G0116;CTO SPLITTER 1 8;ESVIA_G1I01;RUA SAO JORGE VIANA UNIVERSAL 29134412 ES 6;VIANA;-20.362025300;-40.443958200;G0;ESVIA-I01SP15;ESVIA-I01SP15-SS4
EQP0000000004715807;I01G0171;CTO SPLITTER 1 8;ESVIA_G1I01;RUA BOM SUCESSO VIANA CANAA 29135109 ES 6;VIANA;-20.358422200;-40.433881700;G0;ESVIA-I01SP22;ESVIA-I01SP22-SS3
EQP0000000004620908;I01G01520;CTO SPLITTER 1 8;ESVIA_G1I01;RUA MARILIA VIANA MARCILIO DE NORONHA 29135422 ES QD53-LT3;VIANA;-20.346314200;-40.427985900;G0;ESVIA-I01SP190;ESVIA-I01SP190-SS8
EQP0000000004732559;I01G0111;CTO SPLITTER 1 8;ESVIA_G1I01;RUA JOAO EVANGELISTA VIANA UNIVERSAL 29134427 ES 14;VIANA;-20.360983800;-40.445437300;G0;ESVIA-I01SP14;ESVIA-I01SP14-SS7
EQP0000000004746189;I01G0032;CTO SPLITTER 1 8;ESVIA_G1I01;RUA RODRIGUES NETO VIANA UNIVERSAL 29134664 ES SN;VIANA;-20.356398900;-40.447156600;G0;ESVIA-I01SP4;ESVIA-I01SP4-SS8
EQP0000000004738588;I01G0096;CTO SPLITTER 1 8;ESVIA_G1I01;RUA GETULIO VARGAS VIANA UNIVERSAL 29134676 ES SN;VIANA;-20.359689200;-40.444553700;G0;ESVIA-I01SP12;ESVIA-I01SP12-SS8
EQP0000000004638535;I01GP1315;MINI CDOE 1:2 + 1:8 PRECON SELADA 60/40;ESVIA_G1I01;RUA SANTA HELENA VIANA VILA BETHANIA 29136013 ES 281;VIANA;-20.355488900;-40.410933700;GP;ESVIA-I01SP165;ESVIA-I01SP165-SS3
EQP0000000004474190;I01G01746;CTO SPLITTER 1 8;ESVIA_G1I01;RUA BAJE VIANA MARCILIO DE NORONHA 29135356 ES 55;VIANA;-20.352361800;-40.427427900;G0;ESVIA-I01SP219;ESVIA-I01SP219-SS2
EQP0000000004537025;I01G01543;CTO SPLITTER 1 8;ESVIA_G1I01;RUA DIADEMA VIANA MARCILIO DE NORONHA 29135384 ES QD50-LT23;VIANA;-20.344854000;-40.426975000;G0;ESVIA-I01SP193;ESVIA-I01SP193-SS7
EQP0000000004630086;I01G01379;CTO SPLITTER 1 8;ESVIA_G1I01;RUA OURO PRETO VIANA MARCILIO DE NORONHA 29135518 ES 48;VIANA;-20.341891200;-40.425333900;G0;ESVIA-I01SP173;ESVIA-I01SP173-SS3
EQP0000000004638685;I01GP1313;MINI CDOE 1:2 + 1:8 PRECON SELADA 60/40;ESVIA_G1I01;RUA SANTA HELENA VIANA VILA BETHANIA 29136013 ES 281;VIANA;-20.355326100;-40.410927400;GP;ESVIA-I01SP165;ESVIA-I01SP165-SS1
EQP0000000004479618;I01G01733;CTO SPLITTER 1 8;ESVIA_G1I01;RUA PRESIDENTE TANCREDO NEVES VIANA PRIMAVERA 29135170 ES 64;VIANA;-20.356810400;-40.422697600;G0;ESVIA-I01SP217;ESVIA-I01SP217-SS5
EQP0000000004719167;I01G0270;CTO SPLITTER 1 8;ESVIA_G1I01;AVENIDA VITORIA VIANA MARCILIO DE NORONHA 29135368 ES SN;VIANA;-20.349466700;-40.424755500;G0;ESVIA-I01SP34;ESVIA-I01SP34-SS6
EQP0000000004777515;I01G0021;CTO SPLITTER 1 8;ESVIA_G1I01;RUA EVARISTO CANAL VIANA UNIVERSAL 29134513 ES SN;VIANA;-20.359953900;-40.452234900;G0;ESVIA-I01SP3;ESVIA-I01SP3-SS5
EQP0000000004642258;I01G01309;CTO SPLITTER 1 8;ESVIA_G1I01;RUA LUIZA CAZOTTI VIANA VILA BETHANIA 29136030 ES 57;VIANA;-20.357912300;-40.410527000;G0;ESVIA-I01SP164;ESVIA-I01SP164-SS5
EQP0000000004499877;I01G01654;CTO SPLITTER 1 8;ESVIA_G1I01;RUA AGUIA BRANCA VIANA MARCILIO DE NORONHA 29135620 ES QD8-LT40;VIANA;-20.347295700;-40.423668000;G0;ESVIA-I01SP207;ESVIA-I01SP207-SS6
EQP0000000004493841;I01G01700;CTO SPLITTER 1 8;ESVIA_G1I01;RUA GUARAPARI VIANA MARCILIO DE NORONHA 29135641 ES QD10-LT13;VIANA;-20.350337100;-40.423679900;G0;ESVIA-I01SP213;ESVIA-I01SP213-SS4
EQP0000000004631779;I01G01412;CTO SPLITTER 1 8;ESVIA_G1I01;RUA PEDRO MACHADO DA SILVA VIANA INDUSTRIAL 29135572 ES SN1;VIANA;-20.343948500;-40.418929300;G0;ESVIA-I01SP177;ESVIA-I01SP177-SS4
EQP0000000004535466;I01G01560;CTO SPLITTER 1 8;ESVIA_G1I01;RUA OSASCO VIANA MARCILIO DE NORONHA 29135407 ES QD51-LT19;VIANA;-20.346324300;-40.427306500;G0;ESVIA-I01SP195;ESVIA-I01SP195-SS8
EQP0000000004536240;I01G01556;CTO SPLITTER 1 8;ESVIA_G1I01;RUA OSASCO VIANA MARCILIO DE NORONHA 29135407 ES QD50-LT28;VIANA;-20.344922800;-40.427323400;G0;ESVIA-I01SP195;ESVIA-I01SP195-SS4
EQP0000000004541842;I01G01466;CTO SPLITTER 1 8;ESVIA_G1I01;RUA PEDRO ALVARES CABRAL VIANA MARCILIO DE NORONHA 29135584 ES SN;VIANA;-20.344484300;-40.420975400;G0;ESVIA-I01SP184;ESVIA-I01SP184-SS2
EQP0000000004779830;I01G0042;CTO SPLITTER 1 8;ESVIA_G1I01;RUA PIRACICABA VIANA UNIVERSAL 29134488 ES 16;VIANA;-20.358719600;-40.451100400;G0;ESVIA-I01SP6;ESVIA-I01SP6-SS2
EQP0000000004683702;I01G01572;CTO SPLITTER 1 8;ESVIA_G1I01;RUA CAMPINAS VIANA MARCILIO DE NORONHA 29135394 ES QD43-LT8;VIANA;-20.346355900;-40.426081400;G0;ESVIA-I01SP197;ESVIA-I01SP197-SS4
EQP0000000004474689;I01G01745;CTO SPLITTER 1 8;ESVIA_G1I01;RUA BAJE VIANA MARCILIO DE NORONHA 29135356 ES 43;VIANA;-20.352577100;-40.426457000;G0;ESVIA-I01SP219;ESVIA-I01SP219-SS1
EQP0000000004682162;I01G01188;CTO SPLITTER 1 8;ESVIA_G1I01;RUA GETULIO VARGAS VIANA UNIVERSAL 29134676 ES 15;VIANA;-20.362402400;-40.405282300;G0;ESVIA-I01SP149;ESVIA-I01SP149-SS4
EQP0000000004480610;I01G01730;CTO SPLITTER 1 8;ESVIA_G1I01;RUA ANTONIO CARLOS GERARDT VIANA PRIMAVERA 29135167 ES SN;VIANA;-20.357392600;-40.422673200;G0;ESVIA-I01SP217;ESVIA-I01SP217-SS2
EQP0000000004638356;I01G01375;CTO SPLITTER 1 8;ESVIA_G1I01;RODOVIA GOVERNADOR MARIO COVAS VIANA MARCILIO DE NORONHA 29135320 ES SN;VIANA;-20.355119700;-40.417538500;G0;ESVIA-I01SP172;ESVIA-I01SP172-SS7
EQP0000000004724728;I01G0134;CTO SPLITTER 1 8;ESVIA_G1I01;RUA MUTUM VIANA CANAA 29135053 ES SN;VIANA;-20.356761800;-40.439012500;G0;ESVIA-I01SP17;ESVIA-I01SP17-SS6
EQP0000000004778456;I01G0010;CTO SPLITTER 1 8;ESVIA_G1I01;RUA DOM PEDRO II VIANA UNIVERSAL 29134501 ES SN;VIANA;-20.358336300;-40.457702500;G0;ESVIA-I01SP2;ESVIA-I01SP2-SS2
EQP0000000004707047;I01G0365;CTO SPLITTER 1 8;ESVIA_G1I01;AVENIDA TEREZINHA PEREIRA ABRANCHES VIANA PRIMAVERA 29135220 ES 9;VIANA;-20.355704100;-40.427245700;G0;ESVIA-I01SP46;ESVIA-I01SP46-SS5
EQP0000000004712872;I01G0180;CTO SPLITTER 1 8;ESVIA_G1I01;RUA BOA VISTA VIANA CANAA 29135017 ES 13;VIANA;-20.359425500;-40.435301700;G0;ESVIA-I01SP23;ESVIA-I01SP23-SS4
EQP0000000004722344;I01G0258;CTO SPLITTER 1 8;ESVIA_G1I01;RUA GOVERNADOR VALADARES VIANA MARCILIO DE NORONHA 29135498 ES SN;VIANA;-20.349195000;-40.429116100;G0;ESVIA-I01SP33;ESVIA-I01SP33-SS2
EQP0000000004748379;I01G0028;CTO SPLITTER 1 8;ESVIA_G1I01;RUA GETULIO VARGAS VIANA UNIVERSAL 29134676 ES SN;VIANA;-20.355970900;-40.446351400;G0;ESVIA-I01SP4;ESVIA-I01SP4-SS4
EQP0000000004715687;I01G0278;CTO SPLITTER 1 8;ESVIA_G1I01;AVENIDA RIO GRANDE DO SUL VIANA MARCILIO DE NORONHA 29135341 ES 16;VIANA;-20.350845700;-40.427045500;G0;ESVIA-I01SP35;ESVIA-I01SP35-SS6
EQP0000000004727861;I01G0138;CTO SPLITTER 1 8;ESVIA_G1I01;RUA CENTRAL VIANA CANAA 29135038 ES SN;VIANA;-20.356702900;-40.436441900;G0;ESVIA-I01SP18;ESVIA-I01SP18-SS2
EQP0000000004716023;I01G0169;CTO SPLITTER 1 8;ESVIA_G1I01;RUA BOM SUCESSO VIANA CANAA 29135109 ES 7;VIANA;-20.358833900;-40.435034000;G0;ESVIA-I01SP22;ESVIA-I01SP22-SS1
EQP0000000004697534;I01G01165;CTO SPLITTER 1 8;ESVIA_G1I01;RUA JERONIMO MONTEIRO VIANA VILA BETHANIA 29136079 ES 69;VIANA;-20.361078700;-40.407880700;G0;ESVIA-I01SP146;ESVIA-I01SP146-SS5
EQP0000000004779763;I01G0001;CTO SPLITTER 1 8;ESVIA_G1I01;RUA PRESIDENTE KENNEDY VIANA UNIVERSAL 29134491 ES SN;VIANA;-20.358166100;-40.451929700;G0;ESVIA-I01SP1;ESVIA-I01SP1-SS1
EQP0000000004539778;I01G01540;CTO SPLITTER 1 8;ESVIA_G1I01;RUA CAMPOS DO JORDAO VIANA MARCILIO DE NORONHA 29135388 ES QD42-LT31;VIANA;-20.344083800;-40.426469900;G0;ESVIA-I01SP193;ESVIA-I01SP193-SS4
EQP0000000004666436;I01G01244;CTO SPLITTER 1 8;ESVIA_G1I01;RUA JERONIMO MONTEIRO VIANA VILA BETHANIA 29136079 ES 51;VIANA;-20.360160400;-40.408249400;G0;ESVIA-I01SP156;ESVIA-I01SP156-SS4
EQP0000000004708706;I01G0302;CTO SPLITTER 1 8;ESVIA_G1I01;AVENIDA PRIMAVERA VIANA MARCILIO DE NORONHA 29135365 ES 15;VIANA;-20.350292100;-40.427301700;G0;ESVIA-I01SP38;ESVIA-I01SP38-SS6
EQP0000000004703302;I01G01160;CTO SPLITTER 1 8;ESVIA_G1I01;RUA DOMINGOS VICENTE VIANA VILA BETHANIA 29136114 ES 28;VIANA;-20.361600700;-40.407296800;G0;ESVIA-I01SP145;ESVIA-I01SP145-SS8
EQP0000000004730648;I01G0243;CTO SPLITTER 1 8;ESVIA_G1I01;RUA BARRA SECA VIANA CANAA 29135029 ES 9;VIANA;-20.358591700;-40.437246100;G0;ESVIA-I01SP31;ESVIA-I01SP31-SS3
EQP0000000004669172;I01G01261;CTO SPLITTER 1 8;ESVIA_G1I01;RUA PARANA VIANA VILA BETHANIA 29136076 ES 27;VIANA;-20.359007400;-40.408710800;G0;ESVIA-I01SP158;ESVIA-I01SP158-SS5
EQP0000000004720080;I01G0164;CTO SPLITTER 1 8;ESVIA_G1I01;RUA SANTOS DUMONT VIANA CANAA 29135026 ES 18;VIANA;-20.360360100;-40.438155800;G0;ESVIA-I01SP21;ESVIA-I01SP21-SS4
EQP0000000004738190;I01G0098;CTO SPLITTER 1 8;ESVIA_G1I01;RUA SAO JOSE VIANA UNIVERSAL 29134415 ES 2;VIANA;-20.361110900;-40.446157000;G0;ESVIA-I01SP13;ESVIA-I01SP13-SS2
EQP0000000004494094;I01G01701;CTO SPLITTER 1 8;ESVIA_G1I01;RUA GUARAPARI VIANA MARCILIO DE NORONHA 29135641 ES QD9-LT17;VIANA;-20.350772400;-40.423617900;G0;ESVIA-I01SP213;ESVIA-I01SP213-SS5
EQP0000000004543461;I01G01504;CTO SPLITTER 1 8;ESVIA_G1I01;AVENIDA PIRACICABA VIANA MARCILIO DE NORONHA 29135391 ES SN;VIANA;-20.346664600;-40.428708900;G0;ESVIA-I01SP188;ESVIA-I01SP188-SS8
EQP0000000004495206;I01G01675;CTO SPLITTER 1 8;ESVIA_G1I01;RUA BARRA DE SAO FRANCISCO VIANA MARCILIO DE NORONHA 29135632 ES SN;VIANA;-20.350194700;-40.423155000;G0;ESVIA-I01SP210;ESVIA-I01SP210-SS3
EQP0000000004749691;I01G0039;CTO SPLITTER 1 8;ESVIA_G1I01;RUA SANTA ROSA VIANA UNIVERSAL 29134667 ES SN;VIANA;-20.355417400;-40.448393200;G0;ESVIA-I01SP5;ESVIA-I01SP5-SS7
EQP0000000004532609;I01G01579;CTO SPLITTER 1 8;ESVIA_G1I01;RUA BAURU VIANA MARCILIO DE NORONHA 29135375 ES QD38-LT11;VIANA;-20.345425700;-40.425646000;G0;ESVIA-I01SP198;ESVIA-I01SP198-SS3
EQP0000000004709658;I01G0297;CTO SPLITTER 1 8;ESVIA_G1I01;RUA SEM NOME VIANA VIANA 29135000 ES SN;VIANA;-20.348601800;-40.430284200;G0;ESVIA-I01SP38;ESVIA-I01SP38-SS1
EQP0000000004751084;I01G0074;CTO SPLITTER 1 8;ESVIA_G1I01;RUA MACHADO DE ASSIS VIANA UNIVERSAL 29134451 ES SN;VIANA;-20.359581100;-40.448965200;G0;ESVIA-I01SP10;ESVIA-I01SP10-SS2
EQP0000000004673599;I01G01232;CTO SPLITTER 1 8;ESVIA_G1I01;RUA GERTRUDES VIANA VILA BETHANIA 29136052 ES 56;VIANA;-20.358461300;-40.411134600;G0;ESVIA-I01SP154;ESVIA-I01SP154-SS8
EQP0000000004691063;I01G01173;CTO SPLITTER 1 8;ESVIA_G1I01;RUA MINAS GERAIS VIANA VILA BETHANIA 29136092 ES 109;VIANA;-20.363206800;-40.405563900;G0;ESVIA-I01SP147;ESVIA-I01SP147-SS5
EQP0000000004473854;I01G01747;CTO SPLITTER 1 8;ESVIA_G1I01;RUA BAJE VIANA MARCILIO DE NORONHA 29135356 ES 8;VIANA;-20.352027300;-40.427935300;G0;ESVIA-I01SP219;ESVIA-I01SP219-SS3
EQP0000000004739968;I01G0224;CTO SPLITTER 1 8;ESVIA_G1I01;RUA PRIMAVERA VIANA CANAA 29135103 ES 53;VIANA;-20.356769700;-40.434424100;G0;ESVIA-I01SP28;ESVIA-I01SP28-SS8
EQP0000000004718416;I01G0154;CTO SPLITTER 1 8;ESVIA_G1I01;RUA CENTRAL VIANA CANAA 29135038 ES 35;VIANA;-20.357940600;-40.437921300;G0;ESVIA-I01SP20;ESVIA-I01SP20-SS2
EQP0000000004492437;I01G01680;CTO SPLITTER 1 8;ESVIA_G1I01;RUA COLATINA VIANA MARCILIO DE NORONHA 29135644 ES QD1-LT25;VIANA;-20.349332200;-40.422512900;G0;ESVIA-I01SP210;ESVIA-I01SP210-SS8
EQP0000000004537158;I01G01536;CTO SPLITTER 1 8;ESVIA_G1I01;RUA DIADEMA VIANA MARCILIO DE NORONHA 29135384 ES QD50-LT18;VIANA;-20.344459000;-40.426965200;G0;ESVIA-I01SP192;ESVIA-I01SP192-SS8
EQP0000000004725785;I01G0253;CTO SPLITTER 1 8;ESVIA_G1I01;AVENIDA VITORIA VIANA MARCILIO DE NORONHA 29135368 ES SN;VIANA;-20.347067800;-40.424789900;G0;ESVIA-I01SP32;ESVIA-I01SP32-SS5
EQP0000000004685033;I01G01566;CTO SPLITTER 1 8;ESVIA_G1I01;AVENIDA PIRACICABA VIANA MARCILIO DE NORONHA 29135391 ES SN;VIANA;-20.346851100;-40.426433600;G0;ESVIA-I01SP196;ESVIA-I01SP196-SS6
EQP0000000004777738;I01G0019;CTO SPLITTER 1 8;ESVIA_G1I01;RUA COLATINA VIANA UNIVERSAL 29134507 ES SN;VIANA;-20.359354600;-40.452464300;G0;ESVIA-I01SP3;ESVIA-I01SP3-SS3
EQP0000000004693939;I01G0344;CTO SPLITTER 1 8;ESVIA_G1I01;RUA GALDINO PIMENTEL VIANA PRIMAVERA 29135204 ES 83;VIANA;-20.351383000;-40.428630600;G0;ESVIA-I01SP43;ESVIA-I01SP43-SS8
EQP0000000004543648;I01G01503;CTO SPLITTER 1 8;ESVIA_G1I01;RUA SAO JOSE DOS CAMPOS VIANA MARCILIO DE NORONHA 29135413 ES SN;VIANA;-20.346945100;-40.428713600;G0;ESVIA-I01SP188;ESVIA-I01SP188-SS7
EQP0000000004541219;I01G01468;CTO SPLITTER 1 8;ESVIA_G1I01;RUA BELO HORIZONTE VIANA INDUSTRIAL 29135590 ES QDM-LT36;VIANA;-20.342624500;-40.422436200;G0;ESVIA-I01SP184;ESVIA-I01SP184-SS4
EQP0000000004650615;I01G01300;CTO SPLITTER 1 8;ESVIA_G1I01;RUA LUIZA CAZOTTI VIANA VILA BETHANIA 29136030 ES 119;VIANA;-20.357142600;-40.413907800;G0;ESVIA-I01SP163;ESVIA-I01SP163-SS4
EQP0000000004677560;I01G01235;CTO SPLITTER 1 8;ESVIA_G1I01;RUA SAO JOAO VIANA VILA BETHANIA 29136150 ES 43;VIANA;-20.360797300;-40.410367100;G0;ESVIA-I01SP155;ESVIA-I01SP155-SS3
EQP0000000004495274;I01G01709;CTO SPLITTER 1 8;ESVIA_G1I01;AVENIDA ESPIRITO SANTO VIANA MARCILIO DE NORONHA 29135508 ES SN;VIANA;-20.350784100;-40.424183900;G0;ESVIA-I01SP214;ESVIA-I01SP214-SS5
EQP0000000004499692;I01G01653;CTO SPLITTER 1 8;ESVIA_G1I01;RUA ECOPORANGA VIANA MARCILIO DE NORONHA 29135617 ES QD8-LT44;VIANA;-20.347680000;-40.423673000;G0;ESVIA-I01SP207;ESVIA-I01SP207-SS5
EQP0000000004778891;I01G0045;CTO SPLITTER 1 8;ESVIA_G1I01;RUA VISTA LINDA VIANA UNIVERSAL 29134469 ES SN;VIANA;-20.358633800;-40.450637000;G0;ESVIA-I01SP6;ESVIA-I01SP6-SS5
EQP0000000004541009;I01G01538;CTO SPLITTER 1 8;ESVIA_G1I01;RUA CAMPOS DO JORDAO VIANA MARCILIO DE NORONHA 29135388 ES QD42-LT35;VIANA;-20.343546600;-40.426357900;G0;ESVIA-I01SP193;ESVIA-I01SP193-SS2
EQP0000000004543824;I01G01454;CTO SPLITTER 1 8;ESVIA_G1I01;AVENIDA BENJAMIM VITORIO VIANA INDUSTRIAL 29135563 ES SN;VIANA;-20.345466700;-40.423056400;G0;ESVIA-I01SP182;ESVIA-I01SP182-SS6
EQP0000000004716226;I01G0275;CTO SPLITTER 1 8;ESVIA_G1I01;AVENIDA RIO GRANDE DO SUL VIANA MARCILIO DE NORONHA 29135341 ES 35;VIANA;-20.351918000;-40.426572800;G0;ESVIA-I01SP35;ESVIA-I01SP35-SS3
EQP0000000004499039;I01G01650;CTO SPLITTER 1 8;ESVIA_G1I01;RUA ECOPORANGA VIANA MARCILIO DE NORONHA 29135617 ES 56;VIANA;-20.348698800;-40.423686200;G0;ESVIA-I01SP207;ESVIA-I01SP207-SS2
EQP0000000004711057;I01G0307;CTO SPLITTER 1 8;ESVIA_G1I01;RUA BAJE VIANA MARCILIO DE NORONHA 29135356 ES QD26-LT25;VIANA;-20.351084200;-40.425168900;G0;ESVIA-I01SP39;ESVIA-I01SP39-SS3
EQP0000000004778483;I01G0190;CTO SPLITTER 1 8;ESVIA_G1I01;RUA CURITIBA VIANA CANAA 29135020 ES 18;VIANA;-20.360949200;-40.437144500;G0;ESVIA-I01SP24;ESVIA-I01SP24-SS6
EQP0000000004708863;I01G0301;CTO SPLITTER 1 8;ESVIA_G1I01;AVENIDA PRIMAVERA VIANA MARCILIO DE NORONHA 29135365 ES 39;VIANA;-20.350429400;-40.428058500;G0;ESVIA-I01SP38;ESVIA-I01SP38-SS5
EQP0000000004742848;I01G0213;CTO SPLITTER 1 8;ESVIA_G1I01;RUA SANTOS DUMONT VIANA CANAA 29135026 ES 71;VIANA;-20.357956000;-40.435297700;G0;ESVIA-I01SP27;ESVIA-I01SP27-SS5
EQP0000000004514428;I01G01638;CTO SPLITTER 1 8;ESVIA_G1I01;RUA ANCHIETA VIANA MARCILIO DE NORONHA 29135524 ES SN;VIANA;-20.342155800;-40.424338000;G0;ESVIA-I01SP205;ESVIA-I01SP205-SS6
EQP0000000004539531;I01G01480;CTO SPLITTER 1 8;ESVIA_G1I01;RUA SAO PAULO VIANA MARCILIO DE NORONHA 29135551 ES SN;VIANA;-20.345913900;-40.422257400;G0;ESVIA-I01SP185;ESVIA-I01SP185-SS8
EQP0000000004621182;I01G01516;CTO SPLITTER 1 8;ESVIA_G1I01;AVENIDA SAO PAULO VIANA MARCILIO DE NORONHA 29135397 ES SN;VIANA;-20.344564900;-40.428178500;G0;ESVIA-I01SP190;ESVIA-I01SP190-SS4
EQP0000000004516300;I01G01617;CTO SPLITTER 1 8;ESVIA_G1I01;RUA BELO HORIZONTE VIANA INDUSTRIAL 29135590 ES QDM-LT44;VIANA;-20.342252500;-40.422797000;G0;ESVIA-I01SP203;ESVIA-I01SP203-SS1
EQP0000000004730378;I01G0118;CTO SPLITTER 1 8;ESVIA_G1I01;AVENIDA ALCACIBAS FURTADO VIANA UNIVERSAL 29134403 ES 22;VIANA;-20.361322800;-40.443750400;G0;ESVIA-I01SP15;ESVIA-I01SP15-SS6
EQP0000000004689332;I01G01177;CTO SPLITTER 1 8;ESVIA_G1I01;RUA AMAPA VIANA VILA BETHANIA 29136089 ES 34;VIANA;-20.360836100;-40.408706400;G0;ESVIA-I01SP148;ESVIA-I01SP148-SS1
EQP0000000004710358;I01G0310;CTO SPLITTER 1 8;ESVIA_G1I01;AVENIDA VITORIA VIANA MARCILIO DE NORONHA 29135368 ES SN;VIANA;-20.349794900;-40.424691500;G0;ESVIA-I01SP39;ESVIA-I01SP39-SS6
EQP0000000004678921;I01G01223;CTO SPLITTER 1 8;ESVIA_G1I01;RUA PERNAMBUCO VIANA VILA BETHANIA 29136086 ES SN;VIANA;-20.359299200;-40.406852400;G0;ESVIA-I01SP153;ESVIA-I01SP153-SS7
EQP0000000004623446;I01G01425;CTO SPLITTER 1 8;ESVIA_G1I01;RUA AMAPA VIANA MARCILIO DE NORONHA 29135560 ES SN;VIANA;-20.341898400;-40.422046600;G0;ESVIA-I01SP179;ESVIA-I01SP179-SS1
EQP0000000004675910;I01G01229;CTO SPLITTER 1 8;ESVIA_G1I01;RUA ARISTIDES CARVALHO VIANA VILA BETHANIA 29136064 ES 13;VIANA;-20.359242600;-40.410409600;G0;ESVIA-I01SP154;ESVIA-I01SP154-SS5
EQP0000000004515508;I01G01622;CTO SPLITTER 1 8;ESVIA_G1I01;RUA CACHOEIRO DE ITAPEMIRIM VIANA MARCILIO DE NORONHA 29135533 ES QD12-LT20;VIANA;-20.343988900;-40.423814000;G0;ESVIA-I01SP203;ESVIA-I01SP203-SS6
EQP0000000004780252;I01G0052;CTO SPLITTER 1 8;ESVIA_G1I01;RUA DUQUE DE CAXIAS VIANA UNIVERSAL 29134695 ES 10;VIANA;-20.357443200;-40.447311800;G0;ESVIA-I01SP7;ESVIA-I01SP7-SS4
EQP0000000004696877;I01G01167;CTO SPLITTER 1 8;ESVIA_G1I01;RUA ARTHUR BERNARDES VIANA VILA BETHANIA 29136082 ES SN;VIANA;-20.361387100;-40.407086800;G0;ESVIA-I01SP146;ESVIA-I01SP146-SS7
EQP0000000004622466;I01G01523;CTO SPLITTER 1 8;ESVIA_G1I01;RUA OSASCO VIANA MARCILIO DE NORONHA 29135407 ES QD52-LT19;VIANA;-20.347942400;-40.427322900;G0;ESVIA-I01SP191;ESVIA-I01SP191-SS3
EQP0000000004622718;I01G01432;CTO SPLITTER 1 8;ESVIA_G1I01;AVENIDA BENJAMIM VITORIO VIANA INDUSTRIAL 29135563 ES SN1;VIANA;-20.342366200;-40.420114800;G0;ESVIA-I01SP179;ESVIA-I01SP179-SS8
EQP0000000004540776;I01G01539;CTO SPLITTER 1 8;ESVIA_G1I01;RUA CAMPOS DO JORDAO VIANA MARCILIO DE NORONHA 29135388 ES QD45-LT2;VIANA;-20.343437700;-40.426507900;G0;ESVIA-I01SP193;ESVIA-I01SP193-SS3
EQP0000000004625253;I01G01424;CTO SPLITTER 1 8;ESVIA_G1I01;AVENIDA ANTONIO FREIRE VIANA MARCILIO DE NORONHA 29135323 ES 5;VIANA;-20.341441600;-40.419579500;G0;ESVIA-I01SP178;ESVIA-I01SP178-SS8
EQP0000000004626626;I01G01386;CTO SPLITTER 1 8;ESVIA_G1I01;RUA TEOFILO OTONI VIANA MARCILIO DE NORONHA 29135542 ES SN;VIANA;-20.340662400;-40.423586900;G0;ESVIA-I01SP174;ESVIA-I01SP174-SS2
EQP0000000004740683;I01G0222;CTO SPLITTER 1 8;ESVIA_G1I01;RUA PRIMAVERA VIANA CANAA 29135103 ES SN;VIANA;-20.356933000;-40.433325600;G0;ESVIA-I01SP28;ESVIA-I01SP28-SS6
EQP0000000004694387;I01G0342;CTO SPLITTER 1 8;ESVIA_G1I01;RUA GALDINO PIMENTEL VIANA PRIMAVERA 29135204 ES 36;VIANA;-20.350819700;-40.428894900;G0;ESVIA-I01SP43;ESVIA-I01SP43-SS6
EQP0000000004540565;I01G01471;CTO SPLITTER 1 8;ESVIA_G1I01;RUA BELO HORIZONTE VIANA INDUSTRIAL 29135590 ES SN1;VIANA;-20.345662500;-40.421166400;G0;ESVIA-I01SP184;ESVIA-I01SP184-SS7
EQP0000000004472511;I01G01751;CTO SPLITTER 1 8;ESVIA_G1I01;RUA ANGELINA BORTOLOTTI VIANA MARCILIO DE NORONHA 29135331 ES 4;VIANA;-20.353414100;-40.425349200;G0;ESVIA-I01SP219;ESVIA-I01SP219-SS7
EQP0000000004719603;I01G0167;CTO SPLITTER 1 8;ESVIA_G1I01;RUA AFONSO CLAUDIO VIANA CANAA 29135032 ES 10;VIANA;-20.360087100;-40.438677700;G0;ESVIA-I01SP21;ESVIA-I01SP21-SS7
EQP0000000004680312;I01G01195;CTO SPLITTER 1 8;ESVIA_G1I01;RUA JONES DOS SANTOS NEVES VIANA VILA BETHANIA 29136117 ES SN;VIANA;-20.361857700;-40.404474100;G0;ESVIA-I01SP150;ESVIA-I01SP150-SS3
EQP0000000004682424;I01G01187;CTO SPLITTER 1 8;ESVIA_G1I01;RUA GETULIO VARGAS VIANA UNIVERSAL 29134676 ES 19;VIANA;-20.362690000;-40.405171400;G0;ESVIA-I01SP149;ESVIA-I01SP149-SS3
EQP0000000004731493;I01G0112;CTO SPLITTER 1 8;ESVIA_G1I01;RUA JOAO EVANGELISTA VIANA UNIVERSAL 29134427 ES 4;VIANA;-20.361196500;-40.444422000;G0;ESVIA-I01SP14;ESVIA-I01SP14-SS8
EQP0000000004706208;I01G0326;CTO SPLITTER 1 8;ESVIA_G1I01;RUA IRINEU GASPARINI VIANA PRIMAVERA 29135231 ES 55;VIANA;-20.351657000;-40.431126900;G0;ESVIA-I01SP41;ESVIA-I01SP41-SS6
EQP0000000004714993;I01G0281;CTO SPLITTER 1 8;ESVIA_G1I01;AVENIDA ESPIRITO SANTO VIANA MARCILIO DE NORONHA 29135508 ES SN;VIANA;-20.351587500;-40.423798300;G0;ESVIA-I01SP36;ESVIA-I01SP36-SS1
EQP0000000004626812;I01G01420;CTO SPLITTER 1 8;ESVIA_G1I01;RUA PEDRO MACHADO DA SILVA VIANA INDUSTRIAL 29135572 ES 97;VIANA;-20.341257100;-40.420710900;G0;ESVIA-I01SP178;ESVIA-I01SP178-SS4
EQP0000000004480925;I01G01729;CTO SPLITTER 1 8;ESVIA_G1I01;RUA ANTONIO CARLOS GERARDT VIANA PRIMAVERA 29135167 ES 25;VIANA;-20.357393200;-40.422311400;G0;ESVIA-I01SP217;ESVIA-I01SP217-SS1
EQP0000000004677753;I01G01704;CTO SPLITTER 1 8;ESVIA_G1I01;RUA SANTA TEREZA VIANA MARCILIO DE NORONHA 29135638 ES SN;VIANA;-20.349164100;-40.424004000;G0;ESVIA-I01SP213;ESVIA-I01SP213-SS8
EQP0000000004750194;I01G0037;CTO SPLITTER 1 8;ESVIA_G1I01;RUA LOREDO VIANA UNIVERSAL 29134652 ES SN;VIANA;-20.355545800;-40.449685800;G0;ESVIA-I01SP5;ESVIA-I01SP5-SS5
EQP0000000004688626;I01G01179;CTO SPLITTER 1 8;ESVIA_G1I01;RUA ARTHUR BERNARDES VIANA VILA BETHANIA 29136082 ES 76;VIANA;-20.360854300;-40.407307900;G0;ESVIA-I01SP148;ESVIA-I01SP148-SS3
EQP0000000004716504;I01G0274;CTO SPLITTER 1 8;ESVIA_G1I01;AVENIDA RIO GRANDE DO SUL VIANA MARCILIO DE NORONHA 29135341 ES 40;VIANA;-20.351918700;-40.426159300;G0;ESVIA-I01SP35;ESVIA-I01SP35-SS2
EQP0000000004731209;I01G0113;CTO SPLITTER 1 8;ESVIA_G1I01;AVENIDA ALCACIBAS FURTADO VIANA UNIVERSAL 29134403 ES SN;VIANA;-20.362533400;-40.442833300;G0;ESVIA-I01SP15;ESVIA-I01SP15-SS1
EQP0000000004741176;I01G0089;CTO SPLITTER 1 8;ESVIA_G1I01;RUA DUQUE DE CAXIAS VIANA UNIVERSAL 29134695 ES 12;VIANA;-20.357661900;-40.446731700;G0;ESVIA-I01SP12;ESVIA-I01SP12-SS1
EQP0000000128457577;I01GP1318;MINI CDOE 1:2 + 1:8 PRECON SELADA 60/40;ESVIA_G1I01;RUA SANTA HELENA VIANA VILA BETHANIA 29136013 ES 281;VIANA;-20.355981300;-40.410903800;GP;ESVIA-I01SP165;ESVIA-I01SP165-SS6
EQP0000000004504122;I01G01648;CTO SPLITTER 1 8;ESVIA_G1I01;RUA MARATAIZES VIANA MARCILIO DE NORONHA 29135527 ES QD13-LT23;VIANA;-20.344010700;-40.424313300;G0;ESVIA-I01SP206;ESVIA-I01SP206-SS8
EQP0000000004706692;I01G0324;CTO SPLITTER 1 8;ESVIA_G1I01;RUA JOSE MARCELINO DE MELO VIANA PRIMAVERA 29135228 ES 56;VIANA;-20.351190500;-40.430748100;G0;ESVIA-I01SP41;ESVIA-I01SP41-SS4
EQP0000000004627215;I01G01383;CTO SPLITTER 1 8;ESVIA_G1I01;RUA TEOFILO OTONI VIANA MARCILIO DE NORONHA 29135542 ES SN;VIANA;-20.341328600;-40.423788300;G0;ESVIA-I01SP173;ESVIA-I01SP173-SS7
EQP0000000004738235;I01G0230;CTO SPLITTER 1 8;ESVIA_G1I01;RUA GERALDINO INACIO DE OLIVEIRA VIANA CANAA 29135082 ES SN;VIANA;-20.356473400;-40.434770500;G0;ESVIA-I01SP29;ESVIA-I01SP29-SS6
EQP0000000004499318;I01G01651;CTO SPLITTER 1 8;ESVIA_G1I01;RUA ECOPORANGA VIANA MARCILIO DE NORONHA 29135617 ES QD8-LT55;VIANA;-20.348532600;-40.423684100;G0;ESVIA-I01SP207;ESVIA-I01SP207-SS3
EQP0000000004626420;I01G01421;CTO SPLITTER 1 8;ESVIA_G1I01;AVENIDA MINAS GERAIS VIANA MARCILIO DE NORONHA 29135504 ES SN;VIANA;-20.340403400;-40.421176800;G0;ESVIA-I01SP178;ESVIA-I01SP178-SS5
EQP0000000004637510;I01GP1319;MINI CDOE 1:2 + 1:8 PRECON SELADA 60/40;ESVIA_G1I01;RUA SANTA HELENA VIANA VILA BETHANIA 29136013 ES 281;VIANA;-20.356113100;-40.410898300;GP;ESVIA-I01SP165;ESVIA-I01SP165-SS7
EQP0000000004688238;I01G01616;CTO SPLITTER 1 8;ESVIA_G1I01;AVENIDA ESPIRITO SANTO VIANA MARCILIO DE NORONHA 29135508 ES SN;VIANA;-20.345055600;-40.424192500;G0;ESVIA-I01SP202;ESVIA-I01SP202-SS8
EQP0000000004696443;I01G01168;CTO SPLITTER 1 8;ESVIA_G1I01;RUA ARTHUR BERNARDES VIANA VILA BETHANIA 29136082 ES 96;VIANA;-20.361986200;-40.406835600;G0;ESVIA-I01SP146;ESVIA-I01SP146-SS8
EQP0000000004736645;I01G0102;CTO SPLITTER 1 8;ESVIA_G1I01;RUA AMIZADE VIANA UNIVERSAL 29134430 ES 2;VIANA;-20.360752100;-40.444977800;G0;ESVIA-I01SP13;ESVIA-I01SP13-SS6
EQP0000000004620420;I01G01510;CTO SPLITTER 1 8;ESVIA_G1I01;AVENIDA PIRACICABA VIANA MARCILIO DE NORONHA 29135391 ES SN;VIANA;-20.345415400;-40.428949000;G0;ESVIA-I01SP189;ESVIA-I01SP189-SS6
EQP0000000004666094;I01G01275;CTO SPLITTER 1 8;ESVIA_G1I01;RUA SANTA HELENA VIANA VILA BETHANIA 29136013 ES SN;VIANA;-20.356879400;-40.407379300;G0;ESVIA-I01SP160;ESVIA-I01SP160-SS3
EQP0000000004621111;I01G01517;CTO SPLITTER 1 8;ESVIA_G1I01;AVENIDA PIRACICABA VIANA MARCILIO DE NORONHA 29135391 ES SN;VIANA;-20.345418600;-40.428177600;G0;ESVIA-I01SP190;ESVIA-I01SP190-SS5
EQP0000000004532639;I01G01567;CTO SPLITTER 1 8;ESVIA_G1I01;RUA CAMPOS DO JORDAO VIANA MARCILIO DE NORONHA 29135388 ES QD44-LT34;VIANA;-20.347204400;-40.426434100;G0;ESVIA-I01SP196;ESVIA-I01SP196-SS7
EQP0000000004536001;I01G01558;CTO SPLITTER 1 8;ESVIA_G1I01;RUA GUARULHOS VIANA MARCILIO DE NORONHA 29135431 ES 127;VIANA;-20.344935300;-40.427801800;G0;ESVIA-I01SP195;ESVIA-I01SP195-SS6
EQP0000000004729118;I01G0147;CTO SPLITTER 1 8;ESVIA_G1I01;RUA CENTRAL VIANA CANAA 29135038 ES 4;VIANA;-20.358981300;-40.439090900;G0;ESVIA-I01SP19;ESVIA-I01SP19-SS3
EQP0000000004721268;I01G0162;CTO SPLITTER 1 8;ESVIA_G1I01;RUA SANTOS DUMONT VIANA CANAA 29135026 ES 35;VIANA;-20.359502900;-40.437065100;G0;ESVIA-I01SP21;ESVIA-I01SP21-SS2
EQP0000000004649542;I01G01302;CTO SPLITTER 1 8;ESVIA_G1I01;RUA LUIZA CAZOTTI VIANA VILA BETHANIA 29136030 ES 97;VIANA;-20.357629400;-40.412788600;G0;ESVIA-I01SP163;ESVIA-I01SP163-SS6
EQP0000000004542242;I01G01546;CTO SPLITTER 1 8;ESVIA_G1I01;RUA DIADEMA VIANA MARCILIO DE NORONHA 29135384 ES QD52-LT10;VIANA;-20.347592600;-40.426944600;G0;ESVIA-I01SP194;ESVIA-I01SP194-SS2
EQP0000000004709372;I01G0354;CTO SPLITTER 1 8;ESVIA_G1I01;RUA ALTIVA DA SILVA BRESSIANI VIANA PRIMAVERA 29135224 ES SN;VIANA;-20.354669300;-40.428414300;G0;ESVIA-I01SP45;ESVIA-I01SP45-SS2
EQP0000000004500291;I01G01656;CTO SPLITTER 1 8;ESVIA_G1I01;RUA ECOPORANGA VIANA MARCILIO DE NORONHA 29135617 ES QD11-LT5;VIANA;-20.346405200;-40.423665900;G0;ESVIA-I01SP207;ESVIA-I01SP207-SS8
EQP0000000004671225;I01G01255;CTO SPLITTER 1 8;ESVIA_G1I01;RUA GERTRUDES VIANA VILA BETHANIA 29136052 ES 14;VIANA;-20.357297500;-40.408844700;G0;ESVIA-I01SP157;ESVIA-I01SP157-SS7
EQP0000000004659428;I01G01282;CTO SPLITTER 1 8;ESVIA_G1I01;RUA NOSSA SENHORA DA CONCEICAO VIANA ARLINDO VILLASCHI 29136224 ES 1;VIANA;-20.362039800;-40.410486900;G0;ESVIA-I01SP161;ESVIA-I01SP161-SS2
EQP0000000004696955;I01G0350;CTO SPLITTER 1 8;ESVIA_G1I01;AVENIDA TEREZINHA PEREIRA ABRANCHES VIANA PRIMAVERA 29135220 ES 31;VIANA;-20.353516800;-40.428247600;G0;ESVIA-I01SP44;ESVIA-I01SP44-SS6
EQP0000000004536373;I01G01555;CTO SPLITTER 1 8;ESVIA_G1I01;RUA OSASCO VIANA MARCILIO DE NORONHA 29135407 ES QD50-LT34;VIANA;-20.344396600;-40.427328300;G0;ESVIA-I01SP195;ESVIA-I01SP195-SS3
EQP0000000004708733;I01G0357;CTO SPLITTER 1 8;ESVIA_G1I01;RUA GALDINO PIMENTEL VIANA PRIMAVERA 29135204 ES SN;VIANA;-20.354393900;-40.427229700;G0;ESVIA-I01SP45;ESVIA-I01SP45-SS5
EQP0000000004536121;I01G01557;CTO SPLITTER 1 8;ESVIA_G1I01;RUA GUARULHOS VIANA MARCILIO DE NORONHA 29135431 ES QD50-LT120;VIANA;-20.344379600;-40.427800200;G0;ESVIA-I01SP195;ESVIA-I01SP195-SS5
EQP0000000004704322;I01G0318;CTO SPLITTER 1 8;ESVIA_G1I01;RUA B VIANA PRIMAVERA 29135000 ES SN;VIANA;-20.352949500;-40.431506800;G0;ESVIA-I01SP40;ESVIA-I01SP40-SS6
EQP0000000004725407;I01G0254;CTO SPLITTER 1 8;ESVIA_G1I01;AVENIDA VITORIA VIANA MARCILIO DE NORONHA 29135368 ES QD34-LT10A;VIANA;-20.347631300;-40.424787700;G0;ESVIA-I01SP32;ESVIA-I01SP32-SS6
EQP0000000004779225;I01G0185;CTO SPLITTER 1 8;ESVIA_G1I01;RUA TANCREDO DE ALMEIDA NEVES VIANA CANAA 29135004 ES 63;VIANA;-20.360557900;-40.437520400;G0;ESVIA-I01SP24;ESVIA-I01SP24-SS1
EQP0000000004515894;I01G01620;CTO SPLITTER 1 8;ESVIA_G1I01;RUA CACHOEIRO DE ITAPEMIRIM VIANA MARCILIO DE NORONHA 29135533 ES QD12-LT9;VIANA;-20.343001100;-40.423611500;G0;ESVIA-I01SP203;ESVIA-I01SP203-SS4
EQP0000000004620765;I01G01505;CTO SPLITTER 1 8;ESVIA_G1I01;RUA SAO CAETANO DO SUL VIANA MARCILIO DE NORONHA 29135416 ES 50;VIANA;-20.347665600;-40.429146800;G0;ESVIA-I01SP189;ESVIA-I01SP189-SS1
EQP0000000004480285;I01G01731;CTO SPLITTER 1 8;ESVIA_G1I01;RUA ANTONIO CARLOS GERARDT VIANA PRIMAVERA 29135167 ES 153;VIANA;-20.357415800;-40.423333900;G0;ESVIA-I01SP217;ESVIA-I01SP217-SS3
EQP0000000142622924;I01GP1484;MINI CDOE 1:2 + 1:8 PRECON SELADA 60/40;ESVIA_G1I01;AVENIDA BENJAMIM VITORIO VIANA INDUSTRIAL 29135563 ES 6;VIANA;-20.346210600;-40.422389000;GP;ESVIA-I01SP186;ESVIA-I01SP186-SS4
EQP0000000004742356;I01G0214;CTO SPLITTER 1 8;ESVIA_G1I01;RUA GERALDINO INACIO DE OLIVEIRA VIANA CANAA 29135082 ES SN;VIANA;-20.357460600;-40.434793700;G0;ESVIA-I01SP27;ESVIA-I01SP27-SS6
EQP0000000004746942;I01G0029;CTO SPLITTER 1 8;ESVIA_G1I01;RUA GETULIO VARGAS VIANA UNIVERSAL 29134676 ES 26;VIANA;-20.354759400;-40.447563000;G0;ESVIA-I01SP4;ESVIA-I01SP4-SS5
EQP0000000004715911;I01G0170;CTO SPLITTER 1 8;ESVIA_G1I01;RUA MONTE PASCOAL VIANA CANAA 29135076 ES SN;VIANA;-20.358727500;-40.433936800;G0;ESVIA-I01SP22;ESVIA-I01SP22-SS2
EQP0000000004744744;I01G0087;CTO SPLITTER 1 8;ESVIA_G1I01;RUA GOIAS VIANA UNIVERSAL 29134439 ES SN;VIANA;-20.360560300;-40.446982400;G0;ESVIA-I01SP11;ESVIA-I01SP11-SS7
EQP0000000004650200;I01G01301;CTO SPLITTER 1 8;ESVIA_G1I01;RUA LUIZA CAZOTTI VIANA VILA BETHANIA 29136030 ES 111;VIANA;-20.357351800;-40.413483300;G0;ESVIA-I01SP163;ESVIA-I01SP163-SS5
EQP0000000004529106;I01G01587;CTO SPLITTER 1 8;ESVIA_G1I01;RUA BAURU VIANA MARCILIO DE NORONHA 29135375 ES SN;VIANA;-20.346554100;-40.425593200;G0;ESVIA-I01SP199;ESVIA-I01SP199-SS3
EQP0000000004543859;I01G01502;CTO SPLITTER 1 8;ESVIA_G1I01;RUA SAO JOSE DOS CAMPOS VIANA MARCILIO DE NORONHA 29135413 ES SN;VIANA;-20.347871400;-40.428728900;G0;ESVIA-I01SP188;ESVIA-I01SP188-SS6
EQP0000000004515380;I01G01623;CTO SPLITTER 1 8;ESVIA_G1I01;RUA CACHOEIRO DE ITAPEMIRIM VIANA MARCILIO DE NORONHA 29135533 ES SN;VIANA;-20.344305200;-40.423887600;G0;ESVIA-I01SP203;ESVIA-I01SP203-SS7
EQP0000000004697144;I01G01166;CTO SPLITTER 1 8;ESVIA_G1I01;RUA CORONEL NUNES FERREIRA VIANA VILA BETHANIA 29136111 ES 29;VIANA;-20.361272500;-40.407486500;G0;ESVIA-I01SP146;ESVIA-I01SP146-SS6
EQP0000000004713074;I01G0286;CTO SPLITTER 1 8;ESVIA_G1I01;AVENIDA RIO GRANDE DO SUL VIANA MARCILIO DE NORONHA 29135341 ES 44;VIANA;-20.352077300;-40.425429100;G0;ESVIA-I01SP36;ESVIA-I01SP36-SS6
EQP0000000004712384;I01G0182;CTO SPLITTER 1 8;ESVIA_G1I01;RUA TANCREDO DE ALMEIDA NEVES VIANA CANAA 29135004 ES 52;VIANA;-20.359116800;-40.435902900;G0;ESVIA-I01SP23;ESVIA-I01SP23-SS6
EQP0000000004533655;I01G01562;CTO SPLITTER 1 8;ESVIA_G1I01;RUA CAMPOS DO JORDAO VIANA MARCILIO DE NORONHA 29135388 ES QD43-LT24;VIANA;-20.345616200;-40.426465800;G0;ESVIA-I01SP196;ESVIA-I01SP196-SS2
EQP0000000004731707;I01G0107;CTO SPLITTER 1 8;ESVIA_G1I01;RUA SAO JOAO VIANA UNIVERSAL 29134421 ES 11;VIANA;-20.361607700;-40.445054200;G0;ESVIA-I01SP14;ESVIA-I01SP14-SS3
EQP0000000004629018;I01G01381;CTO SPLITTER 1 8;ESVIA_G1I01;RUA UBERLANDIA VIANA MARCILIO DE NORONHA 29135521 ES SN;VIANA;-20.341389100;-40.424926600;G0;ESVIA-I01SP173;ESVIA-I01SP173-SS5
EQP0000000004492009;I01G01693;CTO SPLITTER 1 8;ESVIA_G1I01;RUA BARRA DE SAO FRANCISCO VIANA MARCILIO DE NORONHA 29135632 ES QD4-LT18;VIANA;-20.347748600;-40.423150500;G0;ESVIA-I01SP212;ESVIA-I01SP212-SS5
EQP0000000004704886;I01G0316;CTO SPLITTER 1 8;ESVIA_G1I01;RUA E VIANA PRIMAVERA 29135000 ES SN;VIANA;-20.352163900;-40.431660900;G0;ESVIA-I01SP40;ESVIA-I01SP40-SS4
EQP0000000004497389;I01G01664;CTO SPLITTER 1 8;ESVIA_G1I01;AVENIDA ESPIRITO SANTO VIANA MARCILIO DE NORONHA 29135508 ES QD8-LT58;VIANA;-20.347971900;-40.424199400;G0;ESVIA-I01SP208;ESVIA-I01SP208-SS8
EQP0000000004781422;I01G0057;CTO SPLITTER 1 8;ESVIA_G1I01;RUA SIBIPIRUNA VIANA UNIVERSAL 29134655 ES SN;VIANA;-20.355465100;-40.450369600;G0;ESVIA-I01SP8;ESVIA-I01SP8-SS1
EQP0000000004533821;I01G01574;CTO SPLITTER 1 8;ESVIA_G1I01;RUA CAMPINAS VIANA MARCILIO DE NORONHA 29135394 ES QD44-LT5;VIANA;-20.347215900;-40.426082500;G0;ESVIA-I01SP197;ESVIA-I01SP197-SS6
EQP0000000004541568;I01G01467;CTO SPLITTER 1 8;ESVIA_G1I01;AVENIDA BENJAMIM VITORIO VIANA INDUSTRIAL 29135563 ES SN;VIANA;-20.344211200;-40.421627900;G0;ESVIA-I01SP184;ESVIA-I01SP184-SS3
EQP0000000004735624;I01G0104;CTO SPLITTER 1 8;ESVIA_G1I01;AVENIDA ALCACIBAS FURTADO VIANA UNIVERSAL 29134403 ES SN;VIANA;-20.360205000;-40.444380300;G0;ESVIA-I01SP13;ESVIA-I01SP13-SS8
EQP0000000004779292;I01G0006;CTO SPLITTER 1 8;ESVIA_G1I01;AVENIDA LINHARES VIANA UNIVERSAL 29134494 ES SN;VIANA;-20.357885800;-40.452936000;G0;ESVIA-I01SP1;ESVIA-I01SP1-SS6
EQP0000000004749146;I01G0025;CTO SPLITTER 1 8;ESVIA_G1I01;RUA GETULIO VARGAS VIANA UNIVERSAL 29134676 ES 17;VIANA;-20.354992500;-40.446592400;G0;ESVIA-I01SP4;ESVIA-I01SP4-SS1
EQP0000000004537744;I01G01535;CTO SPLITTER 1 8;ESVIA_G1I01;RUA DIADEMA VIANA MARCILIO DE NORONHA 29135384 ES QD50-LT7;VIANA;-20.343421100;-40.426964500;G0;ESVIA-I01SP192;ESVIA-I01SP192-SS7
EQP0000000004528555;I01G01588;CTO SPLITTER 1 8;ESVIA_G1I01;RUA BAURU VIANA MARCILIO DE NORONHA 29135375 ES SN;VIANA;-20.347007900;-40.425658600;G0;ESVIA-I01SP199;ESVIA-I01SP199-SS4
EQP0000000004750595;I01G0035;CTO SPLITTER 1 8;ESVIA_G1I01;RUA CARLOS ALBERTO NASCIMENTO VIANA UNIVERSAL 29134457 ES SN;VIANA;-20.356466400;-40.448622700;G0;ESVIA-I01SP5;ESVIA-I01SP5-SS3
EQP0000000004496828;I01G01667;CTO SPLITTER 1 8;ESVIA_G1I01;RUA ARACRUZ VIANA MARCILIO DE NORONHA 29135635 ES QD4-LT9;VIANA;-20.347244400;-40.422737600;G0;ESVIA-I01SP209;ESVIA-I01SP209-SS3
EQP0000000004668228;I01G01270;CTO SPLITTER 1 8;ESVIA_G1I01;RUA MINAS GERAIS VIANA VILA BETHANIA 29136092 ES 18;VIANA;-20.357863300;-40.407758300;G0;ESVIA-I01SP159;ESVIA-I01SP159-SS6
EQP0000000004697747;I01G01164;CTO SPLITTER 1 8;ESVIA_G1I01;RUA CORONEL NUNES FERREIRA VIANA VILA BETHANIA 29136111 ES 43;VIANA;-20.361294600;-40.408303500;G0;ESVIA-I01SP146;ESVIA-I01SP146-SS4
EQP0000000004640230;I01G01312;CTO SPLITTER 1 8;ESVIA_G1I01;RUA LUIZA CAZOTTI VIANA VILA BETHANIA 29136030 ES 64;VIANA;-20.357847500;-40.411498500;G0;ESVIA-I01SP164;ESVIA-I01SP164-SS8
EQP0000000004540939;I01G01469;CTO SPLITTER 1 8;ESVIA_G1I01;RUA BELO HORIZONTE VIANA INDUSTRIAL 29135590 ES QDM-LT12;VIANA;-20.343829700;-40.422007400;G0;ESVIA-I01SP184;ESVIA-I01SP184-SS5
EQP0000000004638318;I01GP1317;MINI CDOE 1:2 + 1:8 PRECON SELADA 60/40;ESVIA_G1I01;RUA SANTA HELENA VIANA VILA BETHANIA 29136013 ES 281;VIANA;-20.355826000;-40.410910500;GP;ESVIA-I01SP165;ESVIA-I01SP165-SS5
EQP0000000004726381;I01G0251;CTO SPLITTER 1 8;ESVIA_G1I01;RUA SOROCABA VIANA MARCILIO DE NORONHA 29135372 ES QD34-LT37;VIANA;-20.347234200;-40.425162100;G0;ESVIA-I01SP32;ESVIA-I01SP32-SS3
EQP0000000004776348;I01G0070;CTO SPLITTER 1 8;ESVIA_G1I01;RUA SANTA LUZIA VIANA UNIVERSAL 29134445 ES SN;VIANA;-20.360099500;-40.447316200;G0;ESVIA-I01SP9;ESVIA-I01SP9-SS6
EQP0000000004776690;I01G0208;CTO SPLITTER 1 8;ESVIA_G1I01;RUA SANTA CATARINA VIANA CANAA 29135014 ES 62;VIANA;-20.359845900;-40.435060000;G0;ESVIA-I01SP26;ESVIA-I01SP26-SS8
EQP0000000004629433;I01G01380;CTO SPLITTER 1 8;ESVIA_G1I01;RUA OURO PRETO VIANA MARCILIO DE NORONHA 29135518 ES 41;VIANA;-20.341275500;-40.425459300;G0;ESVIA-I01SP173;ESVIA-I01SP173-SS4
EQP0000000004742157;I01G0216;CTO SPLITTER 1 8;ESVIA_G1I01;RUA NITEROI VIANA CANAA 29135106 ES SN;VIANA;-20.357297500;-40.433612900;G0;ESVIA-I01SP27;ESVIA-I01SP27-SS8
EQP0000000004688201;I01G01202;CTO SPLITTER 1 8;ESVIA_G1I01;RUA SANTA HELENA VIANA VILA BETHANIA 29136013 ES 54;VIANA;-20.358587300;-40.406356100;G0;ESVIA-I01SP151;ESVIA-I01SP151-SS2
EQP0000000004728912;I01G0247;CTO SPLITTER 1 8;ESVIA_G1I01;RUA HORTENSIAS VIANA CANAA 29135100 ES 12;VIANA;-20.357488800;-40.435614000;G0;ESVIA-I01SP31;ESVIA-I01SP31-SS7
EQP0000000004623292;I01G01427;CTO SPLITTER 1 8;ESVIA_G1I01;RUA RIO GRANDE DO SUL VIANA INDUSTRIAL 29135554 ES SN1;VIANA;-20.342012500;-40.421417800;G0;ESVIA-I01SP179;ESVIA-I01SP179-SS3
EQP0000000004515280;I01G01624;CTO SPLITTER 1 8;ESVIA_G1I01;RUA CACHOEIRO DE ITAPEMIRIM VIANA MARCILIO DE NORONHA 29135533 ES QD12-LT29;VIANA;-20.344640800;-40.423966200;G0;ESVIA-I01SP203;ESVIA-I01SP203-SS8
EQP0000000004672648;I01G01250;CTO SPLITTER 1 8;ESVIA_G1I01;RUA PARANA VIANA VILA BETHANIA 29136076 ES SN;VIANA;-20.358651500;-40.407794200;G0;ESVIA-I01SP157;ESVIA-I01SP157-SS2
EQP0000000004707019;I01G0322;CTO SPLITTER 1 8;ESVIA_G1I01;RUA JOSE MARCELINO DE MELO VIANA PRIMAVERA 29135228 ES 25;VIANA;-20.353615000;-40.429548100;G0;ESVIA-I01SP41;ESVIA-I01SP41-SS2
EQP0000000004748583;I01G0027;CTO SPLITTER 1 8;ESVIA_G1I01;RUA GETULIO VARGAS VIANA UNIVERSAL 29134676 ES 43;VIANA;-20.356587000;-40.446076300;G0;ESVIA-I01SP4;ESVIA-I01SP4-SS3
EQP0000000004730042;I01G0245;CTO SPLITTER 1 8;ESVIA_G1I01;RUA HORTENSIAS VIANA CANAA 29135100 ES SN;VIANA;-20.358192500;-40.436388400;G0;ESVIA-I01SP31;ESVIA-I01SP31-SS5
EQP0000000128459518;I01GP1322;MINI CDOE 1:2 + 1:8 PRECON SELADA 60/40;ESVIA_G1I01;RUA SANTA HELENA VIANA VILA BETHANIA 29136013 ES 281;VIANA;-20.356508100;-40.410890500;GP;ESVIA-I01SP166;ESVIA-I01SP166-SS2
EQP0000000004711938;I01G0184;CTO SPLITTER 1 8;ESVIA_G1I01;RUA TANCREDO DE ALMEIDA NEVES VIANA CANAA 29135004 ES SN;VIANA;-20.359911600;-40.436783500;G0;ESVIA-I01SP23;ESVIA-I01SP23-SS8
EQP0000000004657185;I01G01287;CTO SPLITTER 1 8;ESVIA_G1I01;RUA SANTA LUCIA VIANA ARLINDO VILLASCHI 29136215 ES SN;VIANA;-20.360882400;-40.411757700;G0;ESVIA-I01SP161;ESVIA-I01SP161-SS7
EQP0000000004544337;I01G01498;CTO SPLITTER 1 8;ESVIA_G1I01;AVENIDA SAO PAULO VIANA MARCILIO DE NORONHA 29135397 ES QD60-LT11;VIANA;-20.348295500;-40.428202000;G0;ESVIA-I01SP188;ESVIA-I01SP188-SS2
EQP0000000004681552;I01G01191;CTO SPLITTER 1 8;ESVIA_G1I01;RUA DOMINGOS VICENTE VIANA VILA BETHANIA 29136114 ES SN;VIANA;-20.361512500;-40.405658000;G0;ESVIA-I01SP149;ESVIA-I01SP149-SS7
EQP0000000128456651;I01GP1316;MINI CDOE 1:2 + 1:8 PRECON SELADA 60/40;ESVIA_G1I01;RUA SANTA HELENA VIANA VILA BETHANIA 29136013 ES 281;VIANA;-20.355648100;-40.410927300;GP;ESVIA-I01SP165;ESVIA-I01SP165-SS4
EQP0000000004636924;I01GP1328;MINI CDOE 1:2 + 1:8 PRECON SELADA 60/40;ESVIA_G1I01;RUA SANTA HELENA VIANA VILA BETHANIA 29136013 ES 281;VIANA;-20.355708700;-40.410475100;GP;ESVIA-I01SP166;ESVIA-I01SP166-SS8
EQP0000000004672791;I01G01249;CTO SPLITTER 1 8;ESVIA_G1I01;RUA MINAS GERAIS VIANA VILA BETHANIA 29136092 ES 34;VIANA;-20.358769200;-40.407388500;G0;ESVIA-I01SP157;ESVIA-I01SP157-SS1
EQP0000000004625903;I01G01422;CTO SPLITTER 1 8;ESVIA_G1I01;AVENIDA ANTONIO FREIRE VIANA MARCILIO DE NORONHA 29135323 ES 24;VIANA;-20.340697500;-40.420547000;G0;ESVIA-I01SP178;ESVIA-I01SP178-SS6
EQP0000000004623681;I01G01389;CTO SPLITTER 1 8;ESVIA_G1I01;RUA SAO JOAO VIANA MARCILIO DE NORONHA 29135000 ES QD17-LT1;VIANA;-20.340468100;-40.423237400;G0;ESVIA-I01SP174;ESVIA-I01SP174-SS5
EQP0000000004659014;I01G01283;CTO SPLITTER 1 8;ESVIA_G1I01;RUA NOSSA SENHORA APARECIDA VIANA ARLINDO VILLASCHI 29136209 ES 8;VIANA;-20.361915100;-40.411544500;G0;ESVIA-I01SP161;ESVIA-I01SP161-SS3
EQP0000000004715544;I01G0279;CTO SPLITTER 1 8;ESVIA_G1I01;AVENIDA RIO GRANDE DO SUL VIANA MARCILIO DE NORONHA 29135341 ES 11;VIANA;-20.350824200;-40.426503600;G0;ESVIA-I01SP35;ESVIA-I01SP35-SS7
EQP0000000004750006;I01G0079;CTO SPLITTER 1 8;ESVIA_G1I01;RUA CARLOS ALBERTO NASCIMENTO VIANA UNIVERSAL 29134457 ES 5;VIANA;-20.359338400;-40.446911500;G0;ESVIA-I01SP10;ESVIA-I01SP10-SS7
EQP0000000004704351;I01G01155;CTO SPLITTER 1 8;ESVIA_G1I01;RUA DOMINGOS VICENTE VIANA VILA BETHANIA 29136114 ES 76;VIANA;-20.362518900;-40.408573400;G0;ESVIA-I01SP145;ESVIA-I01SP145-SS3
EQP0000000004668816;I01G01262;CTO SPLITTER 1 8;ESVIA_G1I01;RUA JERONIMO MONTEIRO VIANA VILA BETHANIA 29136079 ES 21;VIANA;-20.358664500;-40.408829600;G0;ESVIA-I01SP158;ESVIA-I01SP158-SS6
EQP0000000004670728;I01G01257;CTO SPLITTER 1 8;ESVIA_G1I01;RUA ARTHUR BERNARDES VIANA VILA BETHANIA 29136082 ES 59;VIANA;-20.359907400;-40.407617100;G0;ESVIA-I01SP158;ESVIA-I01SP158-SS1
EQP0000000004490653;I01G01684;CTO SPLITTER 1 8;ESVIA_G1I01;RUA COLATINA VIANA MARCILIO DE NORONHA 29135644 ES QD1-LT14;VIANA;-20.347912900;-40.422205200;G0;ESVIA-I01SP211;ESVIA-I01SP211-SS4
EQP0000000004680018;I01G01198;CTO SPLITTER 1 8;ESVIA_G1I01;RUA SANTA HELENA VIANA VILA BETHANIA 29136013 ES SN;VIANA;-20.360542400;-40.405329000;G0;ESVIA-I01SP150;ESVIA-I01SP150-SS6
EQP0000000004542387;I01G01547;CTO SPLITTER 1 8;ESVIA_G1I01;RUA DIADEMA VIANA MARCILIO DE NORONHA 29135384 ES QD52-LT16;VIANA;-20.348281800;-40.426942500;G0;ESVIA-I01SP194;ESVIA-I01SP194-SS3
EQP0000000004536614;I01GP1483;MINI CDOE 1:2 + 1:8 PRECON SELADA 60/40;ESVIA_G1I01;AVENIDA BENJAMIM VITORIO VIANA INDUSTRIAL 29135563 ES 6;VIANA;-20.346210600;-40.422389000;GP;ESVIA-I01SP186;ESVIA-I01SP186-SS3
EQP0000000004536942;I01G01544;CTO SPLITTER 1 8;ESVIA_G1I01;RUA DIADEMA VIANA MARCILIO DE NORONHA 29135384 ES QD51-LT1;VIANA;-20.345249100;-40.426975000;G0;ESVIA-I01SP193;ESVIA-I01SP193-SS8
EQP0000000004622302;I01G01525;CTO SPLITTER 1 8;ESVIA_G1I01;AVENIDA PIRACICABA VIANA MARCILIO DE NORONHA 29135391 ES SN;VIANA;-20.346661600;-40.427483200;G0;ESVIA-I01SP191;ESVIA-I01SP191-SS5
EQP0000000004532894;I01G01578;CTO SPLITTER 1 8;ESVIA_G1I01;RUA BAURU VIANA MARCILIO DE NORONHA 29135375 ES QD38-LT8;VIANA;-20.345088800;-40.425647000;G0;ESVIA-I01SP198;ESVIA-I01SP198-SS2
EQP0000000004500085;I01G01655;CTO SPLITTER 1 8;ESVIA_G1I01;RUA ECOPORANGA VIANA MARCILIO DE NORONHA 29135617 ES QD11-LT9;VIANA;-20.346670800;-40.423668300;G0;ESVIA-I01SP207;ESVIA-I01SP207-SS7
EQP0000000004728626;I01G0150;CTO SPLITTER 1 8;ESVIA_G1I01;RUA BOA SORTE VIANA CANAA 29135047 ES 3;VIANA;-20.357923200;-40.438757500;G0;ESVIA-I01SP19;ESVIA-I01SP19-SS6
EQP0000000004651314;I01G01299;CTO SPLITTER 1 8;ESVIA_G1I01;RUA LUIZA CAZOTTI VIANA VILA BETHANIA 29136030 ES SN;VIANA;-20.358070900;-40.416947900;G0;ESVIA-I01SP163;ESVIA-I01SP163-SS3
EQP0000000004708498;I01G0303;CTO SPLITTER 1 8;ESVIA_G1I01;AVENIDA PRIMAVERA VIANA MARCILIO DE NORONHA 29135365 ES 13;VIANA;-20.350271600;-40.426573400;G0;ESVIA-I01SP38;ESVIA-I01SP38-SS7
EQP0000000004727388;I01G0141;CTO SPLITTER 1 8;ESVIA_G1I01;RUA JOSE ENGILIARDIT VIANA CANAA 29135050 ES SN;VIANA;-20.356551600;-40.437930400;G0;ESVIA-I01SP18;ESVIA-I01SP18-SS5
EQP0000000004490790;I01G01683;CTO SPLITTER 1 8;ESVIA_G1I01;RUA COLATINA VIANA MARCILIO DE NORONHA 29135644 ES QD1-LT9;VIANA;-20.347600600;-40.422193800;G0;ESVIA-I01SP211;ESVIA-I01SP211-SS3
EQP0000000004490182;I01G01686;CTO SPLITTER 1 8;ESVIA_G1I01;RUA COLATINA VIANA MARCILIO DE NORONHA 29135644 ES QD1-LT21;VIANA;-20.348939500;-40.422290100;G0;ESVIA-I01SP211;ESVIA-I01SP211-SS6
EQP0000000004776413;I01G0071;CTO SPLITTER 1 8;ESVIA_G1I01;RUA SANTA LUZIA VIANA UNIVERSAL 29134445 ES SN;VIANA;-20.360400100;-40.447879100;G0;ESVIA-I01SP9;ESVIA-I01SP9-SS7
EQP0000000142615218;I01GP1486;MINI CDOE 1:2 + 1:8 PRECON SELADA 60/40;ESVIA_G1I01;AVENIDA BENJAMIM VITORIO VIANA INDUSTRIAL 29135563 ES 6;VIANA;-20.345773800;-40.422548300;GP;ESVIA-I01SP186;ESVIA-I01SP186-SS6
EQP0000000004531667;I01G01583;CTO SPLITTER 1 8;ESVIA_G1I01;RUA SOROCABA VIANA MARCILIO DE NORONHA 29135372 ES QD33-LT18;VIANA;-20.346092200;-40.425175200;G0;ESVIA-I01SP198;ESVIA-I01SP198-SS7
EQP0000000004749608;I01G0040;CTO SPLITTER 1 8;ESVIA_G1I01;AVENIDA RESPLENDOR VIANA UNIVERSAL 29134683 ES 18;VIANA;-20.355507600;-40.447625500;G0;ESVIA-I01SP5;ESVIA-I01SP5-SS8
EQP0000000004746905;I01G0082;CTO SPLITTER 1 8;ESVIA_G1I01;AVENIDA RESPLENDOR VIANA UNIVERSAL 29134683 ES SN;VIANA;-20.357557500;-40.446063300;G0;ESVIA-I01SP11;ESVIA-I01SP11-SS2
EQP0000000004718638;I01G0272;CTO SPLITTER 1 8;ESVIA_G1I01;AVENIDA VITORIA VIANA MARCILIO DE NORONHA 29135368 ES SN;VIANA;-20.349131300;-40.424785100;G0;ESVIA-I01SP34;ESVIA-I01SP34-SS8
EQP0000000004777804;I01G0018;CTO SPLITTER 1 8;ESVIA_G1I01;RUA OITO VIANA UNIVERSAL 29135000 ES SN;VIANA;-20.359238400;-40.453401500;G0;ESVIA-I01SP3;ESVIA-I01SP3-SS2
EQP0000000004532921;I01G01568;CTO SPLITTER 1 8;ESVIA_G1I01;RUA CAMPOS DO JORDAO VIANA MARCILIO DE NORONHA 29135388 ES QD44-LT31;VIANA;-20.347548600;-40.426434600;G0;ESVIA-I01SP196;ESVIA-I01SP196-SS8
EQP0000000004779905;I01G0041;CTO SPLITTER 1 8;ESVIA_G1I01;AVENIDA LINHARES VIANA UNIVERSAL 29134494 ES SN;VIANA;-20.359509000;-40.451130000;G0;ESVIA-I01SP6;ESVIA-I01SP6-SS1
EQP0000000004621042;I01G01518;CTO SPLITTER 1 8;ESVIA_G1I01;AVENIDA SAO PAULO VIANA MARCILIO DE NORONHA 29135397 ES SN;VIANA;-20.345763700;-40.428177200;G0;ESVIA-I01SP190;ESVIA-I01SP190-SS6
EQP0000000004620839;I01G01519;CTO SPLITTER 1 8;ESVIA_G1I01;AVENIDA SAO PAULO VIANA MARCILIO DE NORONHA 29135397 ES QD59-LT8;VIANA;-20.346280500;-40.428331300;G0;ESVIA-I01SP190;ESVIA-I01SP190-SS7
EQP0000000004478001;I01G01739;CTO SPLITTER 1 8;ESVIA_G1I01;RUA CRISTIANO DIAS LOPES VIANA PRIMAVERA 29135180 ES 17;VIANA;-20.355786500;-40.422766800;G0;ESVIA-I01SP218;ESVIA-I01SP218-SS3
EQP0000000004542161;I01G01465;CTO SPLITTER 1 8;ESVIA_G1I01;RUA PEDRO ALVARES CABRAL VIANA MARCILIO DE NORONHA 29135584 ES QDJ-LT8;VIANA;-20.345327900;-40.420690100;G0;ESVIA-I01SP184;ESVIA-I01SP184-SS1
EQP0000000004525474;I01G01600;CTO SPLITTER 1 8;ESVIA_G1I01;AVENIDA PIRACICABA VIANA MARCILIO DE NORONHA 29135391 ES SN;VIANA;-20.346666600;-40.424831500;G0;ESVIA-I01SP200;ESVIA-I01SP200-SS8
EQP0000000004672318;I01G01252;CTO SPLITTER 1 8;ESVIA_G1I01;RUA ARTHUR BERNARDES VIANA VILA BETHANIA 29136082 ES 20;VIANA;-20.358151300;-40.408374100;G0;ESVIA-I01SP157;ESVIA-I01SP157-SS4
EQP0000000004492750;I01G01679;CTO SPLITTER 1 8;ESVIA_G1I01;RUA COLATINA VIANA MARCILIO DE NORONHA 29135644 ES QD1-LT30;VIANA;-20.349650800;-40.422693700;G0;ESVIA-I01SP210;ESVIA-I01SP210-SS7
EQP0000000004680852;I01G01218;CTO SPLITTER 1 8;ESVIA_G1I01;AVENIDA ESPIRITO SANTO VIANA VILA BETHANIA 29136096 ES SN;VIANA;-20.360315600;-40.406168100;G0;ESVIA-I01SP153;ESVIA-I01SP153-SS2
EQP0000000004538924;I01G01531;CTO SPLITTER 1 8;ESVIA_G1I01;RUA GUARUJA VIANA MARCILIO DE NORONHA 29135434 ES QD50-LT51;VIANA;-20.342563600;-40.427582300;G0;ESVIA-I01SP192;ESVIA-I01SP192-SS3
EQP0000000004669969;I01G01259;CTO SPLITTER 1 8;ESVIA_G1I01;RUA ARTHUR BERNARDES VIANA VILA BETHANIA 29136082 ES 41;VIANA;-20.359083900;-40.407940600;G0;ESVIA-I01SP158;ESVIA-I01SP158-SS3
EQP0000000004715516;I01G0173;CTO SPLITTER 1 8;ESVIA_G1I01;RUA TANCREDO DE ALMEIDA NEVES VIANA CANAA 29135004 ES 16;VIANA;-20.357802200;-40.433864700;G0;ESVIA-I01SP22;ESVIA-I01SP22-SS5
EQP0000000004492106;I01G01692;CTO SPLITTER 1 8;ESVIA_G1I01;RUA BARRA DE SAO FRANCISCO VIANA MARCILIO DE NORONHA 29135632 ES QD4-LT22;VIANA;-20.347430300;-40.423148400;G0;ESVIA-I01SP212;ESVIA-I01SP212-SS4
EQP0000000004718815;I01G0271;CTO SPLITTER 1 8;ESVIA_G1I01;AVENIDA VITORIA VIANA MARCILIO DE NORONHA 29135368 ES SN;VIANA;-20.349131300;-40.424785100;G0;ESVIA-I01SP34;ESVIA-I01SP34-SS7
EQP0000000004721295;I01G0262;CTO SPLITTER 1 8;ESVIA_G1I01;AVENIDA SAO PAULO VIANA MARCILIO DE NORONHA 29135397 ES SN;VIANA;-20.348748100;-40.426188300;G0;ESVIA-I01SP33;ESVIA-I01SP33-SS6
EQP0000000004653589;I01G01356;CTO SPLITTER 1 8;ESVIA_G1I01;RUA ACEZILIO MARIANELLI VIANA VILA BETHANIA 29136020 ES 85;VIANA;-20.357074200;-40.413027200;G0;ESVIA-I01SP170;ESVIA-I01SP170-SS4
EQP0000000128462870;I01GP1323;MINI CDOE 1:2 + 1:8 PRECON SELADA 60/40;ESVIA_G1I01;RUA SANTA HELENA VIANA VILA BETHANIA 29136013 ES 281;VIANA;-20.356468600;-40.410468700;GP;ESVIA-I01SP166;ESVIA-I01SP166-SS3
EQP0000000004523698;I01G01593;CTO SPLITTER 1 8;ESVIA_G1I01;AVENIDA SAO PAULO VIANA MARCILIO DE NORONHA 29135397 ES 21;VIANA;-20.344297300;-40.425712800;G0;ESVIA-I01SP200;ESVIA-I01SP200-SS1
EQP0000000004622955;I01G01429;CTO SPLITTER 1 8;ESVIA_G1I01;RUA DISTRITO FEDERAL VIANA MARCILIO DE NORONHA 29135575 ES QDB-LT30;VIANA;-20.341405600;-40.421296300;G0;ESVIA-I01SP179;ESVIA-I01SP179-SS5
EQP0000000004690185;I01G01176;CTO SPLITTER 1 8;ESVIA_G1I01;RUA MINAS GERAIS VIANA VILA BETHANIA 29136092 ES 87;VIANA;-20.362093000;-40.406018400;G0;ESVIA-I01SP147;ESVIA-I01SP147-SS8
EQP0000000004704554;I01G01154;CTO SPLITTER 1 8;ESVIA_G1I01;RUA DOMINGOS VICENTE VIANA VILA BETHANIA 29136114 ES SN;VIANA;-20.361960500;-40.408493500;G0;ESVIA-I01SP145;ESVIA-I01SP145-SS2
EQP0000000004514818;I01G01632;CTO SPLITTER 1 8;ESVIA_G1I01;RUA ANCHIETA VIANA MARCILIO DE NORONHA 29135524 ES QD13-LT37;VIANA;-20.344146100;-40.424819000;G0;ESVIA-I01SP204;ESVIA-I01SP204-SS8
EQP0000000004712570;I01G0181;CTO SPLITTER 1 8;ESVIA_G1I01;RUA BOA VISTA VIANA CANAA 29135017 ES 41;VIANA;-20.359552000;-40.435885000;G0;ESVIA-I01SP23;ESVIA-I01SP23-SS5
EQP0000000004685161;I01G01208;CTO SPLITTER 1 8;ESVIA_G1I01;RUA SANTA HELENA VIANA VILA BETHANIA 29136013 ES SN;VIANA;-20.359586600;-40.405844500;G0;ESVIA-I01SP151;ESVIA-I01SP151-SS8
EQP0000000004670258;I01G01265;CTO SPLITTER 1 8;ESVIA_G1I01;AVENIDA ESPIRITO SANTO VIANA VILA BETHANIA 29136096 ES SN;VIANA;-20.358384400;-40.406857100;G0;ESVIA-I01SP159;ESVIA-I01SP159-SS1
EQP0000000004686844;I01G01205;CTO SPLITTER 1 8;ESVIA_G1I01;RUA SANTA HELENA VIANA VILA BETHANIA 29136013 ES SN;VIANA;-20.358930500;-40.405403300;G0;ESVIA-I01SP151;ESVIA-I01SP151-SS5
EQP0000000004704114;I01G0319;CTO SPLITTER 1 8;ESVIA_G1I01;RUA A VIANA PRIMAVERA 29135000 ES SN;VIANA;-20.353158700;-40.431411900;G0;ESVIA-I01SP40;ESVIA-I01SP40-SS7
EQP0000000004720608;I01G0263;CTO SPLITTER 1 8;ESVIA_G1I01;AVENIDA SAO PAULO VIANA MARCILIO DE NORONHA 29135397 ES SN;VIANA;-20.348937900;-40.425669700;G0;ESVIA-I01SP33;ESVIA-I01SP33-SS7
EQP0000000004738949;I01G0095;CTO SPLITTER 1 8;ESVIA_G1I01;RUA GETULIO VARGAS VIANA UNIVERSAL 29134676 ES 610;VIANA;-20.359151600;-40.444726100;G0;ESVIA-I01SP12;ESVIA-I01SP12-SS7
EQP0000000004516548;I01G01611;CTO SPLITTER 1 8;ESVIA_G1I01;AVENIDA ESPIRITO SANTO VIANA MARCILIO DE NORONHA 29135508 ES SN;VIANA;-20.346785800;-40.424205300;G0;ESVIA-I01SP202;ESVIA-I01SP202-SS3
EQP0000000004691811;I01G01171;CTO SPLITTER 1 8;ESVIA_G1I01;RUA JONES DOS SANTOS NEVES VIANA VILA BETHANIA 29136117 ES 12;VIANA;-20.362475700;-40.406292900;G0;ESVIA-I01SP147;ESVIA-I01SP147-SS3
EQP0000000004676489;I01G01226;CTO SPLITTER 1 8;ESVIA_G1I01;RUA FRANCISCO ALVES VIANA VILA BETHANIA 29136067 ES 85;VIANA;-20.359306700;-40.410072900;G0;ESVIA-I01SP154;ESVIA-I01SP154-SS2
EQP0000000004632823;I01G01395;CTO SPLITTER 1 8;ESVIA_G1I01;RUA JUIZ DE FORA VIANA MARCILIO DE NORONHA 29135548 ES SN;VIANA;-20.340246500;-40.421816200;G0;ESVIA-I01SP175;ESVIA-I01SP175-SS3
EQP0000000004475832;I01G01744;CTO SPLITTER 1 8;ESVIA_G1I01;RUA CLERIO FALCAO VIANA PRIMAVERA 29135186 ES 57;VIANA;-20.354924600;-40.423321700;G0;ESVIA-I01SP218;ESVIA-I01SP218-SS8
EQP0000000004669620;I01G01260;CTO SPLITTER 1 8;ESVIA_G1I01;RUA PARANA VIANA VILA BETHANIA 29136076 ES SN;VIANA;-20.358758100;-40.408067300;G0;ESVIA-I01SP158;ESVIA-I01SP158-SS4
EQP0000000004729816;I01G0246;CTO SPLITTER 1 8;ESVIA_G1I01;RUA FONTE LIMPA VIANA CANAA 29135041 ES 45;VIANA;-20.358030700;-40.436628600;G0;ESVIA-I01SP31;ESVIA-I01SP31-SS6
EQP0000000004693613;I01G0329;CTO SPLITTER 1 8;ESVIA_G1I01;RUA ALTIVA DA SILVA BRESSIANI VIANA PRIMAVERA 29135224 ES 92;VIANA;-20.350931000;-40.430217700;G0;ESVIA-I01SP42;ESVIA-I01SP42-SS1
EQP0000000004721706;I01G0261;CTO SPLITTER 1 8;ESVIA_G1I01;RUA CAMPINAS VIANA MARCILIO DE NORONHA 29135394 ES QD44-LT20;VIANA;-20.348608700;-40.426091800;G0;ESVIA-I01SP33;ESVIA-I01SP33-SS5
EQP0000000004525123;I01G01599;CTO SPLITTER 1 8;ESVIA_G1I01;AVENIDA VITORIA VIANA MARCILIO DE NORONHA 29135368 ES SN;VIANA;-20.346048000;-40.424788800;G0;ESVIA-I01SP200;ESVIA-I01SP200-SS7
EQP0000000004745337;I01G0085;CTO SPLITTER 1 8;ESVIA_G1I01;AVENIDA RESPLENDOR VIANA UNIVERSAL 29134683 ES 6;VIANA;-20.359386300;-40.445509900;G0;ESVIA-I01SP11;ESVIA-I01SP11-SS5
EQP0000000004622000;I01G01526;CTO SPLITTER 1 8;ESVIA_G1I01;RUA SANTOS VIANA MARCILIO DE NORONHA 29135410 ES QD55-LT5;VIANA;-20.347224800;-40.427802000;G0;ESVIA-I01SP191;ESVIA-I01SP191-SS6
EQP0000000004780185;I01G0053;CTO SPLITTER 1 8;ESVIA_G1I01;RUA SANTO ANTONIO VIANA UNIVERSAL 29134689 ES SN;VIANA;-20.356897900;-40.447219300;G0;ESVIA-I01SP7;ESVIA-I01SP7-SS5
EQP0000000004778588;I01G0046;CTO SPLITTER 1 8;ESVIA_G1I01;RUA EVARISTO CANAL VIANA UNIVERSAL 29134513 ES SN;VIANA;-20.359609800;-40.450193400;G0;ESVIA-I01SP6;ESVIA-I01SP6-SS6
EQP0000000004656620;I01G01288;CTO SPLITTER 1 8;ESVIA_G1I01;AVENIDA SANTA CLARA VIANA VILA BETHANIA 29136138 ES 100;VIANA;-20.359191000;-40.411534400;G0;ESVIA-I01SP161;ESVIA-I01SP161-SS8
EQP0000000004497761;I01G01610;CTO SPLITTER 1 8;ESVIA_G1I01;RUA AGUIA BRANCA VIANA MARCILIO DE NORONHA 29135620 ES SN;VIANA;-20.347247800;-40.424202800;G0;ESVIA-I01SP202;ESVIA-I01SP202-SS2
EQP0000000004740955;I01G0221;CTO SPLITTER 1 8;ESVIA_G1I01;RUA PRIMAVERA VIANA CANAA 29135103 ES SN;VIANA;-20.357462800;-40.432654000;G0;ESVIA-I01SP28;ESVIA-I01SP28-SS5
EQP0000000004677018;I01G01239;CTO SPLITTER 1 8;ESVIA_G1I01;RUA GERTRUDES VIANA VILA BETHANIA 29136052 ES 66;VIANA;-20.358405800;-40.411894400;G0;ESVIA-I01SP155;ESVIA-I01SP155-SS7
EQP0000000004472180;I01G01752;CTO SPLITTER 1 8;ESVIA_G1I01;RUA ANGELINA BORTOLOTTI VIANA PRIMAVERA 29135189 ES 7;VIANA;-20.354420900;-40.426017700;G0;ESVIA-I01SP219;ESVIA-I01SP219-SS8
EQP0000000004678666;I01G01224;CTO SPLITTER 1 8;ESVIA_G1I01;AVENIDA ESPIRITO SANTO VIANA VILA BETHANIA 29136096 ES 37;VIANA;-20.358898200;-40.406650900;G0;ESVIA-I01SP153;ESVIA-I01SP153-SS8
EQP0000000004533418;I01G01564;CTO SPLITTER 1 8;ESVIA_G1I01;RUA CAMPOS DO JORDAO VIANA MARCILIO DE NORONHA 29135388 ES QD43-LT19;VIANA;-20.346004200;-40.426451300;G0;ESVIA-I01SP196;ESVIA-I01SP196-SS4
EQP0000000004712236;I01G0183;CTO SPLITTER 1 8;ESVIA_G1I01;RUA TANCREDO DE ALMEIDA NEVES VIANA CANAA 29135004 ES 42;VIANA;-20.359641600;-40.436485300;G0;ESVIA-I01SP23;ESVIA-I01SP23-SS7
EQP0000000004632531;I01G01396;CTO SPLITTER 1 8;ESVIA_G1I01;RUA JUIZ DE FORA VIANA MARCILIO DE NORONHA 29135548 ES QD14-LT7;VIANA;-20.340289700;-40.422282000;G0;ESVIA-I01SP175;ESVIA-I01SP175-SS4
EQP0000000004716150;I01G0276;CTO SPLITTER 1 8;ESVIA_G1I01;AVENIDA RIO GRANDE DO SUL VIANA MARCILIO DE NORONHA 29135341 ES 27;VIANA;-20.351536100;-40.427090600;G0;ESVIA-I01SP35;ESVIA-I01SP35-SS4
EQP0000000004477248;I01G01740;CTO SPLITTER 1 8;ESVIA_G1I01;RUA CRISTIANO DIAS LOPES VIANA PRIMAVERA 29135180 ES SN;VIANA;-20.356101500;-40.423802700;G0;ESVIA-I01SP218;ESVIA-I01SP218-SS4
EQP0000000004696043;I01G0338;CTO SPLITTER 1 8;ESVIA_G1I01;AVENIDA TEREZINHA PEREIRA ABRANCHES VIANA PRIMAVERA 29135220 ES SN;VIANA;-20.350467700;-40.429753100;G0;ESVIA-I01SP43;ESVIA-I01SP43-SS1
EQP0000000004680224;I01G01196;CTO SPLITTER 1 8;ESVIA_G1I01;RUA SANTA HELENA VIANA VILA BETHANIA 29136013 ES SN;VIANA;-20.361320200;-40.404966900;G0;ESVIA-I01SP150;ESVIA-I01SP150-SS4
EQP0000000004492999;I01G01678;CTO SPLITTER 1 8;ESVIA_G1I01;RUA COLATINA VIANA MARCILIO DE NORONHA 29135644 ES QD1-LT37;VIANA;-20.350217200;-40.423015000;G0;ESVIA-I01SP210;ESVIA-I01SP210-SS6
EQP0000000004732015;I01G0239;CTO SPLITTER 1 8;ESVIA_G1I01;RUA BOM PASTOR VIANA CANAA 29135097 ES 3;VIANA;-20.356306700;-40.435230000;G0;ESVIA-I01SP30;ESVIA-I01SP30-SS7
EQP0000000004718561;I01G0155;CTO SPLITTER 1 8;ESVIA_G1I01;RUA CENTRAL VIANA CANAA 29135038 ES 33;VIANA;-20.357728400;-40.437688700;G0;ESVIA-I01SP20;ESVIA-I01SP20-SS3
EQP0000000004538293;I01G01533;CTO SPLITTER 1 8;ESVIA_G1I01;RUA GUARUJA VIANA MARCILIO DE NORONHA 29135434 ES QD50-LT48;VIANA;-20.342863800;-40.427335000;G0;ESVIA-I01SP192;ESVIA-I01SP192-SS5
EQP0000000004708673;I01G01452;CTO SPLITTER 1 8;ESVIA_G1I01;RUA SAO FRANCISCO VIANA MARCILIO DE NORONHA 29135596 ES 330;VIANA;-20.345322300;-40.421902400;G0;ESVIA-I01SP182;ESVIA-I01SP182-SS4
EQP0000000004528781;I01G01590;CTO SPLITTER 1 8;ESVIA_G1I01;RUA BAURU VIANA MARCILIO DE NORONHA 29135375 ES QD40-LT14;VIANA;-20.347916400;-40.425663700;G0;ESVIA-I01SP199;ESVIA-I01SP199-SS6
EQP0000000004739234;I01G0094;CTO SPLITTER 1 8;ESVIA_G1I01;RUA TAVARES NETO VIANA UNIVERSAL 29134709 ES 11;VIANA;-20.358689200;-40.444951400;G0;ESVIA-I01SP12;ESVIA-I01SP12-SS6
EQP0000000004524855;I01G01598;CTO SPLITTER 1 8;ESVIA_G1I01;AVENIDA VITORIA VIANA MARCILIO DE NORONHA 29135368 ES SN;VIANA;-20.345454000;-40.424789600;G0;ESVIA-I01SP200;ESVIA-I01SP200-SS6
EQP0000000004620487;I01G01509;CTO SPLITTER 1 8;ESVIA_G1I01;AVENIDA PIRACICABA VIANA MARCILIO DE NORONHA 29135391 ES SN;VIANA;-20.345720100;-40.429519300;G0;ESVIA-I01SP189;ESVIA-I01SP189-SS5
EQP0000000004715216;I01G0174;CTO SPLITTER 1 8;ESVIA_G1I01;RUA TANCREDO DE ALMEIDA NEVES VIANA CANAA 29135004 ES SN;VIANA;-20.357856200;-40.434296200;G0;ESVIA-I01SP22;ESVIA-I01SP22-SS6
EQP0000000004632397;I01G01397;CTO SPLITTER 1 8;ESVIA_G1I01;RUA JUIZ DE FORA VIANA MARCILIO DE NORONHA 29135548 ES QD14-LT12;VIANA;-20.340650400;-40.422120600;G0;ESVIA-I01SP175;ESVIA-I01SP175-SS5
EQP0000000004621617;I01G01439;CTO SPLITTER 1 8;ESVIA_G1I01;AVENIDA BENJAMIM VITORIO VIANA INDUSTRIAL 29135563 ES SN1;VIANA;-20.343655600;-40.421163100;G0;ESVIA-I01SP180;ESVIA-I01SP180-SS7
EQP0000000004726111;I01G0252;CTO SPLITTER 1 8;ESVIA_G1I01;AVENIDA PIRACICABA VIANA MARCILIO DE NORONHA 29135391 ES SN;VIANA;-20.346667200;-40.424569200;G0;ESVIA-I01SP32;ESVIA-I01SP32-SS4
EQP0000000004776924;I01G0206;CTO SPLITTER 1 8;ESVIA_G1I01;RODOVIA GOVERNADOR MARIO COVAS VIANA CANAA 29135001 ES SN;VIANA;-20.361101800;-40.435527400;G0;ESVIA-I01SP26;ESVIA-I01SP26-SS6
EQP0000000128460631;I01GP1327;MINI CDOE 1:2 + 1:8 PRECON SELADA 60/40;ESVIA_G1I01;RUA SANTA HELENA VIANA VILA BETHANIA 29136013 ES 281;VIANA;-20.355857500;-40.410474000;GP;ESVIA-I01SP166;ESVIA-I01SP166-SS7
EQP0000000004750303;I01G0078;CTO SPLITTER 1 8;ESVIA_G1I01;RUA CARLOS ALBERTO NASCIMENTO VIANA UNIVERSAL 29134457 ES 16;VIANA;-20.358764600;-40.447490400;G0;ESVIA-I01SP10;ESVIA-I01SP10-SS6
EQP0000000004777989;I01G0015;CTO SPLITTER 1 8;ESVIA_G1I01;RUA EVARISTO CANAL VIANA UNIVERSAL 29134513 ES 82;VIANA;-20.359531100;-40.455437000;G0;ESVIA-I01SP2;ESVIA-I01SP2-SS7
EQP0000000004643947;I01G01306;CTO SPLITTER 1 8;ESVIA_G1I01;RUA LUIZA CAZOTTI VIANA VILA BETHANIA 29136030 ES 23;VIANA;-20.357035500;-40.409193600;G0;ESVIA-I01SP164;ESVIA-I01SP164-SS2
EQP0000000004621933;I01G01436;CTO SPLITTER 1 8;ESVIA_G1I01;RUA AMAPA VIANA MARCILIO DE NORONHA 29135560 ES QDI-LT10;VIANA;-20.345095400;-40.420166100;G0;ESVIA-I01SP180;ESVIA-I01SP180-SS4
EQP0000000004675785;I01G01230;CTO SPLITTER 1 8;ESVIA_G1I01;RUA ARISTIDES CARVALHO VIANA VILA BETHANIA 29136064 ES 40;VIANA;-20.358757000;-40.410495400;G0;ESVIA-I01SP154;ESVIA-I01SP154-SS6
EQP0000000004743122;I01G0212;CTO SPLITTER 1 8;ESVIA_G1I01;RUA SANTOS DUMONT VIANA CANAA 29135026 ES 65;VIANA;-20.358129500;-40.435491300;G0;ESVIA-I01SP27;ESVIA-I01SP27-SS4
EQP0000000004732857;I01G0237;CTO SPLITTER 1 8;ESVIA_G1I01;RUA MIRIM VIANA CANAA 29135094 ES 10;VIANA;-20.357069800;-40.436079100;G0;ESVIA-I01SP30;ESVIA-I01SP30-SS5
EQP0000000004626175;I01G01387;CTO SPLITTER 1 8;ESVIA_G1I01;RUA TEOFILO OTONI VIANA MARCILIO DE NORONHA 29135542 ES SN;VIANA;-20.341045500;-40.423430600;G0;ESVIA-I01SP174;ESVIA-I01SP174-SS3
EQP0000000004657753;I01G01286;CTO SPLITTER 1 8;ESVIA_G1I01;RUA NOSSA SENHORA DE FATIMA VIANA ARLINDO VILLASCHI 29136218 ES 29;VIANA;-20.361122700;-40.411124100;G0;ESVIA-I01SP161;ESVIA-I01SP161-SS6
EQP0000000004724455;I01G0256;CTO SPLITTER 1 8;ESVIA_G1I01;AVENIDA SAO PAULO VIANA MARCILIO DE NORONHA 29135397 ES SN;VIANA;-20.348709600;-40.424783600;G0;ESVIA-I01SP32;ESVIA-I01SP32-SS8
EQP0000000004514347;I01G01639;CTO SPLITTER 1 8;ESVIA_G1I01;RUA ANCHIETA VIANA MARCILIO DE NORONHA 29135524 ES QD13-LT41;VIANA;-20.342720300;-40.424464800;G0;ESVIA-I01SP205;ESVIA-I01SP205-SS7
EQP0000000004692645;I01G01169;CTO SPLITTER 1 8;ESVIA_G1I01;RUA ARTHUR BERNARDES VIANA VILA BETHANIA 29136082 ES 116;VIANA;-20.362917500;-40.406430700;G0;ESVIA-I01SP147;ESVIA-I01SP147-SS1
EQP0000000004776283;I01G0072;CTO SPLITTER 1 8;ESVIA_G1I01;RUA SANTA LUZIA VIANA UNIVERSAL 29134445 ES SN;VIANA;-20.359930900;-40.446977000;G0;ESVIA-I01SP9;ESVIA-I01SP9-SS8
EQP0000000004544028;I01G01500;CTO SPLITTER 1 8;ESVIA_G1I01;AVENIDA SAO PAULO VIANA MARCILIO DE NORONHA 29135397 ES SN;VIANA;-20.347025600;-40.428182800;G0;ESVIA-I01SP188;ESVIA-I01SP188-SS4
EQP0000000142606175;I01GP1488;MINI CDOE 1:2 + 1:8 PRECON SELADA 60/40;ESVIA_G1I01;AVENIDA BENJAMIM VITORIO VIANA INDUSTRIAL 29135563 ES 6;VIANA;-20.345773800;-40.422548300;GP;ESVIA-I01SP186;ESVIA-I01SP186-SS8
EQP0000000004688471;I01G01201;CTO SPLITTER 1 8;ESVIA_G1I01;RUA SANTA HELENA VIANA VILA BETHANIA 29136013 ES SN;VIANA;-20.358395000;-40.406447500;G0;ESVIA-I01SP151;ESVIA-I01SP151-SS1
EQP0000000004637246;I01GP1324;MINI CDOE 1:2 + 1:8 PRECON SELADA 60/40;ESVIA_G1I01;RUA SANTA HELENA VIANA VILA BETHANIA 29136013 ES 281;VIANA;-20.356277200;-40.410478400;GP;ESVIA-I01SP166;ESVIA-I01SP166-SS4
EQP0000000004729020;I01G0148;CTO SPLITTER 1 8;ESVIA_G1I01;RUA RESPLENDOR VIANA CANAA 29135056 ES SN;VIANA;-20.358511400;-40.439085900;G0;ESVIA-I01SP19;ESVIA-I01SP19-SS4
EQP0000000004720160;I01G0264;CTO SPLITTER 1 8;ESVIA_G1I01;AVENIDA SAO PAULO VIANA MARCILIO DE NORONHA 29135397 ES SN;VIANA;-20.348667500;-40.425172300;G0;ESVIA-I01SP33;ESVIA-I01SP33-SS8
EQP0000000004716649;I01G0160;CTO SPLITTER 1 8;ESVIA_G1I01;RUA AFONSO CLAUDIO VIANA CANAA 29135032 ES 45;VIANA;-20.359238900;-40.437744000;G0;ESVIA-I01SP20;ESVIA-I01SP20-SS8
EQP0000000004776519;I01G0207;CTO SPLITTER 1 8;ESVIA_G1I01;RUA SANTA CATARINA VIANA CANAA 29135014 ES SN;VIANA;-20.360626400;-40.435928700;G0;ESVIA-I01SP26;ESVIA-I01SP26-SS7
EQP0000000004779560;I01G0043;CTO SPLITTER 1 8;ESVIA_G1I01;RUA VISTA LINDA VIANA UNIVERSAL 29134469 ES SN;VIANA;-20.357962100;-40.450887600;G0;ESVIA-I01SP6;ESVIA-I01SP6-SS3
EQP0000000004524279;I01G01595;CTO SPLITTER 1 8;ESVIA_G1I01;RUA SOROCABA VIANA MARCILIO DE NORONHA 29135372 ES QD32-LT14;VIANA;-20.345097500;-40.425179500;G0;ESVIA-I01SP200;ESVIA-I01SP200-SS3
EQP0000000004780053;I01G0055;CTO SPLITTER 1 8;ESVIA_G1I01;RUA FLAUZILIO VACCARI VIANA UNIVERSAL 29134692 ES 10;VIANA;-20.357584300;-40.447818300;G0;ESVIA-I01SP7;ESVIA-I01SP7-SS7
EQP0000000004623605;I01G01390;CTO SPLITTER 1 8;ESVIA_G1I01;RUA SAO JOAO VIANA MARCILIO DE NORONHA 29135000 ES 55;VIANA;-20.340695000;-40.423144100;G0;ESVIA-I01SP174;ESVIA-I01SP174-SS6
EQP0000000004692682;I01G0332;CTO SPLITTER 1 8;ESVIA_G1I01;RUA ALTIVA DA SILVA BRESSIANI VIANA PRIMAVERA 29135224 ES 54;VIANA;-20.352410400;-40.429452400;G0;ESVIA-I01SP42;ESVIA-I01SP42-SS4
EQP0000000004516760;I01G01613;CTO SPLITTER 1 8;ESVIA_G1I01;AVENIDA PIRACICABA VIANA MARCILIO DE NORONHA 29135391 ES SN;VIANA;-20.346377900;-40.424474400;G0;ESVIA-I01SP202;ESVIA-I01SP202-SS5
EQP0000000004706007;I01G0327;CTO SPLITTER 1 8;ESVIA_G1I01;RUA IRINEU GASPARINI VIANA PRIMAVERA 29135231 ES SN;VIANA;-20.352841800;-40.430507500;G0;ESVIA-I01SP41;ESVIA-I01SP41-SS7
EQP0000000004702355;I01G0346;CTO SPLITTER 1 8;ESVIA_G1I01;RUA FLORENCIO DE SOUZA VIANA PRIMAVERA 29135214 ES SN;VIANA;-20.354543200;-40.430023600;G0;ESVIA-I01SP44;ESVIA-I01SP44-SS2
EQP0000000004727650;I01G0139;CTO SPLITTER 1 8;ESVIA_G1I01;RUA BOA SORTE VIANA CANAA 29135047 ES SN;VIANA;-20.356645900;-40.437234500;G0;ESVIA-I01SP18;ESVIA-I01SP18-SS3
EQP0000000004704445;I01G0317;CTO SPLITTER 1 8;ESVIA_G1I01;RUA D VIANA PRIMAVERA 29135000 ES SN;VIANA;-20.352459900;-40.431824500;G0;ESVIA-I01SP40;ESVIA-I01SP40-SS5
EQP0000000004641631;I01G01311;CTO SPLITTER 1 8;ESVIA_G1I01;RUA LUIZA CAZOTTI VIANA VILA BETHANIA 29136030 ES 66;VIANA;-20.357909700;-40.411061500;G0;ESVIA-I01SP164;ESVIA-I01SP164-SS7
EQP0000000004776858;I01G0068;CTO SPLITTER 1 8;ESVIA_G1I01;AVENIDA LINHARES VIANA UNIVERSAL 29134494 ES 6;VIANA;-20.359530900;-40.447691400;G0;ESVIA-I01SP9;ESVIA-I01SP9-SS4
EQP0000000004693343;I01G0330;CTO SPLITTER 1 8;ESVIA_G1I01;RUA ALTIVA DA SILVA BRESSIANI VIANA PRIMAVERA 29135224 ES 76;VIANA;-20.351630800;-40.429841700;G0;ESVIA-I01SP42;ESVIA-I01SP42-SS2
EQP0000000004651696;I01G01359;CTO SPLITTER 1 8;ESVIA_G1I01;RUA ACEZILIO MARIANELLI VIANA VILA BETHANIA 29136020 ES 13;VIANA;-20.356100100;-40.408837500;G0;ESVIA-I01SP170;ESVIA-I01SP170-SS7
EQP0000000004533573;I01G01563;CTO SPLITTER 1 8;ESVIA_G1I01;RUA CAMPOS DO JORDAO VIANA MARCILIO DE NORONHA 29135388 ES QD43-LT21;VIANA;-20.345888800;-40.426452800;G0;ESVIA-I01SP196;ESVIA-I01SP196-SS3
EQP0000000004637357;I01GP1321;MINI CDOE 1:2 + 1:8 PRECON SELADA 60/40;ESVIA_G1I01;RUA SANTA HELENA VIANA VILA BETHANIA 29136013 ES 281;VIANA;-20.356363900;-40.410889200;GP;ESVIA-I01SP166;ESVIA-I01SP166-SS1
EQP0000000004722812;I01G0257;CTO SPLITTER 1 8;ESVIA_G1I01;RUA GOVERNADOR VALADARES VIANA MARCILIO DE NORONHA 29135498 ES SN;VIANA;-20.348159000;-40.429788400;G0;ESVIA-I01SP33;ESVIA-I01SP33-SS1
EQP0000000004664571;I01G01256;CTO SPLITTER 1 8;ESVIA_G1I01;RUA GERTRUDES VIANA VILA BETHANIA 29136052 ES 9;VIANA;-20.357557400;-40.409026200;G0;ESVIA-I01SP157;ESVIA-I01SP157-SS8
EQP0000000004496742;I01G01668;CTO SPLITTER 1 8;ESVIA_G1I01;RUA ARACRUZ VIANA MARCILIO DE NORONHA 29135635 ES QD4-LT12;VIANA;-20.347531000;-40.422737900;G0;ESVIA-I01SP209;ESVIA-I01SP209-SS4
EQP0000000004687145;I01G01204;CTO SPLITTER 1 8;ESVIA_G1I01;RUA SANTA HELENA VIANA VILA BETHANIA 29136013 ES 2;VIANA;-20.358959800;-40.405501000;G0;ESVIA-I01SP151;ESVIA-I01SP151-SS4
EQP0000000004528940;I01G01589;CTO SPLITTER 1 8;ESVIA_G1I01;RUA BAURU VIANA MARCILIO DE NORONHA 29135375 ES QD40-LT10;VIANA;-20.347613600;-40.425662000;G0;ESVIA-I01SP199;ESVIA-I01SP199-SS5
EQP0000000004714185;I01G0283;CTO SPLITTER 1 8;ESVIA_G1I01;AVENIDA RIO GRANDE DO SUL VIANA MARCILIO DE NORONHA 29135341 ES SN;VIANA;-20.352165800;-40.424747200;G0;ESVIA-I01SP36;ESVIA-I01SP36-SS3
EQP0000000004620625;I01G01507;CTO SPLITTER 1 8;ESVIA_G1I01;RUA SAO CAETANO DO SUL VIANA MARCILIO DE NORONHA 29135416 ES SN;VIANA;-20.346946700;-40.429129700;G0;ESVIA-I01SP189;ESVIA-I01SP189-SS3
EQP0000000004777320;I01G0022;CTO SPLITTER 1 8;ESVIA_G1I01;RUA EVARISTO CANAL VIANA UNIVERSAL 29134513 ES 30;VIANA;-20.359938300;-40.452732300;G0;ESVIA-I01SP3;ESVIA-I01SP3-SS6
EQP0000000004492290;I01G01691;CTO SPLITTER 1 8;ESVIA_G1I01;RUA BARRA DE SAO FRANCISCO VIANA MARCILIO DE NORONHA 29135632 ES QD4-LT28;VIANA;-20.346980600;-40.423146700;G0;ESVIA-I01SP212;ESVIA-I01SP212-SS3
EQP0000000004715331;I01G0280;CTO SPLITTER 1 8;ESVIA_G1I01;AVENIDA RIO GRANDE DO SUL VIANA MARCILIO DE NORONHA 29135341 ES 6;VIANA;-20.350822100;-40.426096600;G0;ESVIA-I01SP35;ESVIA-I01SP35-SS8
EQP0000000004724108;I01G0135;CTO SPLITTER 1 8;ESVIA_G1I01;RUA MUTUM VIANA CANAA 29135053 ES 3;VIANA;-20.357013900;-40.439290600;G0;ESVIA-I01SP17;ESVIA-I01SP17-SS7
EQP0000000004654577;I01G01354;CTO SPLITTER 1 8;ESVIA_G1I01;RUA ACEZILIO MARIANELLI VIANA VILA BETHANIA 29136020 ES SN;VIANA;-20.355371800;-40.415674900;G0;ESVIA-I01SP170;ESVIA-I01SP170-SS2
EQP0000000004690761;I01G01174;CTO SPLITTER 1 8;ESVIA_G1I01;RUA MINAS GERAIS VIANA VILA BETHANIA 29136092 ES 113;VIANA;-20.363497100;-40.405449400;G0;ESVIA-I01SP147;ESVIA-I01SP147-SS6
EQP0000000004528413;I01G01592;CTO SPLITTER 1 8;ESVIA_G1I01;RUA BAURU VIANA MARCILIO DE NORONHA 29135375 ES QD37-LT46;VIANA;-20.346665800;-40.425377800;G0;ESVIA-I01SP199;ESVIA-I01SP199-SS8
EQP0000000004633119;I01G01394;CTO SPLITTER 1 8;ESVIA_G1I01;AVENIDA MINAS GERAIS VIANA MARCILIO DE NORONHA 29135504 ES 1;VIANA;-20.340812400;-40.421654500;G0;ESVIA-I01SP175;ESVIA-I01SP175-SS2
EQP0000000004539571;I01G01542;CTO SPLITTER 1 8;ESVIA_G1I01;RUA CAMPOS DO JORDAO VIANA MARCILIO DE NORONHA 29135388 ES QD42-LT21;VIANA;-20.345049800;-40.426453800;G0;ESVIA-I01SP193;ESVIA-I01SP193-SS6
EQP0000000004751016;I01G0075;CTO SPLITTER 1 8;ESVIA_G1I01;RUA MACHADO DE ASSIS VIANA UNIVERSAL 29134451 ES SN;VIANA;-20.359411900;-40.448650700;G0;ESVIA-I01SP10;ESVIA-I01SP10-SS3
EQP0000000004726050;I01G0131;CTO SPLITTER 1 8;ESVIA_G1I01;RUA FRANCISCO VIANA CANAA 29135060 ES 39;VIANA;-20.356155800;-40.438115600;G0;ESVIA-I01SP17;ESVIA-I01SP17-SS3
EQP0000000004750527;I01G0077;CTO SPLITTER 1 8;ESVIA_G1I01;RUA CARLOS ALBERTO NASCIMENTO VIANA UNIVERSAL 29134457 ES 1;VIANA;-20.358553100;-40.447758800;G0;ESVIA-I01SP10;ESVIA-I01SP10-SS5
EQP0000000004746440;I01G0083;CTO SPLITTER 1 8;ESVIA_G1I01;AVENIDA RESPLENDOR VIANA UNIVERSAL 29134683 ES 34;VIANA;-20.357842500;-40.445830500;G0;ESVIA-I01SP11;ESVIA-I01SP11-SS3
EQP0000000004713685;I01G0285;CTO SPLITTER 1 8;ESVIA_G1I01;RUA BAJE VIANA MARCILIO DE NORONHA 29135356 ES QD26-LT19;VIANA;-20.351559600;-40.425174100;G0;ESVIA-I01SP36;ESVIA-I01SP36-SS5
EQP0000000004622574;I01G01524;CTO SPLITTER 1 8;ESVIA_G1I01;AVENIDA SAO PAULO VIANA MARCILIO DE NORONHA 29135397 ES QD60-LT3;VIANA;-20.348359600;-40.427389000;G0;ESVIA-I01SP191;ESVIA-I01SP191-SS4
EQP0000000004784922;I01G0088;CTO SPLITTER 1 8;ESVIA_G1I01;RUA ANTONIO CONDE VIANA UNIVERSAL 29134686 ES SN;VIANA;-20.359783600;-40.445968100;G0;ESVIA-I01SP11;ESVIA-I01SP11-SS8
EQP0000000004643278;I01G01310;CTO SPLITTER 1 8;ESVIA_G1I01;RUA LUIZA CAZOTTI VIANA VILA BETHANIA 29136030 ES SN;VIANA;-20.357955300;-40.410830700;G0;ESVIA-I01SP164;ESVIA-I01SP164-SS6
EQP0000000004637082;I01GP1326;MINI CDOE 1:2 + 1:8 PRECON SELADA 60/40;ESVIA_G1I01;RUA SANTA HELENA VIANA VILA BETHANIA 29136013 ES 281;VIANA;-20.355980700;-40.410470500;GP;ESVIA-I01SP166;ESVIA-I01SP166-SS6
EQP0000000004705835;I01G0328;CTO SPLITTER 1 8;ESVIA_G1I01;RUA IRINEU GASPARINI VIANA PRIMAVERA 29135231 ES 25;VIANA;-20.353732500;-40.430126200;G0;ESVIA-I01SP41;ESVIA-I01SP41-SS8
EQP0000000004659833;I01G01281;CTO SPLITTER 1 8;ESVIA_G1I01;AVENIDA SANTA CLARA VIANA ARLINDO VILLASCHI 29136221 ES 31;VIANA;-20.360814400;-40.410667200;G0;ESVIA-I01SP161;ESVIA-I01SP161-SS1
EQP0000000004688948;I01G01178;CTO SPLITTER 1 8;ESVIA_G1I01;RUA AMAPA VIANA VILA BETHANIA 29136089 ES 37;VIANA;-20.360926100;-40.408369200;G0;ESVIA-I01SP148;ESVIA-I01SP148-SS2
EQP0000000004728125;I01G0152;CTO SPLITTER 1 8;ESVIA_G1I01;RUA RESPLENDOR VIANA CANAA 29135056 ES 68;VIANA;-20.358183900;-40.439332100;G0;ESVIA-I01SP19;ESVIA-I01SP19-SS8
EQP0000000004472925;I01G01750;CTO SPLITTER 1 8;ESVIA_G1I01;RUA BAJE VIANA MARCILIO DE NORONHA 29135356 ES 2;VIANA;-20.353015100;-40.426176200;G0;ESVIA-I01SP219;ESVIA-I01SP219-SS6
EQP0000000004496118;I01G01672;CTO SPLITTER 1 8;ESVIA_G1I01;RUA BARRA DE SAO FRANCISCO VIANA MARCILIO DE NORONHA 29135632 ES SN;VIANA;-20.349214500;-40.422966100;G0;ESVIA-I01SP209;ESVIA-I01SP209-SS8
EQP0000000004622795;I01G01431;CTO SPLITTER 1 8;ESVIA_G1I01;RUA DISTRITO FEDERAL VIANA MARCILIO DE NORONHA 29135575 ES SN;VIANA;-20.341814600;-40.420793200;G0;ESVIA-I01SP179;ESVIA-I01SP179-SS7
EQP0000000004493439;I01G01676;CTO SPLITTER 1 8;ESVIA_G1I01;RUA COLATINA VIANA MARCILIO DE NORONHA 29135644 ES QD1-LT52;VIANA;-20.351384600;-40.423680900;G0;ESVIA-I01SP210;ESVIA-I01SP210-SS4
EQP0000000004705197;I01G0315;CTO SPLITTER 1 8;ESVIA_G1I01;RUA F VIANA PRIMAVERA 29135000 ES SN;VIANA;-20.351886500;-40.431664200;G0;ESVIA-I01SP40;ESVIA-I01SP40-SS3
EQP0000000004620935;I01G01440;CTO SPLITTER 1 8;ESVIA_G1I01;RUA AMAPA VIANA MARCILIO DE NORONHA 29135560 ES 23;VIANA;-20.343044700;-40.420936100;G0;ESVIA-I01SP180;ESVIA-I01SP180-SS8
EQP0000000004776663;I01G0069;CTO SPLITTER 1 8;ESVIA_G1I01;RUA ANTONIO CONDE VIANA UNIVERSAL 29134686 ES SN;VIANA;-20.359693400;-40.446965100;G0;ESVIA-I01SP9;ESVIA-I01SP9-SS5
EQP0000000004666123;I01G01245;CTO SPLITTER 1 8;ESVIA_G1I01;RUA OLIVAL PIMENTEL VIANA VILA BETHANIA 29136073 ES 30;VIANA;-20.359776900;-40.409103700;G0;ESVIA-I01SP156;ESVIA-I01SP156-SS5
EQP0000000004734829;I01G0234;CTO SPLITTER 1 8;ESVIA_G1I01;RUA MIRIM VIANA CANAA 29135094 ES SN;VIANA;-20.357985400;-40.437159900;G0;ESVIA-I01SP30;ESVIA-I01SP30-SS2
EQP0000000004478354;I01G01738;CTO SPLITTER 1 8;ESVIA_G1I01;RUA WALDIMIRO CANDIDO DE SOUZA VIANA PRIMAVERA 29135177 ES SN;VIANA;-20.356311200;-40.423431300;G0;ESVIA-I01SP218;ESVIA-I01SP218-SS2
EQP0000000004707501;I01G0363;CTO SPLITTER 1 8;ESVIA_G1I01;RODOVIA GOVERNADOR MARIO COVAS VIANA PRIMAVERA 29135160 ES SN;VIANA;-20.357112100;-40.427267700;G0;ESVIA-I01SP46;ESVIA-I01SP46-SS3
EQP0000000004665134;I01G01247;CTO SPLITTER 1 8;ESVIA_G1I01;RUA OLIVAL PIMENTEL VIANA VILA BETHANIA 29136073 ES 12;VIANA;-20.358983200;-40.409498100;G0;ESVIA-I01SP156;ESVIA-I01SP156-SS7
EQP0000000004632333;I01G01410;CTO SPLITTER 1 8;ESVIA_G1I01;AVENIDA ANTONIO FREIRE VIANA MARCILIO DE NORONHA 29135323 ES 113;VIANA;-20.343667100;-40.418362200;G0;ESVIA-I01SP177;ESVIA-I01SP177-SS2
EQP0000000004489580;I01G01688;CTO SPLITTER 1 8;ESVIA_G1I01;RUA PANCAS VIANA MARCILIO DE NORONHA 29135647 ES QD1-LT26;VIANA;-20.349361200;-40.422113900;G0;ESVIA-I01SP211;ESVIA-I01SP211-SS8
EQP0000000004714329;I01G0282;CTO SPLITTER 1 8;ESVIA_G1I01;AVENIDA RIO GRANDE DO SUL VIANA MARCILIO DE NORONHA 29135341 ES SN;VIANA;-20.351771500;-40.424230500;G0;ESVIA-I01SP36;ESVIA-I01SP36-SS2
EQP0000000004668996;I01G01268;CTO SPLITTER 1 8;ESVIA_G1I01;AVENIDA ESPIRITO SANTO VIANA VILA BETHANIA 29136096 ES 7;VIANA;-20.357422600;-40.407250400;G0;ESVIA-I01SP159;ESVIA-I01SP159-SS4
EQP0000000004707209;I01G0366;CTO SPLITTER 1 8;ESVIA_G1I01;AVENIDA TEREZINHA PEREIRA ABRANCHES VIANA PRIMAVERA 29135220 ES 15;VIANA;-20.355355900;-40.427412300;G0;ESVIA-I01SP46;ESVIA-I01SP46-SS6
EQP0000000004531434;I01G01584;CTO SPLITTER 1 8;ESVIA_G1I01;RUA SOROCABA VIANA MARCILIO DE NORONHA 29135372 ES QD36-LT10;VIANA;-20.346440200;-40.425231300;G0;ESVIA-I01SP198;ESVIA-I01SP198-SS8
EQP0000000004541408;I01G01551;CTO SPLITTER 1 8;ESVIA_G1I01;RUA DIADEMA VIANA MARCILIO DE NORONHA 29135384 ES QD51-LT7;VIANA;-20.345866700;-40.426965200;G0;ESVIA-I01SP194;ESVIA-I01SP194-SS7
EQP0000000004737893;I01G0099;CTO SPLITTER 1 8;ESVIA_G1I01;RUA SAO JOSE VIANA UNIVERSAL 29134415 ES 14;VIANA;-20.361539100;-40.446761900;G0;ESVIA-I01SP13;ESVIA-I01SP13-SS3
EQP0000000004642661;I01G01308;CTO SPLITTER 1 8;ESVIA_G1I01;RUA LUIZA CAZOTTI VIANA VILA BETHANIA 29136030 ES 44;VIANA;-20.357716100;-40.410158100;G0;ESVIA-I01SP164;ESVIA-I01SP164-SS4
EQP0000000004687607;I01G01181;CTO SPLITTER 1 8;ESVIA_G1I01;RUA MINAS GERAIS VIANA VILA BETHANIA 29136092 ES 120;VIANA;-20.360554900;-40.406608500;G0;ESVIA-I01SP148;ESVIA-I01SP148-SS5
EQP0000000004740341;I01G0091;CTO SPLITTER 1 8;ESVIA_G1I01;RUA SANTO ANTONIO VIANA UNIVERSAL 29134689 ES 25;VIANA;-20.357153300;-40.445949100;G0;ESVIA-I01SP12;ESVIA-I01SP12-SS3
EQP0000000004696474;I01G0352;CTO SPLITTER 1 8;ESVIA_G1I01;RUA GALDINO PIMENTEL VIANA PRIMAVERA 29135204 ES 57;VIANA;-20.352870900;-40.427916900;G0;ESVIA-I01SP44;ESVIA-I01SP44-SS8
EQP0000000004665756;I01G01276;CTO SPLITTER 1 8;ESVIA_G1I01;RUA SANTA HELENA VIANA VILA BETHANIA 29136013 ES SN;VIANA;-20.356665600;-40.407523100;G0;ESVIA-I01SP160;ESVIA-I01SP160-SS4
EQP0000000004692345;I01G0333;CTO SPLITTER 1 8;ESVIA_G1I01;RUA ALTIVA DA SILVA BRESSIANI VIANA PRIMAVERA 29135224 ES 32;VIANA;-20.353692500;-40.428863400;G0;ESVIA-I01SP42;ESVIA-I01SP42-SS5
EQP0000000004672470;I01G01251;CTO SPLITTER 1 8;ESVIA_G1I01;RUA ARTHUR BERNARDES VIANA VILA BETHANIA 29136082 ES 28;VIANA;-20.358452400;-40.408257000;G0;ESVIA-I01SP157;ESVIA-I01SP157-SS3
EQP0000000004632018;I01G01411;CTO SPLITTER 1 8;ESVIA_G1I01;AVENIDA ANTONIO FREIRE VIANA MARCILIO DE NORONHA 29135323 ES SN;VIANA;-20.343109200;-40.418615900;G0;ESVIA-I01SP177;ESVIA-I01SP177-SS3
EQP0000000004688012;I01G01180;CTO SPLITTER 1 8;ESVIA_G1I01;RUA AMAPA VIANA VILA BETHANIA 29136089 ES 15;VIANA;-20.360480500;-40.407086600;G0;ESVIA-I01SP148;ESVIA-I01SP148-SS4
EQP0000000004750704;I01G0076;CTO SPLITTER 1 8;ESVIA_G1I01;RUA MACHADO DE ASSIS VIANA UNIVERSAL 29134451 ES 2;VIANA;-20.358907300;-40.447708300;G0;ESVIA-I01SP10;ESVIA-I01SP10-SS4
EQP0000000004476301;I01G01742;CTO SPLITTER 1 8;ESVIA_G1I01;RUA FRANCISCO LACERDA DE AGUIAR VIANA PRIMAVERA 29135183 ES 104;VIANA;-20.355600600;-40.423355700;G0;ESVIA-I01SP218;ESVIA-I01SP218-SS6
EQP0000000004713380;I01G0178;CTO SPLITTER 1 8;ESVIA_G1I01;RUA PRIMAVERA VIANA CANAA 29135103 ES 27;VIANA;-20.358779000;-40.433497900;G0;ESVIA-I01SP23;ESVIA-I01SP23-SS2
EQP0000000004743512;I01G0211;CTO SPLITTER 1 8;ESVIA_G1I01;RUA BARRA SECA VIANA CANAA 29135029 ES SN;VIANA;-20.358586800;-40.436317900;G0;ESVIA-I01SP27;ESVIA-I01SP27-SS3
EQP0000000004528677;I01G01591;CTO SPLITTER 1 8;ESVIA_G1I01;RUA BAURU VIANA MARCILIO DE NORONHA 29135375 ES QD40-LT18;VIANA;-20.348278700;-40.425665700;G0;ESVIA-I01SP199;ESVIA-I01SP199-SS7
EQP0000000004680515;I01G01219;CTO SPLITTER 1 8;ESVIA_G1I01;RUA AMAPA VIANA VILA BETHANIA 29136089 ES SN;VIANA;-20.360189100;-40.406448100;G0;ESVIA-I01SP153;ESVIA-I01SP153-SS3
EQP0000000004671522;I01G01254;CTO SPLITTER 1 8;ESVIA_G1I01;RUA ARTHUR BERNARDES VIANA VILA BETHANIA 29136082 ES 6;VIANA;-20.357549100;-40.408608300;G0;ESVIA-I01SP157;ESVIA-I01SP157-SS6
EQP0000000004676088;I01G01228;CTO SPLITTER 1 8;ESVIA_G1I01;RUA GERTRUDES VIANA VILA BETHANIA 29136052 ES 41;VIANA;-20.358398500;-40.410218900;G0;ESVIA-I01SP154;ESVIA-I01SP154-SS4
EQP0000000004524615;I01G01597;CTO SPLITTER 1 8;ESVIA_G1I01;AVENIDA VITORIA VIANA MARCILIO DE NORONHA 29135368 ES SN;VIANA;-20.344872800;-40.424793400;G0;ESVIA-I01SP200;ESVIA-I01SP200-SS5
EQP0000000004715658;I01G0172;CTO SPLITTER 1 8;ESVIA_G1I01;RUA NITEROI VIANA CANAA 29135106 ES 29;VIANA;-20.357435100;-40.433413900;G0;ESVIA-I01SP22;ESVIA-I01SP22-SS4
EQP0000000004730900;I01G0114;CTO SPLITTER 1 8;ESVIA_G1I01;RUA SANTA HELENA VIANA UNIVERSAL 29134409 ES SN;VIANA;-20.362765400;-40.443776400;G0;ESVIA-I01SP15;ESVIA-I01SP15-SS2
EQP0000000004516652;I01G01612;CTO SPLITTER 1 8;ESVIA_G1I01;AVENIDA PIRACICABA VIANA MARCILIO DE NORONHA 29135391 ES SN;VIANA;-20.346619000;-40.424192000;G0;ESVIA-I01SP202;ESVIA-I01SP202-SS4
EQP0000000004491937;I01G01694;CTO SPLITTER 1 8;ESVIA_G1I01;RUA BARRA DE SAO FRANCISCO VIANA MARCILIO DE NORONHA 29135632 ES QD5-LT25;VIANA;-20.348263000;-40.423164600;G0;ESVIA-I01SP212;ESVIA-I01SP212-SS6
EQP0000000004496294;I01G01670;CTO SPLITTER 1 8;ESVIA_G1I01;RUA ARACRUZ VIANA MARCILIO DE NORONHA 29135635 ES QD5-LT9;VIANA;-20.348668100;-40.422737700;G0;ESVIA-I01SP209;ESVIA-I01SP209-SS6
EQP0000000004777188;I01G0023;CTO SPLITTER 1 8;ESVIA_G1I01;RUA EVARISTO CANAL VIANA UNIVERSAL 29134513 ES 40;VIANA;-20.359930100;-40.453036500;G0;ESVIA-I01SP3;ESVIA-I01SP3-SS7
EQP0000000004623516;I01G01391;CTO SPLITTER 1 8;ESVIA_G1I01;RUA SAO JOAO VIANA MARCILIO DE NORONHA 29135000 ES QD17-LT8;VIANA;-20.340972900;-40.423029900;G0;ESVIA-I01SP174;ESVIA-I01SP174-SS7
EQP0000000004728382;I01G0149;CTO SPLITTER 1 8;ESVIA_G1I01;RUA BOA SORTE VIANA CANAA 29135047 ES 61;VIANA;-20.358137600;-40.439013000;G0;ESVIA-I01SP19;ESVIA-I01SP19-SS5
EQP0000000004692206;I01G01170;CTO SPLITTER 1 8;ESVIA_G1I01;RUA JONES DOS SANTOS NEVES VIANA VILA BETHANIA 29136117 ES 42;VIANA;-20.362568200;-40.406722200;G0;ESVIA-I01SP147;ESVIA-I01SP147-SS2
EQP0000000004777347;I01G0200;CTO SPLITTER 1 8;ESVIA_G1I01;RUA SANTA CATARINA VIANA CANAA 29135014 ES 42;VIANA;-20.361300600;-40.436776700;G0;ESVIA-I01SP25;ESVIA-I01SP25-SS8
EQP0000000004540738;I01G01470;CTO SPLITTER 1 8;ESVIA_G1I01;RUA BELO HORIZONTE VIANA INDUSTRIAL 29135590 ES QDK-LT20;VIANA;-20.345029100;-40.421395100;G0;ESVIA-I01SP184;ESVIA-I01SP184-SS6
EQP0000000004737144;I01G0101;CTO SPLITTER 1 8;ESVIA_G1I01;RUA NOSSA SENHORA AUXILIADORA VIANA UNIVERSAL 29134433 ES SN;VIANA;-20.360619100;-40.446137600;G0;ESVIA-I01SP13;ESVIA-I01SP13-SS5
EQP0000000004713543;I01G0177;CTO SPLITTER 1 8;ESVIA_G1I01;RUA PRIMAVERA VIANA CANAA 29135103 ES SN;VIANA;-20.358511700;-40.433260800;G0;ESVIA-I01SP23;ESVIA-I01SP23-SS1
EQP0000000004669333;I01G01267;CTO SPLITTER 1 8;ESVIA_G1I01;AVENIDA ESPIRITO SANTO VIANA VILA BETHANIA 29136096 ES 15;VIANA;-20.357749500;-40.407111900;G0;ESVIA-I01SP159;ESVIA-I01SP159-SS3
EQP0000000004703846;I01G0320;CTO SPLITTER 1 8;ESVIA_G1I01;RUA JOAO LOPES DE AQUINO VIANA PRIMAVERA 29135217 ES SN;VIANA;-20.353385200;-40.431118300;G0;ESVIA-I01SP40;ESVIA-I01SP40-SS8
EQP0000000004735391;I01G0235;CTO SPLITTER 1 8;ESVIA_G1I01;RUA FONTE LIMPA VIANA CANAA 29135041 ES 7;VIANA;-20.358286700;-40.437737800;G0;ESVIA-I01SP30;ESVIA-I01SP30-SS3
EQP0000000004706759;I01G0368;CTO SPLITTER 1 8;ESVIA_G1I01;BECO SANTA FE VIANA VILA BETHANIA 29136049 ES 15;VIANA;-20.356548400;-40.426512100;G0;ESVIA-I01SP46;ESVIA-I01SP46-SS8
EQP0000000004667743;I01G01271;CTO SPLITTER 1 8;ESVIA_G1I01;RUA MINAS GERAIS VIANA VILA BETHANIA 29136092 ES 8;VIANA;-20.357364400;-40.407962300;G0;ESVIA-I01SP159;ESVIA-I01SP159-SS7
EQP0000000004514208;I01G01640;CTO SPLITTER 1 8;ESVIA_G1I01;RUA ANCHIETA VIANA MARCILIO DE NORONHA 29135524 ES QD13-LT32;VIANA;-20.343486600;-40.424651500;G0;ESVIA-I01SP205;ESVIA-I01SP205-SS8
EQP0000000004737644;I01G0232;CTO SPLITTER 1 8;ESVIA_G1I01;RUA HORTENSIAS VIANA CANAA 29135100 ES 101;VIANA;-20.356469500;-40.434374100;G0;ESVIA-I01SP29;ESVIA-I01SP29-SS8
EQP0000000004676745;I01G01238;CTO SPLITTER 1 8;ESVIA_G1I01;RUA SAO JOAO VIANA VILA BETHANIA 29136150 ES 4;VIANA;-20.358653400;-40.411133200;G0;ESVIA-I01SP155;ESVIA-I01SP155-SS6
EQP0000000004695875;I01G0339;CTO SPLITTER 1 8;ESVIA_G1I01;AVENIDA TEREZINHA PEREIRA ABRANCHES VIANA PRIMAVERA 29135220 ES 73;VIANA;-20.351012300;-40.429467500;G0;ESVIA-I01SP43;ESVIA-I01SP43-SS3
EQP0000000004541255;I01G01552;CTO SPLITTER 1 8;ESVIA_G1I01;RUA DIADEMA VIANA MARCILIO DE NORONHA 29135384 ES QD51-LT3;VIANA;-20.345462800;-40.426972600;G0;ESVIA-I01SP194;ESVIA-I01SP194-SS8
EQP0000000004655909;I01G01296;CTO SPLITTER 1 8;ESVIA_G1I01;AVENIDA SANTA CLARA VIANA ARLINDO VILLASCHI 29136221 ES SN;VIANA;-20.358208800;-40.413198300;G0;ESVIA-I01SP162;ESVIA-I01SP162-SS8
EQP0000000004663595;I01G01278;CTO SPLITTER 1 8;ESVIA_G1I01;RUA SANTA HELENA VIANA VILA BETHANIA 29136013 ES 1;VIANA;-20.355769100;-40.408296800;G0;ESVIA-I01SP160;ESVIA-I01SP160-SS6
EQP0000000004702754;I01G01162;CTO SPLITTER 1 8;ESVIA_G1I01;RUA FRANCISCO ALVES VIANA VILA BETHANIA 29136067 ES 49;VIANA;-20.360848700;-40.409391600;G0;ESVIA-I01SP146;ESVIA-I01SP146-SS2
EQP0000000004726831;I01G0249;CTO SPLITTER 1 8;ESVIA_G1I01;RUA SOROCABA VIANA MARCILIO DE NORONHA 29135372 ES QD34-LT24;VIANA;-20.348279000;-40.425169500;G0;ESVIA-I01SP32;ESVIA-I01SP32-SS1
EQP0000000004727072;I01G0142;CTO SPLITTER 1 8;ESVIA_G1I01;RUA JOSE ENGILIARDIT VIANA CANAA 29135050 ES SN;VIANA;-20.356970000;-40.438389400;G0;ESVIA-I01SP18;ESVIA-I01SP18-SS6
EQP0000000004713101;I01G0179;CTO SPLITTER 1 8;ESVIA_G1I01;RUA SANTA CATARINA VIANA CANAA 29135014 ES SN;VIANA;-20.359284700;-40.434527100;G0;ESVIA-I01SP23;ESVIA-I01SP23-SS3
EQP0000000004680698;I01G01193;CTO SPLITTER 1 8;ESVIA_G1I01;RUA SANTA HELENA VIANA VILA BETHANIA 29136013 ES 27;VIANA;-20.363333400;-40.404698900;G0;ESVIA-I01SP150;ESVIA-I01SP150-SS1
EQP0000000004531968;I01G01581;CTO SPLITTER 1 8;ESVIA_G1I01;RUA SOROCABA VIANA MARCILIO DE NORONHA 29135372 ES QD32-LT11;VIANA;-20.345475900;-40.425148100;G0;ESVIA-I01SP198;ESVIA-I01SP198-SS5
EQP0000000004704149;I01G01156;CTO SPLITTER 1 8;ESVIA_G1I01;RUA DOMINGOS VICENTE VIANA VILA BETHANIA 29136114 ES SN;VIANA;-20.362480900;-40.408047800;G0;ESVIA-I01SP145;ESVIA-I01SP145-SS4
EQP0000000004514552;I01G01637;CTO SPLITTER 1 8;ESVIA_G1I01;RUA UBERLANDIA VIANA MARCILIO DE NORONHA 29135521 ES SN;VIANA;-20.342477100;-40.424581700;G0;ESVIA-I01SP205;ESVIA-I01SP205-SS4
EQP0000000004779986;I01G0056;CTO SPLITTER 1 8;ESVIA_G1I01;RUA FLAUZILIO VACCARI VIANA UNIVERSAL 29134692 ES 2;VIANA;-20.358035500;-40.447825900;G0;ESVIA-I01SP7;ESVIA-I01SP7-SS8
EQP0000000004680126;I01G01197;CTO SPLITTER 1 8;ESVIA_G1I01;RUA SANTA HELENA VIANA VILA BETHANIA 29136013 ES 119;VIANA;-20.361145100;-40.405107700;G0;ESVIA-I01SP150;ESVIA-I01SP150-SS5
EQP0000000004693017;I01G0331;CTO SPLITTER 1 8;ESVIA_G1I01;RUA ALTIVA DA SILVA BRESSIANI VIANA PRIMAVERA 29135224 ES 66;VIANA;-20.352071800;-40.429614800;G0;ESVIA-I01SP42;ESVIA-I01SP42-SS3
EQP0000000004677415;I01G01236;CTO SPLITTER 1 8;ESVIA_G1I01;RUA SAO JOAO VIANA VILA BETHANIA 29136150 ES 23;VIANA;-20.359856400;-40.410771000;G0;ESVIA-I01SP155;ESVIA-I01SP155-SS4
EQP0000000004663867;I01G01277;CTO SPLITTER 1 8;ESVIA_G1I01;RUA SANTA HELENA VIANA VILA BETHANIA 29136013 ES 5;VIANA;-20.356037400;-40.408135600;G0;ESVIA-I01SP160;ESVIA-I01SP160-SS5
EQP0000000004680482;I01G01194;CTO SPLITTER 1 8;ESVIA_G1I01;RUA SANTA HELENA VIANA VILA BETHANIA 29136013 ES 127;VIANA;-20.362700900;-40.404662500;G0;ESVIA-I01SP150;ESVIA-I01SP150-SS2
EQP0000000004746472;I01G0031;CTO SPLITTER 1 8;ESVIA_G1I01;RUA COSSENO VIANA UNIVERSAL 29134680 ES SN;VIANA;-20.356217400;-40.446940300;G0;ESVIA-I01SP4;ESVIA-I01SP4-SS7
EQP0000000004737864;I01G0231;CTO SPLITTER 1 8;ESVIA_G1I01;AVENIDA VIANA NORTE VIANA CANAA 29135000 ES 33;VIANA;-20.355597500;-40.434381300;G0;ESVIA-I01SP29;ESVIA-I01SP29-SS7
EQP0000000004534036;I01G01576;CTO SPLITTER 1 8;ESVIA_G1I01;RUA CAMPINAS VIANA MARCILIO DE NORONHA 29135394 ES QD44-LT14;VIANA;-20.347911900;-40.426087200;G0;ESVIA-I01SP197;ESVIA-I01SP197-SS8
EQP0000000004709400;I01G0299;CTO SPLITTER 1 8;ESVIA_G1I01;RUA DO CASARAO VIANA MARCILIO DE NORONHA 29135000 ES SN;VIANA;-20.349478800;-40.428928900;G0;ESVIA-I01SP38;ESVIA-I01SP38-SS3
EQP0000000004627578;I01G01384;CTO SPLITTER 1 8;ESVIA_G1I01;RUA TEOFILO OTONI VIANA MARCILIO DE NORONHA 29135542 ES SN;VIANA;-20.340804700;-40.424007200;G0;ESVIA-I01SP173;ESVIA-I01SP173-SS8
EQP0000000004534738;I01G01569;CTO SPLITTER 1 8;ESVIA_G1I01;RUA CAMPINAS VIANA MARCILIO DE NORONHA 29135394 ES QD42-LT9;VIANA;-20.344748400;-40.426058600;G0;ESVIA-I01SP197;ESVIA-I01SP197-SS1
EQP0000000004703425;I01G01159;CTO SPLITTER 1 8;ESVIA_G1I01;RUA DOMINGOS VICENTE VIANA VILA BETHANIA 29136114 ES 36;VIANA;-20.361624800;-40.407611000;G0;ESVIA-I01SP145;ESVIA-I01SP145-SS7
EQP0000000004681280;I01G01192;CTO SPLITTER 1 8;ESVIA_G1I01;AVENIDA ESPIRITO SANTO VIANA VILA BETHANIA 29136096 ES 73;VIANA;-20.360934300;-40.405864800;G0;ESVIA-I01SP149;ESVIA-I01SP149-SS8
EQP0000000004720370;I01G01240;CTO SPLITTER 1 8;ESVIA_G1I01;RUA GERTRUDES VIANA VILA BETHANIA 29136052 ES SN;VIANA;-20.358447300;-40.411352000;G0;ESVIA-I01SP155;ESVIA-I01SP155-SS8
EQP0000000004534182;I01G01573;CTO SPLITTER 1 8;ESVIA_G1I01;RUA CAMPINAS VIANA MARCILIO DE NORONHA 29135394 ES QD43-LT12;VIANA;-20.346631600;-40.426083900;G0;ESVIA-I01SP197;ESVIA-I01SP197-SS5
EQP0000000004663121;I01G01279;CTO SPLITTER 1 8;ESVIA_G1I01;RUA SERGIPE VIANA VILA BETHANIA 29136055 ES 548;VIANA;-20.356578000;-40.408508900;G0;ESVIA-I01SP160;ESVIA-I01SP160-SS7
EQP0000000004637783;I01G01376;CTO SPLITTER 1 8;ESVIA_G1I01;RODOVIA GOVERNADOR MARIO COVAS VIANA PRIMAVERA 29135160 ES SN;VIANA;-20.357178300;-40.419828500;G0;ESVIA-I01SP172;ESVIA-I01SP172-SS8
EQP0000000004777253;I01G0066;CTO SPLITTER 1 8;ESVIA_G1I01;AVENIDA LINHARES VIANA UNIVERSAL 29134494 ES 11;VIANA;-20.359951800;-40.448305400;G0;ESVIA-I01SP9;ESVIA-I01SP9-SS2
EQP0000000004708526;I01G0358;CTO SPLITTER 1 8;ESVIA_G1I01;RUA GALDINO PIMENTEL VIANA PRIMAVERA 29135204 ES 17;VIANA;-20.354662500;-40.427167900;G0;ESVIA-I01SP45;ESVIA-I01SP45-SS6
EQP0000000004779091;I01G0186;CTO SPLITTER 1 8;ESVIA_G1I01;RUA TANCREDO DE ALMEIDA NEVES VIANA CANAA 29135004 ES SN;VIANA;-20.361178200;-40.438230400;G0;ESVIA-I01SP24;ESVIA-I01SP24-SS2
EQP0000000004696765;I01G0351;CTO SPLITTER 1 8;ESVIA_G1I01;RUA GALDINO PIMENTEL VIANA PRIMAVERA 29135204 ES 46;VIANA;-20.353596200;-40.427590200;G0;ESVIA-I01SP44;ESVIA-I01SP44-SS7
EQP0000000004687514;I01G01203;CTO SPLITTER 1 8;ESVIA_G1I01;RUA SANTA HELENA VIANA VILA BETHANIA 29136013 ES 64;VIANA;-20.358935600;-40.406025700;G0;ESVIA-I01SP151;ESVIA-I01SP151-SS3
EQP0000000004673819;I01G01231;CTO SPLITTER 1 8;ESVIA_G1I01;RUA SAO JOAO VIANA VILA BETHANIA 29136150 ES 425;VIANA;-20.358231300;-40.410795400;G0;ESVIA-I01SP154;ESVIA-I01SP154-SS7
EQP0000000128458890;I01GP1320;MINI CDOE 1:2 + 1:8 PRECON SELADA 60/40;ESVIA_G1I01;RUA SANTA HELENA VIANA VILA BETHANIA 29136013 ES 281;VIANA;-20.356237800;-40.410894500;GP;ESVIA-I01SP165;ESVIA-I01SP165-SS8
EQP0000000004662144;I01G01280;CTO SPLITTER 1 8;ESVIA_G1I01;RUA GERTRUDES VIANA VILA BETHANIA 29136052 ES SN;VIANA;-20.356982000;-40.408344100;G0;ESVIA-I01SP160;ESVIA-I01SP160-SS8
EQP0000000004697209;I01G0349;CTO SPLITTER 1 8;ESVIA_G1I01;AVENIDA TEREZINHA PEREIRA ABRANCHES VIANA PRIMAVERA 29135220 ES SN;VIANA;-20.354560300;-40.427782700;G0;ESVIA-I01SP44;ESVIA-I01SP44-SS5
EQP0000000004683135;I01G01663;CTO SPLITTER 1 8;ESVIA_G1I01;AVENIDA ESPIRITO SANTO VIANA MARCILIO DE NORONHA 29135508 ES SN;VIANA;-20.348291500;-40.424196900;G0;ESVIA-I01SP208;ESVIA-I01SP208-SS7
EQP0000000004479158;I01G01735;CTO SPLITTER 1 8;ESVIA_G1I01;RUA PRESIDENTE TANCREDO NEVES VIANA PRIMAVERA 29135170 ES SN;VIANA;-20.356681400;-40.422813100;G0;ESVIA-I01SP217;ESVIA-I01SP217-SS7
EQP0000000004490453;I01G01685;CTO SPLITTER 1 8;ESVIA_G1I01;RUA COLATINA VIANA MARCILIO DE NORONHA 29135644 ES QD1-LT17;VIANA;-20.348220900;-40.422209300;G0;ESVIA-I01SP211;ESVIA-I01SP211-SS5
EQP0000000004473140;I01G01749;CTO SPLITTER 1 8;ESVIA_G1I01;RUA BAJE VIANA MARCILIO DE NORONHA 29135356 ES 20;VIANA;-20.352937800;-40.426869200;G0;ESVIA-I01SP219;ESVIA-I01SP219-SS5
EQP0000000004543319;I01G01501;CTO SPLITTER 1 8;ESVIA_G1I01;AVENIDA SAO PAULO VIANA MARCILIO DE NORONHA 29135397 ES QD59-LT9;VIANA;-20.346663300;-40.428407500;G0;ESVIA-I01SP188;ESVIA-I01SP188-SS5
EQP0000000004532433;I01G01580;CTO SPLITTER 1 8;ESVIA_G1I01;RUA BAURU VIANA MARCILIO DE NORONHA 29135375 ES QD39-LT4;VIANA;-20.345904100;-40.425644600;G0;ESVIA-I01SP198;ESVIA-I01SP198-SS4
EQP0000000004636720;I01G01364;CTO SPLITTER 1 8;ESVIA_G1I01;RODOVIA GOVERNADOR MARIO COVAS VIANA CAXIAS DO SUL 29136350 ES SN;VIANA;-20.358774800;-40.423495800;G0;ESVIA-I01SP171;ESVIA-I01SP171-SS4
EQP0000000004750880;I01G0033;CTO SPLITTER 1 8;ESVIA_G1I01;RUA LOREDO VIANA UNIVERSAL 29134652 ES SN;VIANA;-20.356839900;-40.449720000;G0;ESVIA-I01SP5;ESVIA-I01SP5-SS1
EQP0000000004542040;I01G01548;CTO SPLITTER 1 8;ESVIA_G1I01;RUA DIADEMA VIANA MARCILIO DE NORONHA 29135384 ES QD52-LT1;VIANA;-20.346838900;-40.426946800;G0;ESVIA-I01SP194;ESVIA-I01SP194-SS4
EQP0000000004728808;I01G0151;CTO SPLITTER 1 8;ESVIA_G1I01;RUA BOA SORTE VIANA CANAA 29135047 ES 40;VIANA;-20.357464700;-40.438208400;G0;ESVIA-I01SP19;ESVIA-I01SP19-SS7
EQP0000000004632069;I01G01398;CTO SPLITTER 1 8;ESVIA_G1I01;AVENIDA MINAS GERAIS VIANA MARCILIO DE NORONHA 29135504 ES QD19-LT2;VIANA;-20.340970900;-40.421976900;G0;ESVIA-I01SP175;ESVIA-I01SP175-SS6
EQP0000000004666525;I01G01274;CTO SPLITTER 1 8;ESVIA_G1I01;RUA SANTA HELENA VIANA VILA BETHANIA 29136013 ES 39;VIANA;-20.357331700;-40.406836100;G0;ESVIA-I01SP160;ESVIA-I01SP160-SS2
EQP0000000004720340;I01G0165;CTO SPLITTER 1 8;ESVIA_G1I01;RUA SANTOS DUMONT VIANA CANAA 29135026 ES SN;VIANA;-20.360804800;-40.438652400;G0;ESVIA-I01SP21;ESVIA-I01SP21-SS5
EQP0000000004691435;I01G01172;CTO SPLITTER 1 8;ESVIA_G1I01;RUA MINAS GERAIS VIANA VILA BETHANIA 29136092 ES 103;VIANA;-20.362928800;-40.405677400;G0;ESVIA-I01SP147;ESVIA-I01SP147-SS4
EQP0000000004714836;I01G0176;CTO SPLITTER 1 8;ESVIA_G1I01;RUA TANCREDO DE ALMEIDA NEVES VIANA CANAA 29135004 ES 65;VIANA;-20.358454900;-40.435138100;G0;ESVIA-I01SP22;ESVIA-I01SP22-SS8
EQP0000000004536534;I01GP1487;MINI CDOE 1:2 + 1:8 PRECON SELADA 60/40;ESVIA_G1I01;AVENIDA BENJAMIM VITORIO VIANA INDUSTRIAL 29135563 ES 6;VIANA;-20.345773800;-40.422548300;GP;ESVIA-I01SP186;ESVIA-I01SP186-SS7
EQP0000000004666954;I01G01243;CTO SPLITTER 1 8;ESVIA_G1I01;RUA PERNAMBUCO VIANA VILA BETHANIA 29136086 ES 162;VIANA;-20.359731200;-40.408122200;G0;ESVIA-I01SP156;ESVIA-I01SP156-SS3
EQP0000000004722310;I01G0144;CTO SPLITTER 1 8;ESVIA_G1I01;RUA RESPLENDOR VIANA CANAA 29135056 ES 2;VIANA;-20.357547400;-40.439493100;G0;ESVIA-I01SP18;ESVIA-I01SP18-SS8
EQP0000000004636038;I01G01366;CTO SPLITTER 1 8;ESVIA_G1I01;RODOVIA GOVERNADOR MARIO COVAS VIANA CAXIAS DO SUL 29136350 ES SN;VIANA;-20.357247900;-40.418983200;G0;ESVIA-I01SP171;ESVIA-I01SP171-SS6
EQP0000000004732744;I01G0108;CTO SPLITTER 1 8;ESVIA_G1I01;RUA JOAO EVANGELISTA VIANA UNIVERSAL 29134427 ES SN;VIANA;-20.361134800;-40.444720700;G0;ESVIA-I01SP14;ESVIA-I01SP14-SS4
EQP0000000004623265;I01G01392;CTO SPLITTER 1 8;ESVIA_G1I01;AVENIDA MINAS GERAIS VIANA MARCILIO DE NORONHA 29135504 ES QD19-LT10;VIANA;-20.341225200;-40.422657700;G0;ESVIA-I01SP174;ESVIA-I01SP174-SS8
EQP0000000004681983;I01G01189;CTO SPLITTER 1 8;ESVIA_G1I01;RUA JONES DOS SANTOS NEVES VIANA VILA BETHANIA 29136117 ES 5;VIANA;-20.362070600;-40.405100500;G0;ESVIA-I01SP149;ESVIA-I01SP149-SS5
EQP0000000004702582;I01G01163;CTO SPLITTER 1 8;ESVIA_G1I01;RUA DOMINGOS VICENTE VIANA VILA BETHANIA 29136114 ES 60;VIANA;-20.361355400;-40.408767700;G0;ESVIA-I01SP146;ESVIA-I01SP146-SS3
EQP0000000004740250;I01G0223;CTO SPLITTER 1 8;ESVIA_G1I01;RUA PRIMAVERA VIANA CANAA 29135103 ES SN;VIANA;-20.356767500;-40.434050000;G0;ESVIA-I01SP28;ESVIA-I01SP28-SS7
EQP0000000004541814;I01G01549;CTO SPLITTER 1 8;ESVIA_G1I01;RUA DIADEMA VIANA MARCILIO DE NORONHA 29135384 ES QD51-LT15;VIANA;-20.346607700;-40.426955400;G0;ESVIA-I01SP194;ESVIA-I01SP194-SS5
EQP0000000004720727;I01G0163;CTO SPLITTER 1 8;ESVIA_G1I01;RUA RESPLENDOR VIANA CANAA 29135056 ES SN;VIANA;-20.360108200;-40.437499300;G0;ESVIA-I01SP21;ESVIA-I01SP21-SS3
EQP0000000004516831;I01G01614;CTO SPLITTER 1 8;ESVIA_G1I01;AVENIDA ESPIRITO SANTO VIANA MARCILIO DE NORONHA 29135508 ES SN;VIANA;-20.346406400;-40.424188500;G0;ESVIA-I01SP202;ESVIA-I01SP202-SS6
EQP0000000004725134;I01G0133;CTO SPLITTER 1 8;ESVIA_G1I01;RUA MUTUM VIANA CANAA 29135053 ES 38;VIANA;-20.356265400;-40.438448700;G0;ESVIA-I01SP17;ESVIA-I01SP17-SS5
EQP0000000004737452;I01G0100;CTO SPLITTER 1 8;ESVIA_G1I01;RUA NOSSA SENHORA AUXILIADORA VIANA UNIVERSAL 29134433 ES 26;VIANA;-20.361110500;-40.447024800;G0;ESVIA-I01SP13;ESVIA-I01SP13-SS4
EQP0000000004493171;I01G01677;CTO SPLITTER 1 8;ESVIA_G1I01;RUA COLATINA VIANA MARCILIO DE NORONHA 29135644 ES QD1-LT44;VIANA;-20.350707100;-40.423293000;G0;ESVIA-I01SP210;ESVIA-I01SP210-SS5
EQP0000000004706731;I01G0323;CTO SPLITTER 1 8;ESVIA_G1I01;RUA JOSE MARCELINO DE MELO VIANA PRIMAVERA 29135228 ES SN;VIANA;-20.352076400;-40.430262000;G0;ESVIA-I01SP41;ESVIA-I01SP41-SS3
EQP0000000004535731;I01G01559;CTO SPLITTER 1 8;ESVIA_G1I01;RUA OSASCO VIANA MARCILIO DE NORONHA 29135407 ES QD51-LT30;VIANA;-20.345319300;-40.427318600;G0;ESVIA-I01SP195;ESVIA-I01SP195-SS7
EQP0000000128462059;I01GP1325;MINI CDOE 1:2 + 1:8 PRECON SELADA 60/40;ESVIA_G1I01;RUA SANTA HELENA VIANA VILA BETHANIA 29136013 ES 281;VIANA;-20.356140400;-40.410471300;GP;ESVIA-I01SP166;ESVIA-I01SP166-SS5
EQP0000000004492569;I01G01690;CTO SPLITTER 1 8;ESVIA_G1I01;RUA BARRA DE SAO FRANCISCO VIANA MARCILIO DE NORONHA 29135632 ES QD4-LT33;VIANA;-20.346513800;-40.423144900;G0;ESVIA-I01SP212;ESVIA-I01SP212-SS2
EQP0000000004778919;I01G0187;CTO SPLITTER 1 8;ESVIA_G1I01;RUA TANCREDO DE ALMEIDA NEVES VIANA CANAA 29135004 ES 7;VIANA;-20.361456000;-40.438563500;G0;ESVIA-I01SP24;ESVIA-I01SP24-SS3
EQP0000000004684778;I01G01207;CTO SPLITTER 1 8;ESVIA_G1I01;RUA SANTA HELENA VIANA VILA BETHANIA 29136013 ES 89;VIANA;-20.359426200;-40.405634300;G0;ESVIA-I01SP151;ESVIA-I01SP151-SS7
EQP0000000004621795;I01G01437;CTO SPLITTER 1 8;ESVIA_G1I01;RUA AMAPA VIANA MARCILIO DE NORONHA 29135560 ES SN;VIANA;-20.344422600;-40.420436100;G0;ESVIA-I01SP180;ESVIA-I01SP180-SS5
EQP0000000004709785;I01G0311;CTO SPLITTER 1 8;ESVIA_G1I01;AVENIDA PRIMAVERA VIANA MARCILIO DE NORONHA 29135365 ES SN;VIANA;-20.350200800;-40.424976500;G0;ESVIA-I01SP39;ESVIA-I01SP39-SS7
EQP0000000004622384;I01G01522;CTO SPLITTER 1 8;ESVIA_G1I01;RUA OSASCO VIANA MARCILIO DE NORONHA 29135407 ES QD52-LT26;VIANA;-20.347380600;-40.427315200;G0;ESVIA-I01SP191;ESVIA-I01SP191-SS2
EQP0000000004476047;I01G01743;CTO SPLITTER 1 8;ESVIA_G1I01;RUA FRANCISCO LACERDA DE AGUIAR VIANA PRIMAVERA 29135183 ES 100;VIANA;-20.355145100;-40.423665200;G0;ESVIA-I01SP218;ESVIA-I01SP218-SS7
EQP0000000004686884;I01G01183;CTO SPLITTER 1 8;ESVIA_G1I01;RUA MINAS GERAIS VIANA VILA BETHANIA 29136092 ES 76;VIANA;-20.361269900;-40.406334600;G0;ESVIA-I01SP148;ESVIA-I01SP148-SS7
EQP0000000004777122;I01G0205;CTO SPLITTER 1 8;ESVIA_G1I01;RODOVIA GOVERNADOR MARIO COVAS VIANA CANAA 29135001 ES SN;VIANA;-20.360277100;-40.434576800;G0;ESVIA-I01SP26;ESVIA-I01SP26-SS5
EQP0000000004539463;I01G01541;CTO SPLITTER 1 8;ESVIA_G1I01;RUA CAMPOS DO JORDAO VIANA MARCILIO DE NORONHA 29135388 ES QD42-LT27;VIANA;-20.344467700;-40.426470500;G0;ESVIA-I01SP193;ESVIA-I01SP193-SS5
EQP0000000004744136;I01G0209;CTO SPLITTER 1 8;ESVIA_G1I01;RUA SANTOS DUMONT VIANA CANAA 29135026 ES SN;VIANA;-20.358948900;-40.436413600;G0;ESVIA-I01SP27;ESVIA-I01SP27-SS1
EQP0000000004476751;I01G01741;CTO SPLITTER 1 8;ESVIA_G1I01;RUA FRANCISCO LACERDA DE AGUIAR VIANA PRIMAVERA 29135183 ES SN;VIANA;-20.355121900;-40.422594000;G0;ESVIA-I01SP218;ESVIA-I01SP218-SS5
EQP0000000004695106;I01G0341;CTO SPLITTER 1 8;ESVIA_G1I01;RUA JOAO LOPES DE AQUINO VIANA PRIMAVERA 29135217 ES SN;VIANA;-20.351218800;-40.429209100;G0;ESVIA-I01SP43;ESVIA-I01SP43-SS5
EQP0000000004690419;I01G01175;CTO SPLITTER 1 8;ESVIA_G1I01;RUA MINAS GERAIS VIANA VILA BETHANIA 29136092 ES 99;VIANA;-20.362670400;-40.405782800;G0;ESVIA-I01SP147;ESVIA-I01SP147-SS7
EQP0000000004635662;I01G01368;CTO SPLITTER 1 8;ESVIA_G1I01;RUA ACEZILIO MARIANELLI VIANA VILA BETHANIA 29136020 ES SN;VIANA;-20.356277800;-40.416026000;G0;ESVIA-I01SP171;ESVIA-I01SP171-SS8
EQP0000000004620216;I01G01497;CTO SPLITTER 1 8;ESVIA_G1I01;AVENIDA SAO PAULO VIANA MARCILIO DE NORONHA 29135397 ES QD60-LT4;VIANA;-20.348354200;-40.427576600;G0;ESVIA-I01SP188;ESVIA-I01SP188-SS1
EQP0000000004531829;I01G01582;CTO SPLITTER 1 8;ESVIA_G1I01;RUA SOROCABA VIANA MARCILIO DE NORONHA 29135372 ES QD33-LT22;VIANA;-20.345745000;-40.425176700;G0;ESVIA-I01SP198;ESVIA-I01SP198-SS6
EQP0000000004730204;I01G0244;CTO SPLITTER 1 8;ESVIA_G1I01;RUA HORTENSIAS VIANA CANAA 29135100 ES 8;VIANA;-20.358573300;-40.436828400;G0;ESVIA-I01SP31;ESVIA-I01SP31-SS4
EQP0000000004703915;I01G01157;CTO SPLITTER 1 8;ESVIA_G1I01;RUA DOMINGOS VICENTE VIANA VILA BETHANIA 29136114 ES 17;VIANA;-20.362473200;-40.407302000;G0;ESVIA-I01SP145;ESVIA-I01SP145-SS5
EQP0000000004743731;I01G0210;CTO SPLITTER 1 8;ESVIA_G1I01;RUA SANTOS DUMONT VIANA CANAA 29135026 ES 57;VIANA;-20.358497100;-40.435911400;G0;ESVIA-I01SP27;ESVIA-I01SP27-SS2
EQP0000000004735743;I01G0236;CTO SPLITTER 1 8;ESVIA_G1I01;RUA FONTE LIMPA VIANA CANAA 29135041 ES SN;VIANA;-20.358482100;-40.438214800;G0;ESVIA-I01SP30;ESVIA-I01SP30-SS4
EQP0000000004658170;I01G01285;CTO SPLITTER 1 8;ESVIA_G1I01;RUA NOSSA SENHORA DE FATIMA VIANA ARLINDO VILLASCHI 29136218 ES SN1;VIANA;-20.361720100;-40.410875500;G0;ESVIA-I01SP161;ESVIA-I01SP161-SS5
EQP0000000004665361;I01G01246;CTO SPLITTER 1 8;ESVIA_G1I01;RUA PARANA VIANA VILA BETHANIA 29136076 ES 24;VIANA;-20.359325500;-40.409695500;G0;ESVIA-I01SP156;ESVIA-I01SP156-SS6
EQP0000000004724541;I01G0255;CTO SPLITTER 1 8;ESVIA_G1I01;AVENIDA VITORIA VIANA MARCILIO DE NORONHA 29135368 ES SN;VIANA;-20.348014300;-40.424786300;G0;ESVIA-I01SP32;ESVIA-I01SP32-SS7
EQP0000000004727541;I01G0140;CTO SPLITTER 1 8;ESVIA_G1I01;RUA BOA SORTE VIANA CANAA 29135047 ES SN;VIANA;-20.356633700;-40.437541800;G0;ESVIA-I01SP18;ESVIA-I01SP18-SS4
EQP0000000004677284;I01G01237;CTO SPLITTER 1 8;ESVIA_G1I01;RUA SAO JOAO VIANA VILA BETHANIA 29136150 ES 166;VIANA;-20.359185000;-40.411059000;G0;ESVIA-I01SP155;ESVIA-I01SP155-SS5
EQP0000000004718115;I01G0157;CTO SPLITTER 1 8;ESVIA_G1I01;RUA CENTRAL VIANA CANAA 29135038 ES 23;VIANA;-20.358396300;-40.438424000;G0;ESVIA-I01SP20;ESVIA-I01SP20-SS5
EQP0000000004721674;I01G0161;CTO SPLITTER 1 8;ESVIA_G1I01;RUA SANTOS DUMONT VIANA CANAA 29135026 ES 42;VIANA;-20.359169100;-40.436661200;G0;ESVIA-I01SP21;ESVIA-I01SP21-SS1
EQP0000000004670000;I01G01266;CTO SPLITTER 1 8;ESVIA_G1I01;AVENIDA ESPIRITO SANTO VIANA VILA BETHANIA 29136096 ES SN;VIANA;-20.358109500;-40.406967400;G0;ESVIA-I01SP159;ESVIA-I01SP159-SS2
EQP0000000004648209;I01G01304;CTO SPLITTER 1 8;ESVIA_G1I01;RUA LUIZA CAZOTTI VIANA VILA BETHANIA 29136030 ES 86;VIANA;-20.357690600;-40.412265600;G0;ESVIA-I01SP163;ESVIA-I01SP163-SS8
EQP0000000004777450;I01G0065;CTO SPLITTER 1 8;ESVIA_G1I01;AVENIDA LINHARES VIANA UNIVERSAL 29134494 ES SN;VIANA;-20.360250000;-40.448857800;G0;ESVIA-I01SP9;ESVIA-I01SP9-SS1
EQP0000000004729709;I01G0127;CTO SPLITTER 1 8;ESVIA_G1I01;RODOVIA GOVERNADOR MARIO COVAS VIANA CANAA 29135001 ES SN;VIANA;-20.362482100;-40.441126400;G0;ESVIA-I01SP16;ESVIA-I01SP16-SS7
EQP0000000004641952;I01G01372;CTO SPLITTER 1 8;ESVIA_G1I01;RODOVIA GOVERNADOR MARIO COVAS VIANA MARCILIO DE NORONHA 29135320 ES 310;VIANA;-20.351293800;-40.413917100;G0;ESVIA-I01SP172;ESVIA-I01SP172-SS4
EQP0000000004621862;I01G01528;CTO SPLITTER 1 8;ESVIA_G1I01;AVENIDA PIRACICABA VIANA MARCILIO DE NORONHA 29135391 ES SN;VIANA;-20.346661300;-40.427794800;G0;ESVIA-I01SP191;ESVIA-I01SP191-SS8
EQP0000000004726245;I01G01221;CTO SPLITTER 1 8;ESVIA_G1I01;AVENIDA ESPIRITO SANTO VIANA VILA BETHANIA 29136096 ES 43;VIANA;-20.359215300;-40.406525700;G0;ESVIA-I01SP153;ESVIA-I01SP153-SS5
EQP0000000004540414;I01G01472;CTO SPLITTER 1 8;ESVIA_G1I01;RUA SAO FRANCISCO VIANA MARCILIO DE NORONHA 29135596 ES SN;VIANA;-20.345776300;-40.421722400;G0;ESVIA-I01SP184;ESVIA-I01SP184-SS8
EQP0000000004668332;I01G01263;CTO SPLITTER 1 8;ESVIA_G1I01;RUA JERONIMO MONTEIRO VIANA VILA BETHANIA 29136079 ES 13;VIANA;-20.358368200;-40.408934000;G0;ESVIA-I01SP158;ESVIA-I01SP158-SS7
EQP0000000004639381;I01G01373;CTO SPLITTER 1 8;ESVIA_G1I01;RODOVIA GOVERNADOR MARIO COVAS VIANA MARCILIO DE NORONHA 29135320 ES SN;VIANA;-20.353743700;-40.416126000;G0;ESVIA-I01SP172;ESVIA-I01SP172-SS5
EQP0000000004656258;I01G01295;CTO SPLITTER 1 8;ESVIA_G1I01;AVENIDA SANTA CLARA VIANA VILA BETHANIA 29136138 ES SN;VIANA;-20.357341300;-40.414541400;G0;ESVIA-I01SP162;ESVIA-I01SP162-SS7
EQP0000000004636370;I01G01365;CTO SPLITTER 1 8;ESVIA_G1I01;RODOVIA GOVERNADOR MARIO COVAS VIANA CAXIAS DO SUL 29136350 ES SN;VIANA;-20.358069000;-40.420147000;G0;ESVIA-I01SP171;ESVIA-I01SP171-SS5
EQP0000000004707303;I01G0364;CTO SPLITTER 1 8;ESVIA_G1I01;RUA ALTIVA DA SILVA BRESSIANI VIANA PRIMAVERA 29135224 ES 3;VIANA;-20.355963000;-40.427795400;G0;ESVIA-I01SP46;ESVIA-I01SP46-SS4
EQP0000000004726612;I01G0129;CTO SPLITTER 1 8;ESVIA_G1I01;RUA FRANCISCO VIANA CANAA 29135060 ES 10;VIANA;-20.356218000;-40.436428900;G0;ESVIA-I01SP17;ESVIA-I01SP17-SS1
EQP0000000142624072;I01GP1481;MINI CDOE 1:2 + 1:8 PRECON SELADA 60/40;ESVIA_G1I01;AVENIDA BENJAMIM VITORIO VIANA INDUSTRIAL 29135563 ES 6;VIANA;-20.346210600;-40.422389000;GP;ESVIA-I01SP186;ESVIA-I01SP186-SS1
EQP0000000004658545;I01G01284;CTO SPLITTER 1 8;;RUA NOSSA SENHORA APARECIDA VIANA ARLINDO VILLASCHI 29136209 ES SN;VIANA;-20.361275600;-40.411557200;G0;;S8_1
EQP0000000004740793;I01G0090;CTO SPLITTER 1 8;ESVIA_G1I01;RUA DUQUE DE CAXIAS VIANA UNIVERSAL 29134695 ES 6;VIANA;-20.357445000;-40.446722200;G0;ESVIA-I01SP12;ESVIA-I01SP12-SS2
EQP0000000004709541;I01G0298;CTO SPLITTER 1 8;ESVIA_G1I01;RUA SEM NOME VIANA VIANA 29135000 ES 128;VIANA;-20.349244500;-40.429850500;G0;ESVIA-I01SP38;ESVIA-I01SP38-SS2
EQP0000000004679273;I01G01222;CTO SPLITTER 1 8;ESVIA_G1I01;RUA MINAS GERAIS VIANA VILA BETHANIA 29136092 ES 60;VIANA;-20.359964600;-40.406910900;G0;ESVIA-I01SP153;ESVIA-I01SP153-SS6
EQP0000000004482229;I01G01728;CTO SPLITTER 1 8;ESVIA_G1I01;AVENIDA ESPIRITO SANTO VIANA MARCILIO DE NORONHA 29135508 ES 528;VIANA;-20.352790200;-40.422123000;G0;ESVIA-I01SP216;ESVIA-I01SP216-SS8
EQP0000000004748963;I01G0026;CTO SPLITTER 1 8;ESVIA_G1I01;RUA GETULIO VARGAS VIANA UNIVERSAL 29134676 ES SN;VIANA;-20.356180000;-40.445921400;G0;ESVIA-I01SP4;ESVIA-I01SP4-SS2
EQP0000000004667285;I01G01242;CTO SPLITTER 1 8;ESVIA_G1I01;RUA JERONIMO MONTEIRO VIANA VILA BETHANIA 29136079 ES 7;VIANA;-20.359250200;-40.408614700;G0;ESVIA-I01SP156;ESVIA-I01SP156-SS2
EQP0000000004652798;I01G01358;CTO SPLITTER 1 8;ESVIA_G1I01;RUA ACEZILIO MARIANELLI VIANA VILA BETHANIA 29136020 ES SN;VIANA;-20.357081000;-40.409938500;G0;ESVIA-I01SP170;ESVIA-I01SP170-SS6
EQP0000000004749757;I01G0080;CTO SPLITTER 1 8;ESVIA_G1I01;RUA CARLOS ALBERTO NASCIMENTO VIANA UNIVERSAL 29134457 ES SN;VIANA;-20.359546300;-40.446795300;G0;ESVIA-I01SP10;ESVIA-I01SP10-SS8
EQP0000000004710900;I01G0309;CTO SPLITTER 1 8;ESVIA_G1I01;RUA PELOTAS VIANA MARCILIO DE NORONHA 29135359 ES QD24-LT16;VIANA;-20.350984800;-40.424719500;G0;ESVIA-I01SP39;ESVIA-I01SP39-SS5
EQP0000000004631113;I01G01399;CTO SPLITTER 1 8;ESVIA_G1I01;RUA SAO JOAO VIANA MARCILIO DE NORONHA 29135000 ES QD16-LT7;VIANA;-20.340842600;-40.422598900;G0;ESVIA-I01SP175;ESVIA-I01SP175-SS7
EQP0000000004641408;I01G01371;CTO SPLITTER 1 8;ESVIA_G1I01;RODOVIA GOVERNADOR MARIO COVAS VIANA MARCILIO DE NORONHA 29135320 ES 310;VIANA;-20.349869500;-40.412868600;G0;ESVIA-I01SP172;ESVIA-I01SP172-SS3
EQP0000000004664844;I01G01248;CTO SPLITTER 1 8;ESVIA_G1I01;RUA OLIVAL PIMENTEL VIANA VILA BETHANIA 29136073 ES 2;VIANA;-20.358338400;-40.409577900;G0;ESVIA-I01SP156;ESVIA-I01SP156-SS8
EQP0000000004679649;I01G01220;CTO SPLITTER 1 8;ESVIA_G1I01;AVENIDA ESPIRITO SANTO VIANA VILA BETHANIA 29136096 ES 57;VIANA;-20.359722900;-40.406327900;G0;ESVIA-I01SP153;ESVIA-I01SP153-SS4
EQP0000000004517239;I01G01615;CTO SPLITTER 1 8;ESVIA_G1I01;AVENIDA ESPIRITO SANTO VIANA MARCILIO DE NORONHA 29135508 ES SN;VIANA;-20.345592500;-40.424175000;G0;ESVIA-I01SP202;ESVIA-I01SP202-SS7
EQP0000000004628065;I01G01382;CTO SPLITTER 1 8;ESVIA_G1I01;AVENIDA MINAS GERAIS VIANA MARCILIO DE NORONHA 29135504 ES 1111;VIANA;-20.341234400;-40.424475800;G0;ESVIA-I01SP173;ESVIA-I01SP173-SS6
EQP0000000004668530;I01G01269;CTO SPLITTER 1 8;ESVIA_G1I01;RUA MINAS GERAIS VIANA VILA BETHANIA 29136092 ES 9;VIANA;-20.357493800;-40.407580800;G0;ESVIA-I01SP159;ESVIA-I01SP159-SS5
EQP0000000004516195;I01G01618;CTO SPLITTER 1 8;;RUA CACHOEIRO DE ITAPEMIRIM VIANA MARCILIO DE NORONHA 29135533 ES QD12-LT2;VIANA;-20.342483900;-40.423474600;G0;;S8_1
EQP0000000004729511;I01G0128;CTO SPLITTER 1 8;ESVIA_G1I01;RODOVIA GOVERNADOR MARIO COVAS VIANA UNIVERSAL 29134400 ES SN;VIANA;-20.363491300;-40.442971900;G0;ESVIA-I01SP16;ESVIA-I01SP16-SS8
EQP0000000004779587;I01G0003;CTO SPLITTER 1 8;;RUA DIAMANTINA VIANA UNIVERSAL 29134598 ES SN;VIANA;-20.356759300;-40.453821100;G0;;S8_1
EQP0000000004622140;I01G01527;CTO SPLITTER 1 8;ESVIA_G1I01;RUA SANTOS VIANA MARCILIO DE NORONHA 29135410 ES QD55-LT11;VIANA;-20.347751000;-40.427809800;G0;ESVIA-I01SP191;ESVIA-I01SP191-SS7
EQP0000000004496221;I01G01671;CTO SPLITTER 1 8;ESVIA_G1I01;RUA ARACRUZ VIANA MARCILIO DE NORONHA 29135635 ES QD5-LT13;VIANA;-20.348986500;-40.422737200;G0;ESVIA-I01SP209;ESVIA-I01SP209-SS7
EQP0000000004666833;I01G01273;CTO SPLITTER 1 8;ESVIA_G1I01;RUA SANTA HELENA VIANA VILA BETHANIA 29136013 ES 44;VIANA;-20.357936100;-40.406629500;G0;ESVIA-I01SP160;ESVIA-I01SP160-SS1
EQP0000000004541142;I01G01537;CTO SPLITTER 1 8;ESVIA_G1I01;RUA CAMPINAS VIANA MARCILIO DE NORONHA 29135394 ES QD42-LT1;VIANA;-20.344050200;-40.426088000;G0;ESVIA-I01SP193;ESVIA-I01SP193-SS1
EQP0000000004654980;I01G01353;CTO SPLITTER 1 8;ESVIA_G1I01;RODOVIA GOVERNADOR MARIO COVAS VIANA VILA BETHANIA 29136010 ES 334;VIANA;-20.353420400;-40.415113100;G0;ESVIA-I01SP170;ESVIA-I01SP170-SS1
EQP0000000004648712;I01G01303;CTO SPLITTER 1 8;ESVIA_G1I01;RUA LUIZA CAZOTTI VIANA VILA BETHANIA 29136030 ES 12;VIANA;-20.357724700;-40.412338700;G0;ESVIA-I01SP163;ESVIA-I01SP163-SS7
EQP0000000004625626;I01G01423;CTO SPLITTER 1 8;ESVIA_G1I01;AVENIDA ANTONIO FREIRE VIANA MARCILIO DE NORONHA 29135323 ES 22;VIANA;-20.340798200;-40.420371700;G0;ESVIA-I01SP178;ESVIA-I01SP178-SS7
EQP0000000142614612;I01GP1485;MINI CDOE 1:2 + 1:8 PRECON SELADA 60/40;ESVIA_G1I01;AVENIDA BENJAMIM VITORIO VIANA INDUSTRIAL 29135563 ES 6;VIANA;-20.345773800;-40.422548300;GP;ESVIA-I01SP186;ESVIA-I01SP186-SS5
EQP0000000142623629;I01GP1482;MINI CDOE 1:2 + 1:8 PRECON SELADA 60/40;ESVIA_G1I01;AVENIDA BENJAMIM VITORIO VIANA INDUSTRIAL 29135563 ES 6;VIANA;-20.346210600;-40.422389000;GP;ESVIA-I01SP186;ESVIA-I01SP186-SS2
EQP0000000004670318;I01G01258;CTO SPLITTER 1 8;ESVIA_G1I01;RUA ARTHUR BERNARDES VIANA VILA BETHANIA 29136082 ES 10;VIANA;-20.359600600;-40.407738200;G0;ESVIA-I01SP158;ESVIA-I01SP158-SS2
EQP0000000128455329;I01GP1314;MINI CDOE 1:2 + 1:8 PRECON SELADA 60/40;ESVIA_G1I01;RUA SANTA HELENA VIANA VILA BETHANIA 29136013 ES 281;VIANA;-20.355326100;-40.410927400;GP;ESVIA-I01SP165;ESVIA-I01SP165-SS2
EQP0000000004706938;I01G0367;CTO SPLITTER 1 8;ESVIA_G1I01;RUA SEM NOME VIANA VIANA 29135000 ES SN;VIANA;-20.356616600;-40.425665700;G0;ESVIA-I01SP46;ESVIA-I01SP46-SS7
EQP0000000004703666;I01G01158;CTO SPLITTER 1 8;ESVIA_G1I01;RUA DOMINGOS VICENTE VIANA VILA BETHANIA 29136114 ES 3;VIANA;-20.361993600;-40.407427900;G0;ESVIA-I01SP145;ESVIA-I01SP145-SS6
EQP0000000004687224;I01G01182;CTO SPLITTER 1 8;ESVIA_G1I01;RUA CORONEL NUNES FERREIRA VIANA VILA BETHANIA 29136111 ES SN;VIANA;-20.360988900;-40.406834600;G0;ESVIA-I01SP148;ESVIA-I01SP148-SS6
EQP0000000004681751;I01G01190;CTO SPLITTER 1 8;ESVIA_G1I01;RUA GETULIO VARGAS VIANA UNIVERSAL 29134676 ES 5;VIANA;-20.361825100;-40.405418800;G0;ESVIA-I01SP149;ESVIA-I01SP149-SS6
EQP0000000004653902;I01G01355;CTO SPLITTER 1 8;ESVIA_G1I01;RUA ACEZILIO MARIANELLI VIANA VILA BETHANIA 29136020 ES 779;VIANA;-20.355808000;-40.413326400;G0;ESVIA-I01SP170;ESVIA-I01SP170-SS3
EQP0000000004650943;I01G01360;CTO SPLITTER 1 8;ESVIA_G1I01;RUA SANTA HELENA VIANA VILA BETHANIA 29136013 ES SN;VIANA;-20.354406300;-40.408643100;G0;ESVIA-I01SP170;ESVIA-I01SP170-SS8
EQP0000000004702489;I01G0345;CTO SPLITTER 1 8;ESVIA_G1I01;RUA IRINEU GASPARINI VIANA PRIMAVERA 29135231 ES 5;VIANA;-20.354702900;-40.429649500;G0;ESVIA-I01SP44;ESVIA-I01SP44-SS1
EQP0000000004686454;I01G01184;CTO SPLITTER 1 8;ESVIA_G1I01;RUA MINAS GERAIS VIANA VILA BETHANIA 29136092 ES 85;VIANA;-20.361894000;-40.406095500;G0;ESVIA-I01SP148;ESVIA-I01SP148-SS8
EQP0000000004473300;I01G01748;CTO SPLITTER 1 8;ESVIA_G1I01;RUA BAJE VIANA MARCILIO DE NORONHA 29135356 ES 30;VIANA;-20.352647500;-40.427581100;G0;ESVIA-I01SP219;ESVIA-I01SP219-SS4
EQP0000000004642307;I01G01370;CTO SPLITTER 1 8;ESVIA_G1I01;RODOVIA GOVERNADOR MARIO COVAS VIANA MARCILIO DE NORONHA 29135320 ES SN;VIANA;-20.347400900;-40.411759100;G0;ESVIA-I01SP172;ESVIA-I01SP172-SS2
EQP0000000004707887;I01G0362;CTO SPLITTER 1 8;ESVIA_G1I01;RODOVIA GOVERNADOR MARIO COVAS VIANA PRIMAVERA 29135160 ES SN;VIANA;-20.357833700;-40.425703300;G0;ESVIA-I01SP46;ESVIA-I01SP46-SS2
EQP0000000004635318;I01G01367;CTO SPLITTER 1 8;ESVIA_G1I01;RODOVIA GOVERNADOR MARIO COVAS VIANA CAXIAS DO SUL 29136350 ES SN;VIANA;-20.355520600;-40.417226700;G0;ESVIA-I01SP171;ESVIA-I01SP171-SS7
EQP0000000004719922;I01G0166;CTO SPLITTER 1 8;ESVIA_G1I01;RUA RESPLENDOR VIANA CANAA 29135056 ES 266;VIANA;-20.359926400;-40.437669000;G0;ESVIA-I01SP21;ESVIA-I01SP21-SS6
EQP0000000004684191;I01G01206;CTO SPLITTER 1 8;ESVIA_G1I01;RUA SANTA HELENA VIANA VILA BETHANIA 29136013 ES 105;VIANA;-20.360029700;-40.405467000;G0;ESVIA-I01SP151;ESVIA-I01SP151-SS6
EQP0000000004638867;I01G01374;CTO SPLITTER 1 8;ESVIA_G1I01;AVENIDA ANTONIO FREIRE VIANA MARCILIO DE NORONHA 29135323 ES SN;VIANA;-20.351774200;-40.418120700;G0;ESVIA-I01SP172;ESVIA-I01SP172-SS6
EQP0000000004777608;I01G0020;CTO SPLITTER 1 8;ESVIA_G1I01;RUA EVARISTO CANAL VIANA UNIVERSAL 29134513 ES 9;VIANA;-20.359920200;-40.450706400;G0;ESVIA-I01SP3;ESVIA-I01SP3-SS4
;;;;;;;;;;
;;;;;;;;;;
;;;;;;;;;;
;;;;;;;;;;
;;;;;;;;;;
;;;;;;;;;;
;;;;;;;;;;
;;;;;;;;;;
;;;;;;;;;;
;;;;;;;;;;
;;;;;;;;;;
;;;;;;;;;;
;;;;;;;;;;
;;;;;;;;;;
;;;;;;;;;;
;;;;;;;;;;
;;;;;;;;;;
;;;;;;;;;;
;;;;;;;;;;
;;;;;;;;;;
;;;;;;;;;;
;;;;;;;;;;
;;;;;;;;;;
;;;;;;;;;;
;;;;;;;;;;
;;;;;;;;;;
;;;;;;;;;;
;;;;;;;;;;
;;;;;;;;;;
;;;;;;;;;;
;;;;;;;;;;
;;;;;;;;;;
;;;;;;;;;;
;;;;;;;;;;
;;;;;;;;;;
;;;;;;;;;;
;;;;;;;;;;
;;;;;;;;;;
;;;;;;;;;;
;;;;;;;;;;
;;;;;;;;;;
;;;;;;;;;;
;;;;;;;;;;
;;;;;;;;;;
;;;;;;;;;;
;;;;;;;;;;
;;;;;;;;;;
;;;;;;;;;;
;;;;;;;;;;
;;;;;;;;;;
;;;;;;;;;;
;;;;;;;;;;
;;;;;;;;;;
;;;;;;;;;;
;;;;;;;;;;
;;;;;;;;;;
;;;;;;;;;;
;;;;;;;;;;
;;;;;;;;;;
;;;;;;;;;;
;;;;;;;;;;
;;;;;;;;;;
;;;;;;;;;;
;;;;;;;;;;
;;;;;;;;;;
;;;;;;;;;;
;;;;;;;;;;
;;;;;;;;;;
;;;;;;;;;;
;;;;;;;;;;
;;;;;;;;;;
;;;;;;;;;;
;;;;;;;;;;
;;;;;;;;;;
;;;;;;;;;;
;;;;;;;;;;
;;;;;;;;;;
;;;;;;;;;;
;;;;;;;;;;
;;;;;;;;;;
;;;;;;;;;;
;;;;;;;;;;
;;;;;;;;;;
;;;;;;;;;;
;;;;;;;;;;
;;;;;;;;;;
;;;;;;;;;;
;;;;;;;;;;
;;;;;;;;;;
;;;;;;;;;;
;;;;;;;;;;
;;;;;;;;;;
;;;;;;;;;;
;;;;;;;;;;
;;;;;;;;;;
;;;;;;;;;;
;;;;;;;;;;
;;;;;;;;;;
;;;;;;;;;;
;;;;;;;;;;
;;;;;;;;;;
;;;;;;;;;;
;;;;;;;;;;
;;;;;;;;;;
;;;;;;;;;;
;;;;;;;;;;
;;;;;;;;;;
;;;;;;;;;;
;;;;;;;;;;
;;;;;;;;;;
;;;;;;;;;;
;;;;;;;;;;
;;;;;;;;;;
;;;;;;;;;;
;;;;;;;;;;
;;;;;;;;;;
;;;;;;;;;;
;;;;;;;;;;
;;;;;;;;;;
;;;;;;;;;;
;;;;;;;;;;
;;;;;;;;;;
;;;;;;;;;;
;;;;;;;;;;
;;;;;;;;;;
;;;;;;;;;;
;;;;;;;;;;
;;;;;;;;;;
;;;;;;;;;;
;;;;;;;;;;
;;;;;;;;;;
;;;;;;;;;;
;;;;;;;;;;
;;;;;;;;;;
;;;;;;;;;;
;;;;;;;;;;
;;;;;;;;;;
;;;;;;;;;;
;;;;;;;;;;
;;;;;;;;;;
;;;;;;;;;;
;;;;;;;;;;
;;;;;;;;;;
;;;;;;;;;;
;;;;;;;;;;
;;;;;;;;;;
;;;;;;;;;;
;;;;;;;;;;
;;;;;;;;;;
;;;;;;;;;;
;;;;;;;;;;
;;;;;;;;;;
;;;;;;;;;;
;;;;;;;;;;
;;;;;;;;;;
;;;;;;;;;;
;;;;;;;;;;
;;;;;;;;;;
;;;;;;;;;;
;;;;;;;;;;
;;;;;;;;;;
;;;;;;;;;;
;;;;;;;;;;
;;;;;;;;;;
;;;;;;;;;;
;;;;;;;;;;
;;;;;;;;;;
;;;;;;;;;;
;;;;;;;;;;
;;;;;;;;;;
;;;;;;;;;;
;;;;;;;;;;
;;;;;;;;;;
;;;;;;;;;;
;;;;;;;;;;
;;;;;;;;;;
;;;;;;;;;;
;;;;;;;;;;
;;;;;;;;;;
;;;;;;;;;;
;;;;;;;;;;
;;;;;;;;;;
;;;;;;;;;;
;;;;;;;;;;
;;;;;;;;;;
;;;;;;;;;;
;;;;;;;;;;
;;;;;;;;;;
;;;;;;;;;;
;;;;;;;;;;
;;;;;;;;;;
;;;;;;;;;;
;;;;;;;;;;
;;;;;;;;;;
;;;;;;;;;;
;;;;;;;;;;
;;;;;;;;;;
;;;;;;;;;;
;;;;;;;;;;
;;;;;;;;;;
;;;;;;;;;;
;;;;;;;;;;
;;;;;;;;;;
;;;;;;;;;;
;;;;;;;;;;
;;;;;;;;;;
;;;;;;;;;;
;;;;;;;;;;
;;;;;;;;;;
;;;;;;;;;;
;;;;;;;;;;
;;;;;;;;;;
;;;;;;;;;;
;;;;;;;;;;
;;;;;;;;;;
;;;;;;;;;;
;;;;;;;;;;
;;;;;;;;;;
;;;;;;;;;;
;;;;;;;;;;
;;;;;;;;;;
;;;;;;;;;;
;;;;;;;;;;
;;;;;;;;;;
;;;;;;;;;;
;;;;;;;;;;
;;;;;;;;;;
;;;;;;;;;;
;;;;;;;;;;
;;;;;;;;;;
;;;;;;;;;;
;;;;;;;;;;
;;;;;;;;;;
;;;;;;;;;;
;;;;;;;;;;
;;;;;;;;;;
;;;;;;;;;;
;;;;;;;;;;
;;;;;;;;;;
;;;;;;;;;;
;;;;;;;;;;
;;;;;;;;;;
;;;;;;;;;;
;;;;;;;;;;
;;;;;;;;;;
;;;;;;;;;;
;;;;;;;;;;
;;;;;;;;;;
;;;;;;;;;;
;;;;;;;;;;
;;;;;;;;;;
;;;;;;;;;;
;;;;;;;;;;
;;;;;;;;;;
;;;;;;;;;;
;;;;;;;;;;
;;;;;;;;;;
;;;;;;;;;;
;;;;;;;;;;
;;;;;;;;;;
;;;;;;;;;;
;;;;;;;;;;
;;;;;;;;;;
;;;;;;;;;;
;;;;;;;;;;
;;;;;;;;;;
;;;;;;;;;;
;;;;;;;;;;
;;;;;;;;;;
;;;;;;;;;;
;;;;;;;;;;
;;;;;;;;;;
;;;;;;;;;;
;;;;;;;;;;
;;;;;;;;;;
;;;;;;;;;;
;;;;;;;;;;
;;;;;;;;;;
;;;;;;;;;;
;;;;;;;;;;
;;;;;;;;;;
;;;;;;;;;;
;;;;;;;;;;
;;;;;;;;;;
;;;;;;;;;;
;;;;;;;;;;
;;;;;;;;;;
;;;;;;;;;;
;;;;;;;;;;
;;;;;;;;;;
;;;;;;;;;;
;;;;;;;;;;
;;;;;;;;;;
;;;;;;;;;;
;;;;;;;;;;
;;;;;;;;;;
;;;;;;;;;;
;;;;;;;;;;
;;;;;;;;;;
;;;;;;;;;;
;;;;;;;;;;
;;;;;;;;;;
;;;;;;;;;;
;;;;;;;;;;
;;;;;;;;;;
;;;;;;;;;;
;;;;;;;;;;
;;;;;;;;;;
;;;;;;;;;;
;;;;;;;;;;
;;;;;;;;;;
;;;;;;;;;;
;;;;;;;;;;
;;;;;;;;;;
;;;;;;;;;;
;;;;;;;;;;
;;;;;;;;;;
;;;;;;;;;;
;;;;;;;;;;
;;;;;;;;;;
;;;;;;;;;;
;;;;;;;;;;
;;;;;;;;;;
;;;;;;;;;;
;;;;;;;;;;
;;;;;;;;;;
;;;;;;;;;;
;;;;;;;;;;
;;;;;;;;;;
;;;;;;;;;;
;;;;;;;;;;
;;;;;;;;;;
;;;;;;;;;;
;;;;;;;;;;
;;;;;;;;;;
;;;;;;;;;;
;;;;;;;;;;
;;;;;;;;;;
;;;;;;;;;;
;;;;;;;;;;
;;;;;;;;;;
;;;;;;;;;;
;;;;;;;;;;
;;;;;;;;;;
;;;;;;;;;;
;;;;;;;;;;
;;;;;;;;;;
;;;;;;;;;;
;;;;;;;;;;
;;;;;;;;;;
;;;;;;;;;;
;;;;;;;;;;
;;;;;;;;;;
;;;;;;;;;;
;;;;;;;;;;
;;;;;;;;;;
;;;;;;;;;;
;;;;;;;;;;
;;;;;;;;;;
;;;;;;;;;;
;;;;;;;;;;
;;;;;;;;;;
;;;;;;;;;;
;;;;;;;;;;
;;;;;;;;;;
;;;;;;;;;;
;;;;;;;;;;
;;;;;;;;;;
;;;;;;;;;;
;;;;;;;;;;
;;;;;;;;;;
;;;;;;;;;;
;;;;;;;;;;
;;;;;;;;;;
;;;;;;;;;;
;;;;;;;;;;
;;;;;;;;;;
;;;;;;;;;;
;;;;;;;;;;
;;;;;;;;;;
;;;;;;;;;;
;;;;;;;;;;
;;;;;;;;;;
;;;;;;;;;;
;;;;;;;;;;
;;;;;;;;;;
;;;;;;;;;;
;;;;;;;;;;
;;;;;;;;;;
;;;;;;;;;;
;;;;;;;;;;
;;;;;;;;;;
;;;;;;;;;;
;;;;;;;;;;
;;;;;;;;;;
;;;;;;;;;;
;;;;;;;;;;
;;;;;;;;;;
;;;;;;;;;;
;;;;;;;;;;
;;;;;;;;;;
;;;;;;;;;;
;;;;;;;;;;
;;;;;;;;;;
;;;;;;;;;;
;;;;;;;;;;
;;;;;;;;;;
;;;;;;;;;;
;;;;;;;;;;
;;;;;;;;;;
;;;;;;;;;;
;;;;;;;;;;
;;;;;;;;;;
;;;;;;;;;;
;;;;;;;;;;
;;;;;;;;;;
;;;;;;;;;;
;;;;;;;;;;
;;;;;;;;;;
;;;;;;;;;;
;;;;;;;;;;
;;;;;;;;;;
;;;;;;;;;;
;;;;;;;;;;
;;;;;;;;;;
;;;;;;;;;;
;;;;;;;;;;
;;;;;;;;;;
;;;;;;;;;;
;;;;;;;;;;
;;;;;;;;;;
;;;;;;;;;;
;;;;;;;;;;
;;;;;;;;;;
;;;;;;;;;;
;;;;;;;;;;
;;;;;;;;;;
;;;;;;;;;;
;;;;;;;;;;
;;;;;;;;;;
;;;;;;;;;;
;;;;;;;;;;
;;;;;;;;;;
;;;;;;;;;;
;;;;;;;;;;
;;;;;;;;;;
;;;;;;;;;;
;;;;;;;;;;
;;;;;;;;;;
;;;;;;;;;;
;;;;;;;;;;
;;;;;;;;;;
;;;;;;;;;;
;;;;;;;;;;
;;;;;;;;;;
;;;;;;;;;;
;;;;;;;;;;
;;;;;;;;;;
;;;;;;;;;;
;;;;;;;;;;
;;;;;;;;;;
;;;;;;;;;;
;;;;;;;;;;
;;;;;;;;;;
;;;;;;;;;;
;;;;;;;;;;
;;;;;;;;;;
;;;;;;;;;;
;;;;;;;;;;
;;;;;;;;;;
;;;;;;;;;;
;;;;;;;;;;
;;;;;;;;;;
;;;;;;;;;;
;;;;;;;;;;
;;;;;;;;;;
;;;;;;;;;;
;;;;;;;;;;
;;;;;;;;;;
;;;;;;;;;;
;;;;;;;;;;
;;;;;;;;;;
;;;;;;;;;;
;;;;;;;;;;
;;;;;;;;;;
;;;;;;;;;;
;;;;;;;;;;
;;;;;;;;;;
;;;;;;;;;;
;;;;;;;;;;
;;;;;;;;;;
;;;;;;;;;;
;;;;;;;;;;
;;;;;;;;;;
;;;;;;;;;;
;;;;;;;;;;
;;;;;;;;;;
;;;;;;;;;;
;;;;;;;;;;
;;;;;;;;;;
;;;;;;;;;;
;;;;;;;;;;
;;;;;;;;;;
;;;;;;;;;;
;;;;;;;;;;
;;;;;;;;;;
;;;;;;;;;;
;;;;;;;;;;
;;;;;;;;;;
;;;;;;;;;;
;;;;;;;;;;
;;;;;;;;;;
;;;;;;;;;;
;;;;;;;;;;
;;;;;;;;;;
;;;;;;;;;;
;;;;;;;;;;
;;;;;;;;;;
;;;;;;;;;;
;;;;;;;;;;
;;;;;;;;;;
;;;;;;;;;;
;;;;;;;;;;
;;;;;;;;;;
;;;;;;;;;;
;;;;;;;;;;
;;;;;;;;;;
;;;;;;;;;;
;;;;;;;;;;
;;;;;;;;;;
;;;;;;;;;;
;;;;;;;;;;
;;;;;;;;;;
;;;;;;;;;;
;;;;;;;;;;
;;;;;;;;;;
;;;;;;;;;;
;;;;;;;;;;
;;;;;;;;;;
;;;;;;;;;;
;;;;;;;;;;
;;;;;;;;;;
;;;;;;;;;;
;;;;;;;;;;
;;;;;;;;;;
;;;;;;;;;;
;;;;;;;;;;
;;;;;;;;;;
;;;;;;;;;;
;;;;;;;;;;
;;;;;;;;;;
;;;;;;;;;;
;;;;;;;;;;
;;;;;;;;;;
;;;;;;;;;;
;;;;;;;;;;
;;;;;;;;;;
;;;;;;;;;;
;;;;;;;;;;
;;;;;;;;;;
;;;;;;;;;;
;;;;;;;;;;
;;;;;;;;;;
;;;;;;;;;;
;;;;;;;;;;
;;;;;;;;;;
;;;;;;;;;;
;;;;;;;;;;
;;;;;;;;;;
;;;;;;;;;;
;;;;;;;;;;
;;;;;;;;;;
;;;;;;;;;;
;;;;;;;;;;
;;;;;;;;;;
;;;;;;;;;;
;;;;;;;;;;
;;;;;;;;;;
;;;;;;;;;;
;;;;;;;;;;
;;;;;;;;;;
;;;;;;;;;;
;;;;;;;;;;
;;;;;;;;;;
;;;;;;;;;;
;;;;;;;;;;
;;;;;;;;;;
;;;;;;;;;;
;;;;;;;;;;
;;;;;;;;;;
;;;;;;;;;;
;;;;;;;;;;
;;;;;;;;;;
;;;;;;;;;;
;;;;;;;;;;
;;;;;;;;;;
;;;;;;;;;;
;;;;;;;;;;
;;;;;;;;;;
;;;;;;;;;;
;;;;;;;;;;
;;;;;;;;;;
;;;;;;;;;;
;;;;;;;;;;
;;;;;;;;;;
;;;;;;;;;;
;;;;;;;;;;
;;;;;;;;;;
;;;;;;;;;;
;;;;;;;;;;
;;;;;;;;;;
;;;;;;;;;;
;;;;;;;;;;
;;;;;;;;;;
;;;;;;;;;;
;;;;;;;;;;
;;;;;;;;;;
;;;;;;;;;;
;;;;;;;;;;
;;;;;;;;;;
;;;;;;;;;;
;;;;;;;;;;
;;;;;;;;;;
;;;;;;;;;;
;;;;;;;;;;
;;;;;;;;;;
;;;;;;;;;;
;;;;;;;;;;
;;;;;;;;;;
;;;;;;;;;;
;;;;;;;;;;
;;;;;;;;;;
;;;;;;;;;;
;;;;;;;;;;
;;;;;;;;;;
;;;;;;;;;;
;;;;;;;;;;
;;;;;;;;;;
;;;;;;;;;;
;;;;;;;;;;
;;;;;;;;;;
;;;;;;;;;;
;;;;;;;;;;
;;;;;;;;;;
;;;;;;;;;;
;;;;;;;;;;
;;;;;;;;;;
;;;;;;;;;;
;;;;;;;;;;
;;;;;;;;;;
;;;;;;;;;;
;;;;;;;;;;
;;;;;;;;;;
;;;;;;;;;;
;;;;;;;;;;
;;;;;;;;;;
;;;;;;;;;;
;;;;;;;;;;
;;;;;;;;;;
;;;;;;;;;;
;;;;;;;;;;
;;;;;;;;;;
;;;;;;;;;;
;;;;;;;;;;
;;;;;;;;;;
;;;;;;;;;;
;;;;;;;;;;
;;;;;;;;;;
;;;;;;;;;;
;;;;;;;;;;
;;;;;;;;;;
;;;;;;;;;;
;;;;;;;;;;
;;;;;;;;;;
;;;;;;;;;;
;;;;;;;;;;
;;;;;;;;;;
;;;;;;;;;;
;;;;;;;;;;
;;;;;;;;;;
;;;;;;;;;;
;;;;;;;;;;
;;;;;;;;;;
;;;;;;;;;;
;;;;;;;;;;
;;;;;;;;;;
;;;;;;;;;;
;;;;;;;;;;
;;;;;;;;;;
;;;;;;;;;;
;;;;;;;;;;
;;;;;;;;;;
;;;;;;;;;;
;;;;;;;;;;
;;;;;;;;;;
;;;;;;;;;;
;;;;;;;;;;
;;;;;;;;;;
;;;;;;;;;;
;;;;;;;;;;
;;;;;;;;;;
;;;;;;;;;;
;;;;;;;;;;
;;;;;;;;;;
;;;;;;;;;;
;;;;;;;;;;
;;;;;;;;;;
;;;;;;;;;;
;;;;;;;;;;
;;;;;;;;;;
;;;;;;;;;;
;;;;;;;;;;
;;;;;;;;;;
;;;;;;;;;;
;;;;;;;;;;
;;;;;;;;;;
;;;;;;;;;;
;;;;;;;;;;
;;;;;;;;;;
;;;;;;;;;;
;;;;;;;;;;
;;;;;;;;;;
;;;;;;;;;;
;;;;;;;;;;
;;;;;;;;;;
;;;;;;;;;;
;;;;;;;;;;
;;;;;;;;;;
;;;;;;;;;;
;;;;;;;;;;
;;;;;;;;;;
;;;;;;;;;;
;;;;;;;;;;
;;;;;;;;;;
;;;;;;;;;;
;;;;;;;;;;
;;;;;;;;;;
;;;;;;;;;;
;;;;;;;;;;
;;;;;;;;;;
;;;;;;;;;;
;;;;;;;;;;
;;;;;;;;;;
;;;;;;;;;;
;;;;;;;;;;
;;;;;;;;;;
;;;;;;;;;;
;;;;;;;;;;
;;;;;;;;;;
;;;;;;;;;;
;;;;;;;;;;
;;;;;;;;;;
;;;;;;;;;;
;;;;;;;;;;
;;;;;;;;;;
;;;;;;;;;;
;;;;;;;;;;
;;;;;;;;;;
;;;;;;;;;;
;;;;;;;;;;
;;;;;;;;;;
;;;;;;;;;;
;;;;;;;;;;
;;;;;;;;;;
;;;;;;;;;;
;;;;;;;;;;
;;;;;;;;;;
;;;;;;;;;;
;;;;;;;;;;
;;;;;;;;;;
;;;;;;;;;;
;;;;;;;;;;
;;;;;;;;;;
;;;;;;;;;;
;;;;;;;;;;
;;;;;;;;;;
;;;;;;;;;;
;;;;;;;;;;
;;;;;;;;;;
;;;;;;;;;;
;;;;;;;;;;
;;;;;;;;;;
;;;;;;;;;;
;;;;;;;;;;
;;;;;;;;;;
;;;;;;;;;;
;;;;;;;;;;
;;;;;;;;;;
;;;;;;;;;;
;;;;;;;;;;
;;;;;;;;;;
;;;;;;;;;;
;;;;;;;;;;
;;;;;;;;;;
;;;;;;;;;;
;;;;;;;;;;
;;;;;;;;;;
;;;;;;;;;;
;;;;;;;;;;
;;;;;;;;;;
;;;;;;;;;;
;;;;;;;;;;
;;;;;;;;;;
;;;;;;;;;;
;;;;;;;;;;
;;;;;;;;;;
;;;;;;;;;;
;;;;;;;;;;
;;;;;;;;;;
;;;;;;;;;;
;;;;;;;;;;
;;;;;;;;;;
;;;;;;;;;;
;;;;;;;;;;
;;;;;;;;;;
;;;;;;;;;;
;;;;;;;;;;
;;;;;;;;;;
;;;;;;;;;;
;;;;;;;;;;
;;;;;;;;;;
;;;;;;;;;;
;;;;;;;;;;
;;;;;;;;;;
;;;;;;;;;;
;;;;;;;;;;
;;;;;;;;;;
;;;;;;;;;;
;;;;;;;;;;
;;;;;;;;;;
;;;;;;;;;;
;;;;;;;;;;
;;;;;;;;;;
;;;;;;;;;;
;;;;;;;;;;
;;;;;;;;;;
;;;;;;;;;;
;;;;;;;;;;
;;;;;;;;;;
;;;;;;;;;;
;;;;;;;;;;
;;;;;;;;;;
;;;;;;;;;;
;;;;;;;;;;
;;;;;;;;;;
;;;;;;;;;;
;;;;;;;;;;
;;;;;;;;;;
;;;;;;;;;;
;;;;;;;;;;
;;;;;;;;;;
;;;;;;;;;;
;;;;;;;;;;
;;;;;;;;;;
;;;;;;;;;;
;;;;;;;;;;
;;;;;;;;;;
;;;;;;;;;;
;;;;;;;;;;
;;;;;;;;;;
;;;;;;;;;;
;;;;;;;;;;
;;;;;;;;;;
;;;;;;;;;;
;;;;;;;;;;
;;;;;;;;;;
;;;;;;;;;;
;;;;;;;;;;
;;;;;;;;;;
;;;;;;;;;;
;;;;;;;;;;
;;;;;;;;;;
;;;;;;;;;;
;;;;;;;;;;
;;;;;;;;;;
;;;;;;;;;;
;;;;;;;;;;
;;;;;;;;;;
;;;;;;;;;;
;;;;;;;;;;
;;;;;;;;;;
;;;;;;;;;;
;;;;;;;;;;
;;;;;;;;;;
;;;;;;;;;;
;;;;;;;;;;
;;;;;;;;;;
;;;;;;;;;;
;;;;;;;;;;
;;;;;;;;;;
;;;;;;;;;;
;;;;;;;;;;
;;;;;;;;;;
;;;;;;;;;;
;;;;;;;;;;
;;;;;;;;;;
;;;;;;;;;;
;;;;;;;;;;
;;;;;;;;;;
;;;;;;;;;;
;;;;;;;;;;
;;;;;;;;;;
;;;;;;;;;;
;;;;;;;;;;
;;;;;;;;;;
;;;;;;;;;;
;;;;;;;;;;
;;;;;;;;;;
;;;;;;;;;;
;;;;;;;;;;
;;;;;;;;;;
;;;;;;;;;;
;;;;;;;;;;
;;;;;;;;;;
;;;;;;;;;;
;;;;;;;;;;
;;;;;;;;;;
;;;;;;;;;;
;;;;;;;;;;
;;;;;;;;;;
;;;;;;;;;;
;;;;;;;;;;
;;;;;;;;;;
;;;;;;;;;;
;;;;;;;;;;
;;;;;;;;;;
;;;;;;;;;;
;;;;;;;;;;
;;;;;;;;;;
;;;;;;;;;;
;;;;;;;;;;
;;;;;;;;;;
;;;;;;;;;;
;;;;;;;;;;
;;;;;;;;;;
;;;;;;;;;;
;;;;;;;;;;
;;;;;;;;;;
;;;;;;;;;;
;;;;;;;;;;
;;;;;;;;;;
;;;;;;;;;;
;;;;;;;;;;
;;;;;;;;;;
;;;;;;;;;;
;;;;;;;;;;
;;;;;;;;;;
;;;;;;;;;;
;;;;;;;;;;
;;;;;;;;;;
;;;;;;;;;;
;;;;;;;;;;
;;;;;;;;;;
;;;;;;;;;;
;;;;;;;;;;
;;;;;;;;;;
;;;;;;;;;;
;;;;;;;;;;
;;;;;;;;;;
;;;;;;;;;;
;;;;;;;;;;
;;;;;;;;;;
;;;;;;;;;;
;;;;;;;;;;
;;;;;;;;;;
;;;;;;;;;;
;;;;;;;;;;
;;;;;;;;;;
;;;;;;;;;;
;;;;;;;;;;
;;;;;;;;;;
;;;;;;;;;;
;;;;;;;;;;
;;;;;;;;;;
;;;;;;;;;;
;;;;;;;;;;
;;;;;;;;;;
;;;;;;;;;;
;;;;;;;;;;
;;;;;;;;;;
;;;;;;;;;;
;;;;;;;;;;
;;;;;;;;;;
;;;;;;;;;;
;;;;;;;;;;
;;;;;;;;;;
;;;;;;;;;;
;;;;;;;;;;
;;;;;;;;;;
;;;;;;;;;;
;;;;;;;;;;
;;;;;;;;;;
;;;;;;;;;;
;;;;;;;;;;
;;;;;;;;;;
;;;;;;;;;;
;;;;;;;;;;
;;;;;;;;;;
;;;;;;;;;;
;;;;;;;;;;
;;;;;;;;;;
;;;;;;;;;;
;;;;;;;;;;
;;;;;;;;;;
;;;;;;;;;;
;;;;;;;;;;
;;;;;;;;;;
;;;;;;;;;;
;;;;;;;;;;
;;;;;;;;;;
;;;;;;;;;;
;;;;;;;;;;
;;;;;;;;;;
;;;;;;;;;;
;;;;;;;;;;
;;;;;;;;;;
;;;;;;;;;;
;;;;;;;;;;
;;;;;;;;;;
;;;;;;;;;;
;;;;;;;;;;
;;;;;;;;;;
;;;;;;;;;;
;;;;;;;;;;
;;;;;;;;;;
;;;;;;;;;;
;;;;;;;;;;
;;;;;;;;;;
;;;;;;;;;;
;;;;;;;;;;
;;;;;;;;;;
;;;;;;;;;;
;;;;;;;;;;
;;;;;;;;;;
;;;;;;;;;;
;;;;;;;;;;
;;;;;;;;;;
;;;;;;;;;;
;;;;;;;;;;
;;;;;;;;;;
;;;;;;;;;;
;;;;;;;;;;
;;;;;;;;;;
;;;;;;;;;;
;;;;;;;;;;
;;;;;;;;;;
;;;;;;;;;;
;;;;;;;;;;
;;;;;;;;;;
;;;;;;;;;;
;;;;;;;;;;
;;;;;;;;;;
;;;;;;;;;;
;;;;;;;;;;
;;;;;;;;;;
;;;;;;;;;;
;;;;;;;;;;
;;;;;;;;;;
;;;;;;;;;;
;;;;;;;;;;
;;;;;;;;;;
;;;;;;;;;;
;;;;;;;;;;
;;;;;;;;;;
;;;;;;;;;;
;;;;;;;;;;
;;;;;;;;;;
;;;;;;;;;;
;;;;;;;;;;
;;;;;;;;;;
;;;;;;;;;;
;;;;;;;;;;
;;;;;;;;;;
;;;;;;;;;;
;;;;;;;;;;
;;;;;;;;;;
;;;;;;;;;;
;;;;;;;;;;
;;;;;;;;;;
;;;;;;;;;;
;;;;;;;;;;
;;;;;;;;;;
;;;;;;;;;;
;;;;;;;;;;
;;;;;;;;;;
;;;;;;;;;;
;;;;;;;;;;
;;;;;;;;;;
;;;;;;;;;;
;;;;;;;;;;
;;;;;;;;;;
;;;;;;;;;;
;;;;;;;;;;
;;;;;;;;;;
;;;;;;;;;;
;;;;;;;;;;
;;;;;;;;;;
;;;;;;;;;;
;;;;;;;;;;
;;;;;;;;;;
;;;;;;;;;;
;;;;;;;;;;
;;;;;;;;;;
;;;;;;;;;;
;;;;;;;;;;
;;;;;;;;;;
;;;;;;;;;;
;;;;;;;;;;
;;;;;;;;;;
;;;;;;;;;;
;;;;;;;;;;
;;;;;;;;;;
;;;;;;;;;;
;;;;;;;;;;
;;;;;;;;;;
;;;;;;;;;;
;;;;;;;;;;
;;;;;;;;;;
;;;;;;;;;;
;;;;;;;;;;
;;;;;;;;;;
;;;;;;;;;;
;;;;;;;;;;
;;;;;;;;;;
;;;;;;;;;;
;;;;;;;;;;
;;;;;;;;;;
;;;;;;;;;;
;;;;;;;;;;
;;;;;;;;;;
;;;;;;;;;;
;;;;;;;;;;
;;;;;;;;;;
;;;;;;;;;;
;;;;;;;;;;
;;;;;;;;;;
;;;;;;;;;;
;;;;;;;;;;
;;;;;;;;;;
;;;;;;;;;;
;;;;;;;;;;
;;;;;;;;;;
;;;;;;;;;;
;;;;;;;;;;
;;;;;;;;;;
;;;;;;;;;;
;;;;;;;;;;
;;;;;;;;;;
;;;;;;;;;;
;;;;;;;;;;
;;;;;;;;;;
;;;;;;;;;;
;;;;;;;;;;
;;;;;;;;;;
;;;;;;;;;;
;;;;;;;;;;
;;;;;;;;;;
;;;;;;;;;;
;;;;;;;;;;
;;;;;;;;;;
;;;;;;;;;;
;;;;;;;;;;
;;;;;;;;;;
;;;;;;;;;;
;;;;;;;;;;
;;;;;;;;;;
;;;;;;;;;;
;;;;;;;;;;
;;;;;;;;;;
;;;;;;;;;;
;;;;;;;;;;
;;;;;;;;;;
;;;;;;;;;;
;;;;;;;;;;
;;;;;;;;;;
;;;;;;;;;;
;;;;;;;;;;
;;;;;;;;;;
;;;;;;;;;;
;;;;;;;;;;
;;;;;;;;;;
;;;;;;;;;;
;;;;;;;;;;
;;;;;;;;;;
;;;;;;;;;;
;;;;;;;;;;
;;;;;;;;;;
;;;;;;;;;;
;;;;;;;;;;
;;;;;;;;;;
;;;;;;;;;;
;;;;;;;;;;
;;;;;;;;;;
;;;;;;;;;;
;;;;;;;;;;
;;;;;;;;;;
;;;;;;;;;;
;;;;;;;;;;
;;;;;;;;;;
;;;;;;;;;;
;;;;;;;;;;
;;;;;;;;;;
;;;;;;;;;;
;;;;;;;;;;
;;;;;;;;;;
;;;;;;;;;;
;;;;;;;;;;
;;;;;;;;;;
;;;;;;;;;;
;;;;;;;;;;
;;;;;;;;;;
;;;;;;;;;;
;;;;;;;;;;
;;;;;;;;;;
;;;;;;;;;;
;;;;;;;;;;
;;;;;;;;;;
;;;;;;;;;;
;;;;;;;;;;
;;;;;;;;;;
;;;;;;;;;;
;;;;;;;;;;
;;;;;;;;;;
;;;;;;;;;;
;;;;;;;;;;
;;;;;;;;;;
;;;;;;;;;;
;;;;;;;;;;
;;;;;;;;;;
;;;;;;;;;;
;;;;;;;;;;
;;;;;;;;;;
;;;;;;;;;;
;;;;;;;;;;
;;;;;;;;;;
;;;;;;;;;;
;;;;;;;;;;
;;;;;;;;;;
;;;;;;;;;;
;;;;;;;;;;
;;;;;;;;;;
;;;;;;;;;;
;;;;;;;;;;
;;;;;;;;;;
;;;;;;;;;;
;;;;;;;;;;
;;;;;;;;;;
;;;;;;;;;;
;;;;;;;;;;
;;;;;;;;;;
;;;;;;;;;;
;;;;;;;;;;
;;;;;;;;;;
;;;;;;;;;;
;;;;;;;;;;
;;;;;;;;;;
;;;;;;;;;;
;;;;;;;;;;
;;;;;;;;;;
;;;;;;;;;;
;;;;;;;;;;
;;;;;;;;;;
;;;;;;;;;;
;;;;;;;;;;
;;;;;;;;;;
;;;;;;;;;;
;;;;;;;;;;
;;;;;;;;;;
;;;;;;;;;;
;;;;;;;;;;
;;;;;;;;;;
;;;;;;;;;;
;;;;;;;;;;
;;;;;;;;;;
;;;;;;;;;;
;;;;;;;;;;
;;;;;;;;;;
;;;;;;;;;;
;;;;;;;;;;
;;;;;;;;;;
;;;;;;;;;;
;;;;;;;;;;
;;;;;;;;;;
;;;;;;;;;;
;;;;;;;;;;
;;;;;;;;;;
;;;;;;;;;;
;;;;;;;;;;
;;;;;;;;;;
;;;;;;;;;;
;;;;;;;;;;
;;;;;;;;;;
;;;;;;;;;;
;;;;;;;;;;
;;;;;;;;;;
;;;;;;;;;;
;;;;;;;;;;
;;;;;;;;;;
;;;;;;;;;;
;;;;;;;;;;
;;;;;;;;;;
;;;;;;;;;;
;;;;;;;;;;
;;;;;;;;;;
;;;;;;;;;;
;;;;;;;;;;
;;;;;;;;;;
;;;;;;;;;;
;;;;;;;;;;
;;;;;;;;;;
;;;;;;;;;;
;;;;;;;;;;
;;;;;;;;;;
;;;;;;;;;;
;;;;;;;;;;
;;;;;;;;;;
;;;;;;;;;;
;;;;;;;;;;
;;;;;;;;;;
;;;;;;;;;;
;;;;;;;;;;
;;;;;;;;;;
;;;;;;;;;;
;;;;;;;;;;
;;;;;;;;;;
;;;;;;;;;;
;;;;;;;;;;
;;;;;;;;;;
;;;;;;;;;;
;;;;;;;;;;
;;;;;;;;;;
;;;;;;;;;;
;;;;;;;;;;
;;;;;;;;;;
;;;;;;;;;;
;;;;;;;;;;
;;;;;;;;;;
;;;;;;;;;;
;;;;;;;;;;
;;;;;;;;;;
;;;;;;;;;;
;;;;;;;;;;
;;;;;;;;;;
;;;;;;;;;;
;;;;;;;;;;
;;;;;;;;;;
;;;;;;;;;;
;;;;;;;;;;
;;;;;;;;;;
;;;;;;;;;;
;;;;;;;;;;
;;;;;;;;;;
;;;;;;;;;;
;;;;;;;;;;
;;;;;;;;;;
;;;;;;;;;;
;;;;;;;;;;
;;;;;;;;;;
;;;;;;;;;;
;;;;;;;;;;
;;;;;;;;;;
;;;;;;;;;;
;;;;;;;;;;
;;;;;;;;;;
;;;;;;;;;;
;;;;;;;;;;
;;;;;;;;;;
;;;;;;;;;;
;;;;;;;;;;
;;;;;;;;;;
;;;;;;;;;;
;;;;;;;;;;
;;;;;;;;;;
;;;;;;;;;;
;;;;;;;;;;
;;;;;;;;;;
;;;;;;;;;;
;;;;;;;;;;
;;;;;;;;;;
;;;;;;;;;;
;;;;;;;;;;
;;;;;;;;;;
;;;;;;;;;;
;;;;;;;;;;
;;;;;;;;;;
;;;;;;;;;;
;;;;;;;;;;
;;;;;;;;;;
;;;;;;;;;;
;;;;;;;;;;
;;;;;;;;;;
;;;;;;;;;;
;;;;;;;;;;
;;;;;;;;;;
;;;;;;;;;;
;;;;;;;;;;
;;;;;;;;;;
;;;;;;;;;;
;;;;;;;;;;
;;;;;;;;;;
;;;;;;;;;;
;;;;;;;;;;
;;;;;;;;;;
;;;;;;;;;;
;;;;;;;;;;
;;;;;;;;;;
;;;;;;;;;;
;;;;;;;;;;
;;;;;;;;;;
;;;;;;;;;;
;;;;;;;;;;
;;;;;;;;;;
;;;;;;;;;;
;;;;;;;;;;
;;;;;;;;;;
;;;;;;;;;;
;;;;;;;;;;
;;;;;;;;;;
;;;;;;;;;;
;;;;;;;;;;
;;;;;;;;;;
;;;;;;;;;;
;;;;;;;;;;
;;;;;;;;;;
;;;;;;;;;;
;;;;;;;;;;
;;;;;;;;;;
;;;;;;;;;;
;;;;;;;;;;
;;;;;;;;;;
;;;;;;;;;;
;;;;;;;;;;
;;;;;;;;;;
;;;;;;;;;;
;;;;;;;;;;
;;;;;;;;;;
;;;;;;;;;;
;;;;;;;;;;
;;;;;;;;;;
;;;;;;;;;;
;;;;;;;;;;
;;;;;;;;;;
;;;;;;;;;;
;;;;;;;;;;
;;;;;;;;;;
;;;;;;;;;;
;;;;;;;;;;
;;;;;;;;;;
;;;;;;;;;;
;;;;;;;;;;
;;;;;;;;;;
;;;;;;;;;;
;;;;;;;;;;
;;;;;;;;;;
;;;;;;;;;;
;;;;;;;;;;
;;;;;;;;;;
;;;;;;;;;;
;;;;;;;;;;
;;;;;;;;;;
;;;;;;;;;;
;;;;;;;;;;
;;;;;;;;;;
;;;;;;;;;;
;;;;;;;;;;
;;;;;;;;;;
;;;;;;;;;;
;;;;;;;;;;
;;;;;;;;;;
;;;;;;;;;;
;;;;;;;;;;
;;;;;;;;;;
;;;;;;;;;;
;;;;;;;;;;
;;;;;;;;;;
;;;;;;;;;;
;;;;;;;;;;
;;;;;;;;;;
;;;;;;;;;;
;;;;;;;;;;
;;;;;;;;;;
;;;;;;;;;;
;;;;;;;;;;
;;;;;;;;;;
;;;;;;;;;;
;;;;;;;;;;
;;;;;;;;;;
;;;;;;;;;;
;;;;;;;;;;
;;;;;;;;;;
;;;;;;;;;;
;;;;;;;;;;
;;;;;;;;;;
;;;;;;;;;;
;;;;;;;;;;
;;;;;;;;;;
;;;;;;;;;;
;;;;;;;;;;
;;;;;;;;;;
;;;;;;;;;;
;;;;;;;;;;
;;;;;;;;;;
;;;;;;;;;;
;;;;;;;;;;
;;;;;;;;;;
;;;;;;;;;;
;;;;;;;;;;
;;;;;;;;;;
;;;;;;;;;;
;;;;;;;;;;
;;;;;;;;;;
;;;;;;;;;;
;;;;;;;;;;
;;;;;;;;;;
;;;;;;;;;;
;;;;;;;;;;
;;;;;;;;;;
;;;;;;;;;;
;;;;;;;;;;
;;;;;;;;;;
;;;;;;;;;;
;;;;;;;;;;
;;;;;;;;;;
;;;;;;;;;;
;;;;;;;;;;
;;;;;;;;;;
;;;;;;;;;;
;;;;;;;;;;
;;;;;;;;;;
;;;;;;;;;;
;;;;;;;;;;
;;;;;;;;;;
;;;;;;;;;;
;;;;;;;;;;
;;;;;;;;;;
;;;;;;;;;;
;;;;;;;;;;
;;;;;;;;;;
;;;;;;;;;;
;;;;;;;;;;
;;;;;;;;;;
;;;;;;;;;;
;;;;;;;;;;
;;;;;;;;;;
;;;;;;;;;;
;;;;;;;;;;
;;;;;;;;;;
;;;;;;;;;;
;;;;;;;;;;
;;;;;;;;;;
;;;;;;;;;;
;;;;;;;;;;
;;;;;;;;;;
;;;;;;;;;;
;;;;;;;;;;
;;;;;;;;;;
;;;;;;;;;;
;;;;;;;;;;
;;;;;;;;;;
;;;;;;;;;;
;;;;;;;;;;
;;;;;;;;;;
;;;;;;;;;;
;;;;;;;;;;
;;;;;;;;;;
;;;;;;;;;;
;;;;;;;;;;
;;;;;;;;;;
;;;;;;;;;;
;;;;;;;;;;
;;;;;;;;;;
;;;;;;;;;;
;;;;;;;;;;
;;;;;;;;;;
;;;;;;;;;;
;;;;;;;;;;
;;;;;;;;;;
;;;;;;;;;;
;;;;;;;;;;
;;;;;;;;;;
;;;;;;;;;;
;;;;;;;;;;
;;;;;;;;;;
;;;;;;;;;;
;;;;;;;;;;
;;;;;;;;;;
;;;;;;;;;;
;;;;;;;;;;
;;;;;;;;;;
;;;;;;;;;;
;;;;;;;;;;
;;;;;;;;;;
;;;;;;;;;;
;;;;;;;;;;
;;;;;;;;;;
;;;;;;;;;;
;;;;;;;;;;
;;;;;;;;;;
;;;;;;;;;;
;;;;;;;;;;
;;;;;;;;;;
;;;;;;;;;;
;;;;;;;;;;
;;;;;;;;;;
;;;;;;;;;;
;;;;;;;;;;
;;;;;;;;;;
;;;;;;;;;;
;;;;;;;;;;
;;;;;;;;;;
;;;;;;;;;;
;;;;;;;;;;
;;;;;;;;;;
;;;;;;;;;;
;;;;;;;;;;
;;;;;;;;;;
;;;;;;;;;;
;;;;;;;;;;
;;;;;;;;;;
;;;;;;;;;;
;;;;;;;;;;
;;;;;;;;;;
;;;;;;;;;;
;;;;;;;;;;
;;;;;;;;;;
;;;;;;;;;;
;;;;;;;;;;
;;;;;;;;;;
;;;;;;;;;;
;;;;;;;;;;
;;;;;;;;;;
;;;;;;;;;;
;;;;;;;;;;
;;;;;;;;;;
;;;;;;;;;;
;;;;;;;;;;
;;;;;;;;;;
;;;;;;;;;;
;;;;;;;;;;
;;;;;;;;;;
;;;;;;;;;;
;;;;;;;;;;
;;;;;;;;;;
;;;;;;;;;;
;;;;;;;;;;
;;;;;;;;;;
;;;;;;;;;;
;;;;;;;;;;
;;;;;;;;;;
;;;;;;;;;;
;;;;;;;;;;
;;;;;;;;;;
;;;;;;;;;;
;;;;;;;;;;
;;;;;;;;;;
;;;;;;;;;;
;;;;;;;;;;
;;;;;;;;;;
;;;;;;;;;;
;;;;;;;;;;
;;;;;;;;;;
;;;;;;;;;;
;;;;;;;;;;
;;;;;;;;;;
;;;;;;;;;;
;;;;;;;;;;
;;;;;;;;;;
;;;;;;;;;;
;;;;;;;;;;
;;;;;;;;;;
;;;;;;;;;;
;;;;;;;;;;
;;;;;;;;;;
;;;;;;;;;;
;;;;;;;;;;
;;;;;;;;;;
;;;;;;;;;;
;;;;;;;;;;
;;;;;;;;;;
;;;;;;;;;;
;;;;;;;;;;
;;;;;;;;;;
;;;;;;;;;;
;;;;;;;;;;
;;;;;;;;;;
;;;;;;;;;;
;;;;;;;;;;
;;;;;;;;;;
;;;;;;;;;;
;;;;;;;;;;
;;;;;;;;;;
;;;;;;;;;;
;;;;;;;;;;
;;;;;;;;;;
;;;;;;;;;;
;;;;;;;;;;
;;;;;;;;;;
;;;;;;;;;;
;;;;;;;;;;
;;;;;;;;;;
;;;;;;;;;;
;;;;;;;;;;
;;;;;;;;;;
;;;;;;;;;;
;;;;;;;;;;
;;;;;;;;;;
;;;;;;;;;;
;;;;;;;;;;
;;;;;;;;;;
;;;;;;;;;;
;;;;;;;;;;
;;;;;;;;;;
;;;;;;;;;;
;;;;;;;;;;
;;;;;;;;;;
;;;;;;;;;;
;;;;;;;;;;
;;;;;;;;;;
;;;;;;;;;;
;;;;;;;;;;
;;;;;;;;;;
;;;;;;;;;;
;;;;;;;;;;
;;;;;;;;;;
;;;;;;;;;;
;;;;;;;;;;
;;;;;;;;;;
;;;;;;;;;;
;;;;;;;;;;
;;;;;;;;;;
;;;;;;;;;;
;;;;;;;;;;
;;;;;;;;;;
;;;;;;;;;;
;;;;;;;;;;
;;;;;;;;;;
;;;;;;;;;;
;;;;;;;;;;
;;;;;;;;;;
;;;;;;;;;;
;;;;;;;;;;
;;;;;;;;;;
;;;;;;;;;;
;;;;;;;;;;
;;;;;;;;;;
;;;;;;;;;;
;;;;;;;;;;
;;;;;;;;;;
;;;;;;;;;;
;;;;;;;;;;
;;;;;;;;;;
;;;;;;;;;;
;;;;;;;;;;
;;;;;;;;;;
;;;;;;;;;;
;;;;;;;;;;
;;;;;;;;;;
;;;;;;;;;;
;;;;;;;;;;
;;;;;;;;;;
;;;;;;;;;;
;;;;;;;;;;
;;;;;;;;;;
;;;;;;;;;;
;;;;;;;;;;
;;;;;;;;;;
;;;;;;;;;;
;;;;;;;;;;
;;;;;;;;;;
;;;;;;;;;;
;;;;;;;;;;
;;;;;;;;;;
;;;;;;;;;;
;;;;;;;;;;
;;;;;;;;;;
;;;;;;;;;;
;;;;;;;;;;
;;;;;;;;;;
;;;;;;;;;;
;;;;;;;;;;
;;;;;;;;;;
;;;;;;;;;;
;;;;;;;;;;
;;;;;;;;;;
;;;;;;;;;;
;;;;;;;;;;
;;;;;;;;;;
;;;;;;;;;;
;;;;;;;;;;
;;;;;;;;;;
;;;;;;;;;;
;;;;;;;;;;
;;;;;;;;;;
;;;;;;;;;;
;;;;;;;;;;
;;;;;;;;;;
;;;;;;;;;;
;;;;;;;;;;
;;;;;;;;;;
;;;;;;;;;;
;;;;;;;;;;
;;;;;;;;;;
;;;;;;;;;;
;;;;;;;;;;
;;;;;;;;;;
;;;;;;;;;;
;;;;;;;;;;
;;;;;;;;;;
;;;;;;;;;;
;;;;;;;;;;
;;;;;;;;;;
;;;;;;;;;;
;;;;;;;;;;
;;;;;;;;;;
;;;;;;;;;;
;;;;;;;;;;
;;;;;;;;;;
;;;;;;;;;;
;;;;;;;;;;
;;;;;;;;;;
;;;;;;;;;;
;;;;;;;;;;
;;;;;;;;;;
;;;;;;;;;;
;;;;;;;;;;
;;;;;;;;;;
;;;;;;;;;;
;;;;;;;;;;
;;;;;;;;;;
;;;;;;;;;;
;;;;;;;;;;
;;;;;;;;;;
;;;;;;;;;;
;;;;;;;;;;
;;;;;;;;;;
;;;;;;;;;;
;;;;;;;;;;
;;;;;;;;;;
;;;;;;;;;;
;;;;;;;;;;
;;;;;;;;;;
;;;;;;;;;;
;;;;;;;;;;
;;;;;;;;;;
;;;;;;;;;;
;;;;;;;;;;
;;;;;;;;;;
;;;;;;;;;;
;;;;;;;;;;
;;;;;;;;;;
;;;;;;;;;;
;;;;;;;;;;
;;;;;;;;;;
;;;;;;;;;;
;;;;;;;;;;
;;;;;;;;;;
;;;;;;;;;;
;;;;;;;;;;
;;;;;;;;;;
;;;;;;;;;;
;;;;;;;;;;
;;;;;;;;;;
;;;;;;;;;;
;;;;;;;;;;
;;;;;;;;;;
;;;;;;;;;;
;;;;;;;;;;
;;;;;;;;;;
;;;;;;;;;;
;;;;;;;;;;
;;;;;;;;;;
;;;;;;;;;;
;;;;;;;;;;
;;;;;;;;;;
;;;;;;;;;;
;;;;;;;;;;
;;;;;;;;;;
;;;;;;;;;;
;;;;;;;;;;
;;;;;;;;;;
;;;;;;;;;;
;;;;;;;;;;
;;;;;;;;;;
;;;;;;;;;;
;;;;;;;;;;
;;;;;;;;;;
;;;;;;;;;;
;;;;;;;;;;
;;;;;;;;;;
;;;;;;;;;;
;;;;;;;;;;
;;;;;;;;;;
;;;;;;;;;;
;;;;;;;;;;
;;;;;;;;;;
;;;;;;;;;;
;;;;;;;;;;
;;;;;;;;;;
;;;;;;;;;;
;;;;;;;;;;
;;;;;;;;;;
;;;;;;;;;;
;;;;;;;;;;
;;;;;;;;;;
;;;;;;;;;;
;;;;;;;;;;
;;;;;;;;;;
;;;;;;;;;;
;;;;;;;;;;
;;;;;;;;;;
;;;;;;;;;;
;;;;;;;;;;
;;;;;;;;;;
;;;;;;;;;;
;;;;;;;;;;
;;;;;;;;;;
;;;;;;;;;;
;;;;;;;;;;
;;;;;;;;;;
;;;;;;;;;;
;;;;;;;;;;
;;;;;;;;;;
;;;;;;;;;;
;;;;;;;;;;
;;;;;;;;;;
;;;;;;;;;;
;;;;;;;;;;
;;;;;;;;;;
;;;;;;;;;;
;;;;;;;;;;
;;;;;;;;;;
;;;;;;;;;;
;;;;;;;;;;
;;;;;;;;;;
;;;;;;;;;;
;;;;;;;;;;
;;;;;;;;;;
;;;;;;;;;;
;;;;;;;;;;
;;;;;;;;;;
;;;;;;;;;;
;;;;;;;;;;
;;;;;;;;;;
;;;;;;;;;;
;;;;;;;;;;
;;;;;;;;;;
;;;;;;;;;;
;;;;;;;;;;
;;;;;;;;;;
;;;;;;;;;;
;;;;;;;;;;
;;;;;;;;;;
;;;;;;;;;;
;;;;;;;;;;
;;;;;;;;;;
;;;;;;;;;;
;;;;;;;;;;
;;;;;;;;;;
;;;;;;;;;;
;;;;;;;;;;
;;;;;;;;;;
;;;;;;;;;;
;;;;;;;;;;
;;;;;;;;;;
;;;;;;;;;;
;;;;;;;;;;
;;;;;;;;;;
;;;;;;;;;;
;;;;;;;;;;
;;;;;;;;;;
;;;;;;;;;;
;;;;;;;;;;
;;;;;;;;;;
;;;;;;;;;;
;;;;;;;;;;
;;;;;;;;;;
;;;;;;;;;;
;;;;;;;;;;
;;;;;;;;;;
;;;;;;;;;;
;;;;;;;;;;
;;;;;;;;;;
;;;;;;;;;;
;;;;;;;;;;
;;;;;;;;;;
;;;;;;;;;;
;;;;;;;;;;
;;;;;;;;;;
;;;;;;;;;;
;;;;;;;;;;
;;;;;;;;;;
;;;;;;;;;;
;;;;;;;;;;
;;;;;;;;;;
;;;;;;;;;;
;;;;;;;;;;
;;;;;;;;;;
;;;;;;;;;;
;;;;;;;;;;
;;;;;;;;;;
;;;;;;;;;;
;;;;;;;;;;
;;;;;;;;;;
;;;;;;;;;;
;;;;;;;;;;
;;;;;;;;;;
;;;;;;;;;;
;;;;;;;;;;
;;;;;;;;;;
;;;;;;;;;;
;;;;;;;;;;
;;;;;;;;;;
;;;;;;;;;;
;;;;;;;;;;
;;;;;;;;;;
;;;;;;;;;;
;;;;;;;;;;
;;;;;;;;;;
;;;;;;;;;;
;;;;;;;;;;
;;;;;;;;;;
;;;;;;;;;;
;;;;;;;;;;
;;;;;;;;;;
;;;;;;;;;;
;;;;;;;;;;
;;;;;;;;;;
;;;;;;;;;;
;;;;;;;;;;
;;;;;;;;;;
;;;;;;;;;;
;;;;;;;;;;
;;;;;;;;;;
;;;;;;;;;;
;;;;;;;;;;
;;;;;;;;;;
;;;;;;;;;;
;;;;;;;;;;
;;;;;;;;;;
;;;;;;;;;;
;;;;;;;;;;
;;;;;;;;;;
;;;;;;;;;;
;;;;;;;;;;
;;;;;;;;;;
;;;;;;;;;;
;;;;;;;;;;
;;;;;;;;;;
;;;;;;;;;;
;;;;;;;;;;
;;;;;;;;;;
;;;;;;;;;;
;;;;;;;;;;
;;;;;;;;;;
;;;;;;;;;;
;;;;;;;;;;
;;;;;;;;;;
;;;;;;;;;;
;;;;;;;;;;
;;;;;;;;;;
;;;;;;;;;;
;;;;;;;;;;
;;;;;;;;;;
;;;;;;;;;;
;;;;;;;;;;
;;;;;;;;;;
;;;;;;;;;;
;;;;;;;;;;
;;;;;;;;;;
;;;;;;;;;;
;;;;;;;;;;
;;;;;;;;;;
;;;;;;;;;;
;;;;;;;;;;
;;;;;;;;;;
;;;;;;;;;;
;;;;;;;;;;
;;;;;;;;;;
;;;;;;;;;;
;;;;;;;;;;
;;;;;;;;;;
;;;;;;;;;;
;;;;;;;;;;
;;;;;;;;;;
;;;;;;;;;;
;;;;;;;;;;
;;;;;;;;;;
;;;;;;;;;;
;;;;;;;;;;
;;;;;;;;;;
;;;;;;;;;;
;;;;;;;;;;
;;;;;;;;;;
;;;;;;;;;;
;;;;;;;;;;
;;;;;;;;;;
;;;;;;;;;;
;;;;;;;;;;
;;;;;;;;;;
;;;;;;;;;;
;;;;;;;;;;
;;;;;;;;;;
;;;;;;;;;;
;;;;;;;;;;
;;;;;;;;;;
;;;;;;;;;;
;;;;;;;;;;
;;;;;;;;;;
;;;;;;;;;;
;;;;;;;;;;
;;;;;;;;;;
;;;;;;;;;;
;;;;;;;;;;
;;;;;;;;;;
;;;;;;;;;;
;;;;;;;;;;
;;;;;;;;;;
;;;;;;;;;;
;;;;;;;;;;
;;;;;;;;;;
;;;;;;;;;;
;;;;;;;;;;
;;;;;;;;;;
;;;;;;;;;;
;;;;;;;;;;
;;;;;;;;;;
;;;;;;;;;;
;;;;;;;;;;
;;;;;;;;;;
;;;;;;;;;;
;;;;;;;;;;
;;;;;;;;;;
;;;;;;;;;;
;;;;;;;;;;
;;;;;;;;;;
;;;;;;;;;;
;;;;;;;;;;
;;;;;;;;;;
;;;;;;;;;;
;;;;;;;;;;
;;;;;;;;;;
;;;;;;;;;;
;;;;;;;;;;
;;;;;;;;;;
;;;;;;;;;;
;;;;;;;;;;
;;;;;;;;;;
;;;;;;;;;;
;;;;;;;;;;
;;;;;;;;;;
;;;;;;;;;;
;;;;;;;;;;
;;;;;;;;;;
;;;;;;;;;;
;;;;;;;;;;
;;;;;;;;;;
;;;;;;;;;;
;;;;;;;;;;
;;;;;;;;;;
;;;;;;;;;;
;;;;;;;;;;
;;;;;;;;;;
;;;;;;;;;;
;;;;;;;;;;
;;;;;;;;;;
;;;;;;;;;;
;;;;;;;;;;
;;;;;;;;;;
;;;;;;;;;;
;;;;;;;;;;
;;;;;;;;;;
;;;;;;;;;;
;;;;;;;;;;
;;;;;;;;;;
;;;;;;;;;;
;;;;;;;;;;
;;;;;;;;;;
;;;;;;;;;;
;;;;;;;;;;
;;;;;;;;;;
;;;;;;;;;;
;;;;;;;;;;
;;;;;;;;;;
;;;;;;;;;;
;;;;;;;;;;
;;;;;;;;;;
;;;;;;;;;;
;;;;;;;;;;
;;;;;;;;;;
;;;;;;;;;;
;;;;;;;;;;
;;;;;;;;;;
;;;;;;;;;;
;;;;;;;;;;
;;;;;;;;;;
;;;;;;;;;;
;;;;;;;;;;
;;;;;;;;;;
;;;;;;;;;;
;;;;;;;;;;
;;;;;;;;;;
;;;;;;;;;;
;;;;;;;;;;
;;;;;;;;;;
;;;;;;;;;;
;;;;;;;;;;
;;;;;;;;;;
;;;;;;;;;;
;;;;;;;;;;
;;;;;;;;;;
;;;;;;;;;;
;;;;;;;;;;
;;;;;;;;;;
;;;;;;;;;;
;;;;;;;;;;
;;;;;;;;;;
;;;;;;;;;;
;;;;;;;;;;
;;;;;;;;;;
;;;;;;;;;;
;;;;;;;;;;
;;;;;;;;;;
;;;;;;;;;;
;;;;;;;;;;
;;;;;;;;;;
;;;;;;;;;;
;;;;;;;;;;
;;;;;;;;;;
;;;;;;;;;;
;;;;;;;;;;
;;;;;;;;;;
;;;;;;;;;;
;;;;;;;;;;
;;;;;;;;;;
;;;;;;;;;;
;;;;;;;;;;
;;;;;;;;;;
;;;;;;;;;;
;;;;;;;;;;
;;;;;;;;;;
;;;;;;;;;;
;;;;;;;;;;
;;;;;;;;;;
;;;;;;;;;;
;;;;;;;;;;
;;;;;;;;;;
;;;;;;;;;;
;;;;;;;;;;
;;;;;;;;;;
;;;;;;;;;;
;;;;;;;;;;
;;;;;;;;;;
;;;;;;;;;;
;;;;;;;;;;
;;;;;;;;;;
;;;;;;;;;;
;;;;;;;;;;
;;;;;;;;;;
;;;;;;;;;;
;;;;;;;;;;
;;;;;;;;;;
;;;;;;;;;;
;;;;;;;;;;
;;;;;;;;;;
;;;;;;;;;;
;;;;;;;;;;
;;;;;;;;;;
;;;;;;;;;;
;;;;;;;;;;
;;;;;;;;;;
;;;;;;;;;;
;;;;;;;;;;
;;;;;;;;;;
;;;;;;;;;;
;;;;;;;;;;
;;;;;;;;;;
;;;;;;;;;;
;;;;;;;;;;
;;;;;;;;;;
;;;;;;;;;;
;;;;;;;;;;
;;;;;;;;;;
;;;;;;;;;;
;;;;;;;;;;
;;;;;;;;;;
;;;;;;;;;;
;;;;;;;;;;
;;;;;;;;;;
;;;;;;;;;;
;;;;;;;;;;
;;;;;;;;;;
;;;;;;;;;;
;;;;;;;;;;
;;;;;;;;;;
;;;;;;;;;;
;;;;;;;;;;
;;;;;;;;;;
;;;;;;;;;;
;;;;;;;;;;
;;;;;;;;;;
;;;;;;;;;;
;;;;;;;;;;
;;;;;;;;;;
;;;;;;;;;;
;;;;;;;;;;
;;;;;;;;;;
;;;;;;;;;;
;;;;;;;;;;
;;;;;;;;;;
;;;;;;;;;;
;;;;;;;;;;
;;;;;;;;;;
;;;;;;;;;;
;;;;;;;;;;
;;;;;;;;;;
;;;;;;;;;;
;;;;;;;;;;
;;;;;;;;;;
;;;;;;;;;;
;;;;;;;;;;
;;;;;;;;;;
;;;;;;;;;;
;;;;;;;;;;
;;;;;;;;;;
;;;;;;;;;;
;;;;;;;;;;
;;;;;;;;;;
;;;;;;;;;;
;;;;;;;;;;
;;;;;;;;;;
;;;;;;;;;;
;;;;;;;;;;
;;;;;;;;;;
;;;;;;;;;;
;;;;;;;;;;
;;;;;;;;;;
;;;;;;;;;;
;;;;;;;;;;
;;;;;;;;;;
;;;;;;;;;;
;;;;;;;;;;
;;;;;;;;;;
;;;;;;;;;;
;;;;;;;;;;
;;;;;;;;;;
;;;;;;;;;;
;;;;;;;;;;
;;;;;;;;;;
;;;;;;;;;;
;;;;;;;;;;
;;;;;;;;;;
;;;;;;;;;;
;;;;;;;;;;
;;;;;;;;;;
;;;;;;;;;;
;;;;;;;;;;
;;;;;;;;;;
;;;;;;;;;;
;;;;;;;;;;
;;;;;;;;;;
;;;;;;;;;;
;;;;;;;;;;
;;;;;;;;;;
;;;;;;;;;;
;;;;;;;;;;
;;;;;;;;;;
;;;;;;;;;;
;;;;;;;;;;
;;;;;;;;;;
;;;;;;;;;;
;;;;;;;;;;
;;;;;;;;;;
;;;;;;;;;;
;;;;;;;;;;
;;;;;;;;;;
;;;;;;;;;;
;;;;;;;;;;
;;;;;;;;;;
;;;;;;;;;;
;;;;;;;;;;
;;;;;;;;;;
;;;;;;;;;;
;;;;;;;;;;
;;;;;;;;;;
;;;;;;;;;;
;;;;;;;;;;
;;;;;;;;;;
;;;;;;;;;;
;;;;;;;;;;
;;;;;;;;;;
;;;;;;;;;;
;;;;;;;;;;
;;;;;;;;;;
;;;;;;;;;;
;;;;;;;;;;
;;;;;;;;;;
;;;;;;;;;;
;;;;;;;;;;
;;;;;;;;;;
;;;;;;;;;;
;;;;;;;;;;
;;;;;;;;;;
;;;;;;;;;;
;;;;;;;;;;
;;;;;;;;;;
;;;;;;;;;;
;;;;;;;;;;
;;;;;;;;;;
;;;;;;;;;;
;;;;;;;;;;
;;;;;;;;;;
;;;;;;;;;;
;;;;;;;;;;
;;;;;;;;;;
;;;;;;;;;;
;;;;;;;;;;
;;;;;;;;;;
;;;;;;;;;;
;;;;;;;;;;
;;;;;;;;;;
;;;;;;;;;;
;;;;;;;;;;
;;;;;;;;;;
;;;;;;;;;;
;;;;;;;;;;
;;;;;;;;;;
;;;;;;;;;;
;;;;;;;;;;
;;;;;;;;;;
;;;;;;;;;;
;;;;;;;;;;
;;;;;;;;;;
;;;;;;;;;;
;;;;;;;;;;
;;;;;;;;;;
;;;;;;;;;;
;;;;;;;;;;
;;;;;;;;;;
;;;;;;;;;;
;;;;;;;;;;
;;;;;;;;;;
;;;;;;;;;;
;;;;;;;;;;
;;;;;;;;;;
;;;;;;;;;;
;;;;;;;;;;
;;;;;;;;;;
;;;;;;;;;;
;;;;;;;;;;
;;;;;;;;;;
;;;;;;;;;;
;;;;;;;;;;
;;;;;;;;;;
;;;;;;;;;;
;;;;;;;;;;
;;;;;;;;;;
;;;;;;;;;;
;;;;;;;;;;
;;;;;;;;;;
;;;;;;;;;;
;;;;;;;;;;
;;;;;;;;;;
;;;;;;;;;;
;;;;;;;;;;
;;;;;;;;;;
;;;;;;;;;;
;;;;;;;;;;
;;;;;;;;;;
;;;;;;;;;;
;;;;;;;;;;
;;;;;;;;;;
;;;;;;;;;;
;;;;;;;;;;
;;;;;;;;;;
;;;;;;;;;;
;;;;;;;;;;
;;;;;;;;;;
;;;;;;;;;;
;;;;;;;;;;
;;;;;;;;;;
;;;;;;;;;;
;;;;;;;;;;
;;;;;;;;;;
;;;;;;;;;;
;;;;;;;;;;
;;;;;;;;;;
;;;;;;;;;;
;;;;;;;;;;
;;;;;;;;;;
;;;;;;;;;;
;;;;;;;;;;
;;;;;;;;;;
;;;;;;;;;;
;;;;;;;;;;
;;;;;;;;;;
;;;;;;;;;;
;;;;;;;;;;
;;;;;;;;;;
;;;;;;;;;;
;;;;;;;;;;
;;;;;;;;;;
;;;;;;;;;;
;;;;;;;;;;
;;;;;;;;;;
;;;;;;;;;;
;;;;;;;;;;
;;;;;;;;;;
;;;;;;;;;;
;;;;;;;;;;
;;;;;;;;;;
;;;;;;;;;;
;;;;;;;;;;
;;;;;;;;;;
;;;;;;;;;;
;;;;;;;;;;
;;;;;;;;;;
;;;;;;;;;;
;;;;;;;;;;
;;;;;;;;;;
;;;;;;;;;;
;;;;;;;;;;
;;;;;;;;;;
;;;;;;;;;;
;;;;;;;;;;
;;;;;;;;;;
;;;;;;;;;;
;;;;;;;;;;
;;;;;;;;;;
;;;;;;;;;;
;;;;;;;;;;
;;;;;;;;;;
;;;;;;;;;;
;;;;;;;;;;
;;;;;;;;;;
;;;;;;;;;;
;;;;;;;;;;
;;;;;;;;;;
;;;;;;;;;;
;;;;;;;;;;
;;;;;;;;;;
;;;;;;;;;;
;;;;;;;;;;
;;;;;;;;;;
;;;;;;;;;;
;;;;;;;;;;
;;;;;;;;;;
;;;;;;;;;;
;;;;;;;;;;
;;;;;;;;;;
;;;;;;;;;;
;;;;;;;;;;
;;;;;;;;;;
;;;;;;;;;;
;;;;;;;;;;
;;;;;;;;;;
;;;;;;;;;;
;;;;;;;;;;
;;;;;;;;;;
;;;;;;;;;;
;;;;;;;;;;
;;;;;;;;;;
;;;;;;;;;;
;;;;;;;;;;
;;;;;;;;;;
;;;;;;;;;;
;;;;;;;;;;
;;;;;;;;;;
;;;;;;;;;;
;;;;;;;;;;
;;;;;;;;;;
;;;;;;;;;;
;;;;;;;;;;
;;;;;;;;;;
;;;;;;;;;;
;;;;;;;;;;
;;;;;;;;;;
;;;;;;;;;;
;;;;;;;;;;
;;;;;;;;;;
;;;;;;;;;;
;;;;;;;;;;
;;;;;;;;;;
;;;;;;;;;;
;;;;;;;;;;
;;;;;;;;;;
;;;;;;;;;;
;;;;;;;;;;
;;;;;;;;;;
;;;;;;;;;;
;;;;;;;;;;
;;;;;;;;;;
;;;;;;;;;;
;;;;;;;;;;
;;;;;;;;;;
;;;;;;;;;;
;;;;;;;;;;
;;;;;;;;;;
;;;;;;;;;;
;;;;;;;;;;
;;;;;;;;;;
;;;;;;;;;;
;;;;;;;;;;
;;;;;;;;;;
;;;;;;;;;;
;;;;;;;;;;
;;;;;;;;;;
;;;;;;;;;;
;;;;;;;;;;
;;;;;;;;;;
;;;;;;;;;;
;;;;;;;;;;
;;;;;;;;;;
;;;;;;;;;;
;;;;;;;;;;
;;;;;;;;;;
;;;;;;;;;;
;;;;;;;;;;
;;;;;;;;;;
;;;;;;;;;;
;;;;;;;;;;
;;;;;;;;;;
;;;;;;;;;;
;;;;;;;;;;
;;;;;;;;;;
;;;;;;;;;;
;;;;;;;;;;
;;;;;;;;;;
;;;;;;;;;;
;;;;;;;;;;
;;;;;;;;;;
;;;;;;;;;;
;;;;;;;;;;
;;;;;;;;;;
;;;;;;;;;;
;;;;;;;;;;
;;;;;;;;;;
;;;;;;;;;;
;;;;;;;;;;
;;;;;;;;;;
;;;;;;;;;;
;;;;;;;;;;
;;;;;;;;;;
;;;;;;;;;;
;;;;;;;;;;
;;;;;;;;;;
;;;;;;;;;;
;;;;;;;;;;
;;;;;;;;;;
;;;;;;;;;;
;;;;;;;;;;
;;;;;;;;;;
;;;;;;;;;;
;;;;;;;;;;
;;;;;;;;;;
;;;;;;;;;;
;;;;;;;;;;
;;;;;;;;;;
;;;;;;;;;;
;;;;;;;;;;
;;;;;;;;;;
;;;;;;;;;;
;;;;;;;;;;
;;;;;;;;;;
;;;;;;;;;;
;;;;;;;;;;
;;;;;;;;;;
;;;;;;;;;;
;;;;;;;;;;
;;;;;;;;;;
;;;;;;;;;;
;;;;;;;;;;
;;;;;;;;;;
;;;;;;;;;;
;;;;;;;;;;
;;;;;;;;;;
;;;;;;;;;;
;;;;;;;;;;
;;;;;;;;;;
;;;;;;;;;;
;;;;;;;;;;
;;;;;;;;;;
;;;;;;;;;;
;;;;;;;;;;
;;;;;;;;;;
;;;;;;;;;;
;;;;;;;;;;
;;;;;;;;;;
;;;;;;;;;;
;;;;;;;;;;
;;;;;;;;;;
;;;;;;;;;;
;;;;;;;;;;
;;;;;;;;;;
;;;;;;;;;;
;;;;;;;;;;
;;;;;;;;;;
;;;;;;;;;;
;;;;;;;;;;
;;;;;;;;;;
;;;;;;;;;;
;;;;;;;;;;
;;;;;;;;;;
;;;;;;;;;;
;;;;;;;;;;
;;;;;;;;;;
;;;;;;;;;;
;;;;;;;;;;
;;;;;;;;;;
;;;;;;;;;;
;;;;;;;;;;
;;;;;;;;;;
;;;;;;;;;;
;;;;;;;;;;
;;;;;;;;;;
;;;;;;;;;;
;;;;;;;;;;
;;;;;;;;;;
;;;;;;;;;;
;;;;;;;;;;
;;;;;;;;;;
;;;;;;;;;;
;;;;;;;;;;
;;;;;;;;;;
;;;;;;;;;;
;;;;;;;;;;
;;;;;;;;;;
;;;;;;;;;;
;;;;;;;;;;
;;;;;;;;;;
;;;;;;;;;;
;;;;;;;;;;
;;;;;;;;;;
;;;;;;;;;;
;;;;;;;;;;
;;;;;;;;;;
;;;;;;;;;;
;;;;;;;;;;
;;;;;;;;;;
;;;;;;;;;;
;;;;;;;;;;
;;;;;;;;;;
;;;;;;;;;;
;;;;;;;;;;
;;;;;;;;;;
;;;;;;;;;;
;;;;;;;;;;
;;;;;;;;;;
;;;;;;;;;;
;;;;;;;;;;
;;;;;;;;;;
;;;;;;;;;;
;;;;;;;;;;
;;;;;;;;;;
;;;;;;;;;;
;;;;;;;;;;
;;;;;;;;;;
;;;;;;;;;;
;;;;;;;;;;
;;;;;;;;;;
;;;;;;;;;;
;;;;;;;;;;
;;;;;;;;;;
;;;;;;;;;;
;;;;;;;;;;
;;;;;;;;;;
;;;;;;;;;;
;;;;;;;;;;
;;;;;;;;;;
;;;;;;;;;;
;;;;;;;;;;
;;;;;;;;;;
;;;;;;;;;;
;;;;;;;;;;
;;;;;;;;;;
;;;;;;;;;;
;;;;;;;;;;
;;;;;;;;;;
;;;;;;;;;;
;;;;;;;;;;
;;;;;;;;;;
;;;;;;;;;;
;;;;;;;;;;
;;;;;;;;;;
;;;;;;;;;;
;;;;;;;;;;
;;;;;;;;;;
;;;;;;;;;;
;;;;;;;;;;
;;;;;;;;;;
;;;;;;;;;;
;;;;;;;;;;
;;;;;;;;;;
;;;;;;;;;;
;;;;;;;;;;
;;;;;;;;;;
;;;;;;;;;;
;;;;;;;;;;
;;;;;;;;;;
;;;;;;;;;;
;;;;;;;;;;
;;;;;;;;;;
;;;;;;;;;;
;;;;;;;;;;
;;;;;;;;;;
;;;;;;;;;;
;;;;;;;;;;
;;;;;;;;;;
;;;;;;;;;;
;;;;;;;;;;
;;;;;;;;;;
;;;;;;;;;;
;;;;;;;;;;
;;;;;;;;;;
;;;;;;;;;;
;;;;;;;;;;
;;;;;;;;;;
;;;;;;;;;;
;;;;;;;;;;
;;;;;;;;;;
;;;;;;;;;;
;;;;;;;;;;
;;;;;;;;;;
;;;;;;;;;;
;;;;;;;;;;
;;;;;;;;;;
;;;;;;;;;;
;;;;;;;;;;
;;;;;;;;;;
;;;;;;;;;;
;;;;;;;;;;
;;;;;;;;;;
;;;;;;;;;;
;;;;;;;;;;
;;;;;;;;;;
;;;;;;;;;;
;;;;;;;;;;
;;;;;;;;;;
;;;;;;;;;;
;;;;;;;;;;
;;;;;;;;;;
;;;;;;;;;;
;;;;;;;;;;
;;;;;;;;;;
;;;;;;;;;;
;;;;;;;;;;
;;;;;;;;;;
;;;;;;;;;;
;;;;;;;;;;
;;;;;;;;;;
;;;;;;;;;;
;;;;;;;;;;
;;;;;;;;;;
;;;;;;;;;;
;;;;;;;;;;
;;;;;;;;;;
;;;;;;;;;;
;;;;;;;;;;
;;;;;;;;;;
;;;;;;;;;;
;;;;;;;;;;
;;;;;;;;;;
;;;;;;;;;;
;;;;;;;;;;
;;;;;;;;;;
;;;;;;;;;;
;;;;;;;;;;
;;;;;;;;;;
;;;;;;;;;;
;;;;;;;;;;
;;;;;;;;;;
;;;;;;;;;;
;;;;;;;;;;
;;;;;;;;;;
;;;;;;;;;;
;;;;;;;;;;
;;;;;;;;;;
;;;;;;;;;;
;;;;;;;;;;
;;;;;;;;;;
;;;;;;;;;;
;;;;;;;;;;
;;;;;;;;;;
;;;;;;;;;;
;;;;;;;;;;
;;;;;;;;;;
;;;;;;;;;;
;;;;;;;;;;
;;;;;;;;;;
;;;;;;;;;;
;;;;;;;;;;
;;;;;;;;;;
;;;;;;;;;;
;;;;;;;;;;
;;;;;;;;;;
;;;;;;;;;;
;;;;;;;;;;
;;;;;;;;;;
;;;;;;;;;;
;;;;;;;;;;
;;;;;;;;;;
;;;;;;;;;;
;;;;;;;;;;
;;;;;;;;;;
;;;;;;;;;;
;;;;;;;;;;
;;;;;;;;;;
;;;;;;;;;;
;;;;;;;;;;
;;;;;;;;;;
;;;;;;;;;;
;;;;;;;;;;
;;;;;;;;;;
;;;;;;;;;;
;;;;;;;;;;
;;;;;;;;;;
;;;;;;;;;;
;;;;;;;;;;
;;;;;;;;;;
;;;;;;;;;;
;;;;;;;;;;
;;;;;;;;;;
;;;;;;;;;;
;;;;;;;;;;
;;;;;;;;;;
;;;;;;;;;;
;;;;;;;;;;
;;;;;;;;;;
;;;;;;;;;;
;;;;;;;;;;
;;;;;;;;;;
;;;;;;;;;;
;;;;;;;;;;
;;;;;;;;;;
;;;;;;;;;;
;;;;;;;;;;
;;;;;;;;;;
;;;;;;;;;;
;;;;;;;;;;
;;;;;;;;;;
;;;;;;;;;;
;;;;;;;;;;
;;;;;;;;;;
;;;;;;;;;;
;;;;;;;;;;
;;;;;;;;;;
;;;;;;;;;;
;;;;;;;;;;
;;;;;;;;;;
;;;;;;;;;;
;;;;;;;;;;
;;;;;;;;;;
;;;;;;;;;;
;;;;;;;;;;
;;;;;;;;;;
;;;;;;;;;;
;;;;;;;;;;
;;;;;;;;;;
;;;;;;;;;;
;;;;;;;;;;
;;;;;;;;;;
;;;;;;;;;;
;;;;;;;;;;
;;;;;;;;;;
;;;;;;;;;;
;;;;;;;;;;
;;;;;;;;;;
;;;;;;;;;;
;;;;;;;;;;
;;;;;;;;;;
;;;;;;;;;;
;;;;;;;;;;
;;;;;;;;;;
;;;;;;;;;;
;;;;;;;;;;
;;;;;;;;;;
;;;;;;;;;;
;;;;;;;;;;
;;;;;;;;;;
;;;;;;;;;;
;;;;;;;;;;
;;;;;;;;;;
;;;;;;;;;;
;;;;;;;;;;
;;;;;;;;;;
;;;;;;;;;;
;;;;;;;;;;
;;;;;;;;;;
;;;;;;;;;;
;;;;;;;;;;
;;;;;;;;;;
;;;;;;;;;;
;;;;;;;;;;
;;;;;;;;;;
;;;;;;;;;;
;;;;;;;;;;
;;;;;;;;;;
;;;;;;;;;;
;;;;;;;;;;
;;;;;;;;;;
;;;;;;;;;;
;;;;;;;;;;
;;;;;;;;;;
;;;;;;;;;;
;;;;;;;;;;
;;;;;;;;;;
;;;;;;;;;;
;;;;;;;;;;
;;;;;;;;;;
;;;;;;;;;;
;;;;;;;;;;
;;;;;;;;;;
;;;;;;;;;;
;;;;;;;;;;
;;;;;;;;;;
;;;;;;;;;;
;;;;;;;;;;
;;;;;;;;;;
;;;;;;;;;;
;;;;;;;;;;
;;;;;;;;;;
;;;;;;;;;;
;;;;;;;;;;
;;;;;;;;;;
;;;;;;;;;;
;;;;;;;;;;
;;;;;;;;;;
;;;;;;;;;;
;;;;;;;;;;
;;;;;;;;;;
;;;;;;;;;;
;;;;;;;;;;
;;;;;;;;;;
;;;;;;;;;;
;;;;;;;;;;
;;;;;;;;;;
;;;;;;;;;;
;;;;;;;;;;
;;;;;;;;;;
;;;;;;;;;;
;;;;;;;;;;
;;;;;;;;;;
;;;;;;;;;;
;;;;;;;;;;
;;;;;;;;;;
;;;;;;;;;;
;;;;;;;;;;
;;;;;;;;;;
;;;;;;;;;;
;;;;;;;;;;
;;;;;;;;;;
;;;;;;;;;;
;;;;;;;;;;
;;;;;;;;;;
;;;;;;;;;;
;;;;;;;;;;
;;;;;;;;;;
;;;;;;;;;;
;;;;;;;;;;
;;;;;;;;;;
;;;;;;;;;;
;;;;;;;;;;
;;;;;;;;;;
;;;;;;;;;;
;;;;;;;;;;
;;;;;;;;;;
;;;;;;;;;;
;;;;;;;;;;
;;;;;;;;;;
;;;;;;;;;;
;;;;;;;;;;
;;;;;;;;;;
;;;;;;;;;;
;;;;;;;;;;
;;;;;;;;;;
;;;;;;;;;;
;;;;;;;;;;
;;;;;;;;;;
;;;;;;;;;;
;;;;;;;;;;
;;;;;;;;;;
;;;;;;;;;;
;;;;;;;;;;
;;;;;;;;;;
;;;;;;;;;;
;;;;;;;;;;
;;;;;;;;;;
;;;;;;;;;;
;;;;;;;;;;
;;;;;;;;;;
;;;;;;;;;;
;;;;;;;;;;
;;;;;;;;;;
;;;;;;;;;;
;;;;;;;;;;
;;;;;;;;;;
;;;;;;;;;;
;;;;;;;;;;
;;;;;;;;;;
;;;;;;;;;;
;;;;;;;;;;
;;;;;;;;;;
;;;;;;;;;;
;;;;;;;;;;
;;;;;;;;;;
;;;;;;;;;;
;;;;;;;;;;
;;;;;;;;;;
;;;;;;;;;;
;;;;;;;;;;
;;;;;;;;;;
;;;;;;;;;;
;;;;;;;;;;
;;;;;;;;;;
;;;;;;;;;;
;;;;;;;;;;
;;;;;;;;;;
;;;;;;;;;;
;;;;;;;;;;
;;;;;;;;;;
;;;;;;;;;;
;;;;;;;;;;
;;;;;;;;;;
;;;;;;;;;;
;;;;;;;;;;
;;;;;;;;;;
;;;;;;;;;;
;;;;;;;;;;
;;;;;;;;;;
;;;;;;;;;;
;;;;;;;;;;
;;;;;;;;;;
;;;;;;;;;;
;;;;;;;;;;
;;;;;;;;;;
;;;;;;;;;;
;;;;;;;;;;
;;;;;;;;;;
;;;;;;;;;;
;;;;;;;;;;
;;;;;;;;;;
;;;;;;;;;;
;;;;;;;;;;
;;;;;;;;;;
;;;;;;;;;;
;;;;;;;;;;
;;;;;;;;;;
;;;;;;;;;;
;;;;;;;;;;
;;;;;;;;;;
;;;;;;;;;;
;;;;;;;;;;
;;;;;;;;;;
;;;;;;;;;;
;;;;;;;;;;
;;;;;;;;;;
;;;;;;;;;;
;;;;;;;;;;
;;;;;;;;;;
;;;;;;;;;;
;;;;;;;;;;
;;;;;;;;;;
;;;;;;;;;;
;;;;;;;;;;
;;;;;;;;;;
;;;;;;;;;;
;;;;;;;;;;
;;;;;;;;;;
;;;;;;;;;;
;;;;;;;;;;
;;;;;;;;;;
;;;;;;;;;;
;;;;;;;;;;
;;;;;;;;;;
;;;;;;;;;;
;;;;;;;;;;
;;;;;;;;;;
;;;;;;;;;;
;;;;;;;;;;
;;;;;;;;;;
;;;;;;;;;;
;;;;;;;;;;
;;;;;;;;;;
;;;;;;;;;;
;;;;;;;;;;
;;;;;;;;;;
;;;;;;;;;;
;;;;;;;;;;
;;;;;;;;;;
;;;;;;;;;;
;;;;;;;;;;
;;;;;;;;;;
;;;;;;;;;;
;;;;;;;;;;
;;;;;;;;;;
;;;;;;;;;;
;;;;;;;;;;
;;;;;;;;;;
;;;;;;;;;;
;;;;;;;;;;
;;;;;;;;;;
;;;;;;;;;;
;;;;;;;;;;
;;;;;;;;;;
;;;;;;;;;;
;;;;;;;;;;
;;;;;;;;;;
;;;;;;;;;;
;;;;;;;;;;
;;;;;;;;;;
;;;;;;;;;;
;;;;;;;;;;
;;;;;;;;;;
;;;;;;;;;;
;;;;;;;;;;
;;;;;;;;;;
;;;;;;;;;;
;;;;;;;;;;
;;;;;;;;;;
;;;;;;;;;;
;;;;;;;;;;
;;;;;;;;;;
;;;;;;;;;;
;;;;;;;;;;
;;;;;;;;;;
;;;;;;;;;;
;;;;;;;;;;
;;;;;;;;;;
;;;;;;;;;;
;;;;;;;;;;
;;;;;;;;;;
;;;;;;;;;;
;;;;;;;;;;
;;;;;;;;;;
;;;;;;;;;;
;;;;;;;;;;
;;;;;;;;;;
;;;;;;;;;;
;;;;;;;;;;
;;;;;;;;;;
;;;;;;;;;;
;;;;;;;;;;
;;;;;;;;;;
;;;;;;;;;;
;;;;;;;;;;
;;;;;;;;;;
;;;;;;;;;;
;;;;;;;;;;
;;;;;;;;;;
;;;;;;;;;;
;;;;;;;;;;
;;;;;;;;;;
;;;;;;;;;;
;;;;;;;;;;
;;;;;;;;;;
;;;;;;;;;;
;;;;;;;;;;
;;;;;;;;;;
;;;;;;;;;;
;;;;;;;;;;
;;;;;;;;;;
;;;;;;;;;;
;;;;;;;;;;
;;;;;;;;;;
;;;;;;;;;;
;;;;;;;;;;
;;;;;;;;;;
;;;;;;;;;;
;;;;;;;;;;
;;;;;;;;;;
;;;;;;;;;;
;;;;;;;;;;
;;;;;;;;;;
;;;;;;;;;;
;;;;;;;;;;
;;;;;;;;;;
;;;;;;;;;;
;;;;;;;;;;
;;;;;;;;;;
;;;;;;;;;;
;;;;;;;;;;
;;;;;;;;;;
;;;;;;;;;;
;;;;;;;;;;
;;;;;;;;;;
;;;;;;;;;;
;;;;;;;;;;
;;;;;;;;;;
;;;;;;;;;;
;;;;;;;;;;
;;;;;;;;;;
;;;;;;;;;;
;;;;;;;;;;
;;;;;;;;;;
;;;;;;;;;;
;;;;;;;;;;
;;;;;;;;;;
;;;;;;;;;;
;;;;;;;;;;
;;;;;;;;;;
;;;;;;;;;;
;;;;;;;;;;
;;;;;;;;;;
;;;;;;;;;;
;;;;;;;;;;
;;;;;;;;;;
;;;;;;;;;;
;;;;;;;;;;
;;;;;;;;;;
;;;;;;;;;;
;;;;;;;;;;
;;;;;;;;;;
;;;;;;;;;;
;;;;;;;;;;
;;;;;;;;;;
;;;;;;;;;;
;;;;;;;;;;
;;;;;;;;;;
;;;;;;;;;;
;;;;;;;;;;
;;;;;;;;;;
;;;;;;;;;;
;;;;;;;;;;
;;;;;;;;;;
;;;;;;;;;;
